{
"type": "FeatureCollection",
"name": "AUS_GALICIA_1910",
"crs": { "type": "name", "properties": { "name": "urn:ogc:def:crs:OGC:1.3:CRS84" } },
"features": [
{ "type": "Feature", "properties": { "name": "AUS_GALICIA_1910" }, "geometry": { "type": "Polygon", "coordinates": [ [ [ 19.8141513707134, 49.318056319275897 ], [ 19.818719657597601, 49.3421367870232 ], [ 19.818784348357699, 49.351824599192803 ], [ 19.806274890085799, 49.380161269922702 ], [ 19.804675941104801, 49.428887018535299 ], [ 19.8203172188705, 49.501486176694499 ], [ 19.875087547483101, 49.520325313436203 ], [ 19.882761771397298, 49.525235449950699 ], [ 19.8745098588074, 49.543936991546602 ], [ 19.8524873681807, 49.550277568605701 ], [ 19.789090573295098, 49.557177068564002 ], [ 19.751893689878798, 49.580710398764197 ], [ 19.730903140381201, 49.580476792755398 ], [ 19.722642961045299, 49.581250313506096 ], [ 19.710117763925101, 49.581108224933899 ], [ 19.6695654712437, 49.605837667548599 ], [ 19.6476909778535, 49.6110979743396 ], [ 19.627987985576102, 49.610184245924202 ], [ 19.5768141237347, 49.584581109990999 ], [ 19.5504990262455, 49.582451535932798 ], [ 19.515501163215401, 49.5855006043641 ], [ 19.5110087541754, 49.600589204280503 ], [ 19.507868140532999, 49.602187462989498 ], [ 19.488122100106601, 49.601284295992201 ], [ 19.471677756883299, 49.590277350452602 ], [ 19.4529163617573, 49.580969832911599 ], [ 19.445731272498801, 49.5761545043461 ], [ 19.395668555753499, 49.555559855143301 ], [ 19.386797715583, 49.539788275307103 ], [ 19.345369449615099, 49.526261351219802 ], [ 19.309055113781, 49.529536636835303 ], [ 19.2818031477704, 49.525754507553401 ], [ 19.267621783832801, 49.524607343386499 ], [ 19.2453406621064, 49.497233165909897 ], [ 19.244693924640799, 49.472088353481702 ], [ 19.228769720918802, 49.435965989995402 ], [ 19.228374411671702, 49.420334620018998 ], [ 19.221074630173, 49.407782545562199 ], [ 19.154526469000299, 49.400413954147901 ], [ 19.1515157079338, 49.398784759881103 ], [ 19.137374343455502, 49.397215661858098 ], [ 19.111999169823601, 49.412013917235399 ], [ 19.093306543517901, 49.405710393082202 ], [ 19.0596984735493, 49.389206785076297 ], [ 19.043451592687099, 49.386564033769602 ], [ 19.000031113911799, 49.405324624065003 ], [ 18.997264429680001, 49.407841890296801 ], [ 19.005180154506402, 49.411408054181898 ], [ 19.001312290894699, 49.438283993689303 ], [ 18.977932338218299, 49.451394725439499 ], [ 18.9720344565484, 49.4686812470093 ], [ 18.96859233004, 49.493957329865999 ], [ 18.961335756408399, 49.508128037218299 ], [ 18.944465346958701, 49.517567162360798 ], [ 18.939971769591502, 49.521797969037998 ], [ 18.943363853808101, 49.523157726037397 ], [ 18.9491002786962, 49.538073049757202 ], [ 18.9605624019778, 49.548307713819298 ], [ 18.9782058827378, 49.555369670402101 ], [ 18.987206979728001, 49.5740211202545 ], [ 18.985195260828199, 49.581756311906702 ], [ 18.9901157305266, 49.592326344480298 ], [ 18.996532266824499, 49.595317454227498 ], [ 19.0035616893724, 49.6207610529693 ], [ 19.001946380449901, 49.636084950842303 ], [ 18.992125348387201, 49.655242390280399 ], [ 18.9901694675196, 49.660961080383302 ], [ 18.988160356923299, 49.666648822563701 ], [ 18.966780907268699, 49.6850469103302 ], [ 18.957168704747101, 49.696208307813002 ], [ 18.985244268420299, 49.716656505042501 ], [ 18.990820731101099, 49.7367996125407 ], [ 19.0081202029331, 49.755254843721403 ], [ 19.045859155139301, 49.758168597858202 ], [ 19.067159661597799, 49.762632485576297 ], [ 19.084253278612401, 49.775014838677897 ], [ 19.079171425173499, 49.822406749212902 ], [ 19.076185541155699, 49.824134202185697 ], [ 19.075303339059101, 49.840752026538297 ], [ 19.068379934141401, 49.8641457443996 ], [ 19.066373077691399, 49.869834675738701 ], [ 19.0607556054448, 49.876857221016799 ], [ 19.053324735712899, 49.906816123186097 ], [ 19.043283399894001, 49.935267271772901 ], [ 19.0395600941116, 49.950246284117803 ], [ 19.038987869545501, 49.951387307126801 ], [ 19.051756356789902, 49.954845922741498 ], [ 19.111915263466098, 49.955918916644301 ], [ 19.1158157197812, 49.959232262517602 ], [ 19.1168044317625, 49.960072052473897 ], [ 19.1215508416213, 49.964103008903002 ], [ 19.1220491794768, 49.970075326361403 ], [ 19.110574416246301, 49.978037070804703 ], [ 19.105611431502101, 49.994423146987401 ], [ 19.131717988976, 50.019975221481502 ], [ 19.1348071929939, 50.022996546692099 ], [ 19.169238035609201, 50.055406694243302 ], [ 19.201248076848699, 50.061981747360299 ], [ 19.213353034756199, 50.057266251713003 ], [ 19.218085707757702, 50.057650150669403 ], [ 19.223507932409898, 50.063212063474701 ], [ 19.2252680589019, 50.065017189955697 ], [ 19.213858612803801, 50.0752596417597 ], [ 19.225135127230701, 50.095511659203503 ], [ 19.231392804422299, 50.106741782109196 ], [ 19.2453757717965, 50.1294117792539 ], [ 19.243010062900499, 50.146039908055897 ], [ 19.2419247803114, 50.153665105874403 ], [ 19.231683837167999, 50.171998871802799 ], [ 19.208344817941601, 50.182982342920297 ], [ 19.185405103690002, 50.193768593800598 ], [ 19.170823284619299, 50.202581132943401 ], [ 19.171633288614899, 50.203974592807498 ], [ 19.157352065294202, 50.232722310559602 ], [ 19.161213925741698, 50.233282645002497 ], [ 19.185640428205598, 50.236569329663503 ], [ 19.2590953635404, 50.262379340349803 ], [ 19.3084268188707, 50.265350272047399 ], [ 19.352246277310599, 50.268771085127703 ], [ 19.3802164531266, 50.245305470743098 ], [ 19.407549088961499, 50.240219776023103 ], [ 19.438329623459001, 50.231607928417901 ], [ 19.4934773064107, 50.227756313871602 ], [ 19.5236947466652, 50.223241868192098 ], [ 19.548556176996001, 50.214770748580001 ], [ 19.562296125408999, 50.212274393783098 ], [ 19.5753496111552, 50.212432349765201 ], [ 19.630847146985001, 50.196793281275603 ], [ 19.656213858678601, 50.190761022434302 ], [ 19.6982191276987, 50.171473814304697 ], [ 19.718496592668401, 50.168237077559702 ], [ 19.7493518108814, 50.165304679705201 ], [ 19.7790788771559, 50.155783287286901 ], [ 19.789899304928401, 50.169009024778603 ], [ 19.847503316158299, 50.144678523908802 ], [ 19.8956216155566, 50.140146733427599 ], [ 19.9265712364239, 50.140431489389499 ], [ 19.982240813612002, 50.135147533918001 ], [ 20.030065119918302, 50.135548495317003 ], [ 20.074009982432901, 50.131339268815097 ], [ 20.1125156716768, 50.140412834171997 ], [ 20.1372185844181, 50.1478896992706 ], [ 20.1966024043864, 50.154009835319201 ], [ 20.208465399105201, 50.104757266805201 ], [ 20.222874693638602, 50.079346441322997 ], [ 20.231334894177198, 50.073947470620901 ], [ 20.248622719026301, 50.079187226005502 ], [ 20.2764141373192, 50.091077874920401 ], [ 20.290275085602101, 50.1010779282445 ], [ 20.316589638621402, 50.1118513529468 ], [ 20.325510090980501, 50.113015588463099 ], [ 20.3301029917534, 50.1160941154032 ], [ 20.3690886366415, 50.123483242197899 ], [ 20.380197101897501, 50.126915543201598 ], [ 20.392264269759998, 50.129633427983897 ], [ 20.409843625670199, 50.135059489362099 ], [ 20.4553431438923, 50.145081208146898 ], [ 20.4897918590143, 50.146732366665198 ], [ 20.527098478411698, 50.153768875641198 ], [ 20.563272731552701, 50.1544006833401 ], [ 20.566517388903598, 50.155884439463698 ], [ 20.6042316150067, 50.167529152966502 ], [ 20.648976692002702, 50.187434178038799 ], [ 20.661890334315501, 50.195697051102101 ], [ 20.684782670525799, 50.204346582363399 ], [ 20.688032491972201, 50.209742335779502 ], [ 20.701815774651902, 50.2230842145986 ], [ 20.701769998430098, 50.231393524788203 ], [ 20.721282110894201, 50.248331736579203 ], [ 20.788622392591201, 50.291224330599697 ], [ 20.824924521188098, 50.291347852442001 ], [ 20.844739382907601, 50.285519772602903 ], [ 20.884266434668799, 50.293904564597803 ], [ 20.917325602258298, 50.300070635586003 ], [ 20.936569800205401, 50.305711719014298 ], [ 20.996011945731301, 50.299551265757799 ], [ 21.015464398668499, 50.305237148466603 ], [ 21.0600064842329, 50.315278830993797 ], [ 21.110156213680799, 50.336156165088902 ], [ 21.119706081487699, 50.342170627127899 ], [ 21.1417809563752, 50.3421376734929 ], [ 21.168222618632502, 50.339354506032798 ], [ 21.186690538253401, 50.355137104056404 ], [ 21.194803402362002, 50.358903967818001 ], [ 21.1989290657867, 50.365590974779003 ], [ 21.2368943963946, 50.398079149419701 ], [ 21.243074569990199, 50.405244470112002 ], [ 21.258016611152101, 50.409726050214402 ], [ 21.290861094462802, 50.424348157603902 ], [ 21.314191308824501, 50.426425230824499 ], [ 21.324590644568399, 50.438444803702303 ], [ 21.338783831379398, 50.447308861002902 ], [ 21.389110843639902, 50.454045568359 ], [ 21.412329644593399, 50.464735856745897 ], [ 21.431429341290698, 50.495333455860802 ], [ 21.468265361760601, 50.499397401122103 ], [ 21.501418516572699, 50.503638429866399 ], [ 21.5522059544416, 50.514191101499797 ], [ 21.612428550619899, 50.516460800564602 ], [ 21.6238161986909, 50.535634749946098 ], [ 21.632001830060101, 50.557192267754303 ], [ 21.6412392731701, 50.575645538000799 ], [ 21.641093078100599, 50.583481362516302 ], [ 21.648836825906098, 50.595995454196597 ], [ 21.670371483837101, 50.621500657693304 ], [ 21.670239938341101, 50.628854311130702 ], [ 21.709638504684001, 50.662280884829698 ], [ 21.727224406331899, 50.667396819322001 ], [ 21.768222060246199, 50.6719086722646 ], [ 21.800314864232, 50.679237787914801 ], [ 21.796397811412699, 50.699400812034497 ], [ 21.824130083898901, 50.7353986934258 ], [ 21.836190786608, 50.740847552748697 ], [ 21.836262065638099, 50.787533404220397 ], [ 21.828896966166099, 50.798090699601403 ], [ 21.8667982731554, 50.797787633911398 ], [ 21.904921728684599, 50.786256280774303 ], [ 21.9235269822011, 50.786096959984199 ], [ 21.958153124095801, 50.779915925270402 ], [ 21.964155976817, 50.7654683718944 ], [ 21.970481780408999, 50.745477395802503 ], [ 21.998199917453402, 50.718021456437199 ], [ 21.975947232987998, 50.6917295733994 ], [ 21.984205699127099, 50.677950781711097 ], [ 22.018497139472899, 50.671799320251601 ], [ 22.0401466854007, 50.666585614375201 ], [ 22.045942939114799, 50.666530031152199 ], [ 22.0704458283879, 50.663766039586903 ], [ 22.134991897141798, 50.670852284088902 ], [ 22.188902504046698, 50.659487033570599 ], [ 22.208867819722901, 50.646193623593398 ], [ 22.2260711305046, 50.630657990150503 ], [ 22.244150486618899, 50.625106385428701 ], [ 22.252548554956501, 50.622907543171799 ], [ 22.291399680584501, 50.614481343994299 ], [ 22.370915410812199, 50.611467591841297 ], [ 22.397271538296501, 50.586047411329801 ], [ 22.385151483588501, 50.564526566356598 ], [ 22.362272839678798, 50.542581709686701 ], [ 22.364750911188001, 50.523545739188599 ], [ 22.370985799314901, 50.507132919011298 ], [ 22.3768358051673, 50.456015818187801 ], [ 22.304441139638399, 50.435720001838 ], [ 22.307457419552101, 50.4277989210496 ], [ 22.310339701240899, 50.4259997704198 ], [ 22.329968863476601, 50.406686133553698 ], [ 22.336642813110569, 50.397022594740605 ], [ 22.339394475993, 50.395174438808297 ], [ 22.353736051449001, 50.359053974487402 ], [ 22.3783108792889, 50.348108258809901 ], [ 22.4284104779675, 50.332555492792501 ], [ 22.474080946455899, 50.322746001235302 ], [ 22.488252333335002, 50.309775681040001 ], [ 22.4989485549774, 50.308521676200201 ], [ 22.5173513745404, 50.312409190638597 ], [ 22.518833225891299, 50.357420564113497 ], [ 22.5600657834209, 50.356856228925501 ], [ 22.5942886487645, 50.346170414863899 ], [ 22.614696278255099, 50.348175727715898 ], [ 22.631167871180299, 50.352708993643702 ], [ 22.669842203984299, 50.3589970977009 ], [ 22.680072919744202, 50.3356620046168 ], [ 22.664722118871499, 50.329387513632398 ], [ 22.627220269600301, 50.324783395762402 ], [ 22.613487603140801, 50.318657399605797 ], [ 22.616854523178301, 50.310193437401999 ], [ 22.619534144740999, 50.3083102687417 ], [ 22.628368809720602, 50.300494230108598 ], [ 22.646863573795201, 50.302685108794499 ], [ 22.656039216925699, 50.308035516457899 ], [ 22.667137902749701, 50.298204804444801 ], [ 22.715727683275201, 50.293083823808701 ], [ 22.763493285892601, 50.291716675811998 ], [ 22.798686967729999, 50.287979080882799 ], [ 22.861443482628001, 50.286578002418302 ], [ 22.870298770735399, 50.287648976434497 ], [ 22.879474164766599, 50.293164876696501 ], [ 22.890531104521401, 50.282920785252301 ], [ 22.959601388071398, 50.281529614782301 ], [ 22.9654129345953, 50.285015259634299 ], [ 23.008639875949299, 50.289434768315502 ], [ 23.0260255950523, 50.303563265272999 ], [ 23.057010257639998, 50.3256867057571 ], [ 23.0889644306252, 50.344888896509502 ], [ 23.136201384061799, 50.379929908226401 ], [ 23.156380940900998, 50.385371382927701 ], [ 23.193898122786798, 50.380748047928201 ], [ 23.2024909242357, 50.380581202519998 ], [ 23.230917319484401, 50.371513209431598 ], [ 23.270821505570499, 50.382657832170402 ], [ 23.346742577374599, 50.406858218462503 ], [ 23.364227331940299, 50.401257155428198 ], [ 23.389289232950901, 50.397765156115803 ], [ 23.404441557052699, 50.401923300615699 ], [ 23.424347010364801, 50.414113803150002 ], [ 23.444894242543899, 50.406543465183901 ], [ 23.4617322627257, 50.3836022580453 ], [ 23.4751548269581, 50.385901380723404 ], [ 23.521460375922999, 50.400115824905697 ], [ 23.5811518026632, 50.399590463575102 ], [ 23.5867406271379, 50.394106740567402 ], [ 23.600244966768098, 50.3910600863003 ], [ 23.611666456174301, 50.391116192357501 ], [ 23.6352374358794, 50.387427569935603 ], [ 23.657871312915301, 50.394050100694699 ], [ 23.657829592792801, 50.397843779693901 ], [ 23.663911974381399, 50.413687557031103 ], [ 23.658514149645399, 50.434887409905201 ], [ 23.6699431630718, 50.452371826932499 ], [ 23.727956858855201, 50.456309494503103 ], [ 23.761318408072501, 50.456430518014699 ], [ 23.788538242853001, 50.447262258224001 ], [ 23.811191170934102, 50.443683317725402 ], [ 23.835395476858601, 50.448122572112297 ], [ 23.859101062252801, 50.467409590754798 ], [ 23.8671885802347, 50.470613373269501 ], [ 23.870720128895801, 50.475970747469397 ], [ 23.878876214743102, 50.485800503802302 ], [ 23.889490602276599, 50.501882621846498 ], [ 23.9413754523517, 50.534312478751097 ], [ 23.973763444750801, 50.540391636193903 ], [ 24.039926120174702, 50.538623976500602 ], [ 24.050169560121301, 50.549995039505703 ], [ 24.058952836798699, 50.553447059635097 ], [ 24.076167334351801, 50.565101180039299 ], [ 24.044102462633699, 50.587594460652298 ], [ 24.053327163233401, 50.595625248107702 ], [ 24.009137017607902, 50.603513054070397 ], [ 24.0176971426033, 50.611453188099802 ], [ 24.111053257531299, 50.614886780585401 ], [ 24.106363869094299, 50.647409924738703 ], [ 24.1310870427182, 50.661649420242703 ], [ 24.155245890077602, 50.6555399272047 ], [ 24.1653070249519, 50.639747081373201 ], [ 24.171059317107201, 50.6182169254581 ], [ 24.193602215722901, 50.609541097505002 ], [ 24.2091784959295, 50.594626634437603 ], [ 24.245433302900601, 50.589826955415901 ], [ 24.263043142240299, 50.593226872093403 ], [ 24.2808868430735, 50.59930317792 ], [ 24.329244395911498, 50.604475320293702 ], [ 24.355253540632901, 50.6111330126393 ], [ 24.367605971228301, 50.596984215728597 ], [ 24.385927937205199, 50.569091159386701 ], [ 24.445538583180301, 50.567579208779598 ], [ 24.4627492508233, 50.570076628199999 ], [ 24.482249588367999, 50.567451006982402 ], [ 24.506816709685001, 50.5666948788963 ], [ 24.521692497075598, 50.5507289738159 ], [ 24.5253642703995, 50.542915835643498 ], [ 24.537638262604801, 50.523330215424501 ], [ 24.514263310348898, 50.4977388073968 ], [ 24.499151164518299, 50.476201230555297 ], [ 24.4530469728806, 50.4639356034061 ], [ 24.456391474678298, 50.454463625148598 ], [ 24.479722490176599, 50.427475915223297 ], [ 24.4890835040969, 50.414487302680797 ], [ 24.4957660318465, 50.409730093228099 ], [ 24.512087072074898, 50.410274196672198 ], [ 24.535872848581, 50.426543675064899 ], [ 24.553280869547802, 50.420742388523998 ], [ 24.666331173313001, 50.404484012562698 ], [ 24.6869731062793, 50.389710405600397 ], [ 24.6887517767201, 50.366827637288203 ], [ 24.696992320639001, 50.349093476089998 ], [ 24.734143976898601, 50.335173822790402 ], [ 24.767946226582499, 50.341586558992397 ], [ 24.7946332287964, 50.348506339273399 ], [ 24.807003484098399, 50.356078951833602 ], [ 24.867651761812901, 50.345902013946798 ], [ 24.893082787377999, 50.345746474830896 ], [ 24.9028846233081, 50.344096029670602 ], [ 24.908208446992301, 50.357036447843299 ], [ 24.901455673008201, 50.375213797089501 ], [ 24.9017662627985, 50.395268875215699 ], [ 24.919791751269301, 50.390497192259701 ], [ 24.923905452708301, 50.386121090213699 ], [ 24.949410036954799, 50.3698363461369 ], [ 24.989751543898802, 50.339362940674803 ], [ 25.017796780256301, 50.339161518931299 ], [ 25.032298199784499, 50.333672943764299 ], [ 25.033461117311901, 50.313527499906002 ], [ 25.046096547508899, 50.294172489667098 ], [ 25.0467204638813, 50.283327440176897 ], [ 25.074907421911998, 50.272009565126602 ], [ 25.107920103776699, 50.273610710475602 ], [ 25.134112913353899, 50.280893681650902 ], [ 25.144522945932, 50.287218967064298 ], [ 25.180733352387001, 50.280669169397598 ], [ 25.191894225942299, 50.263466365786002 ], [ 25.182657579645099, 50.248623469613797 ], [ 25.1708311960763, 50.241437914805402 ], [ 25.1554297887742, 50.235540421889297 ], [ 25.1413349923345, 50.201606590529899 ], [ 25.152473493680102, 50.185118090550503 ], [ 25.166079728809699, 50.168898213556197 ], [ 25.164617723284099, 50.134863663006598 ], [ 25.195845384025301, 50.101206008188598 ], [ 25.2667414073583, 50.0530544954741 ], [ 25.287294399717801, 50.030828088809201 ], [ 25.308871598985601, 50.019490636776801 ], [ 25.3303280787324, 50.006096294379702 ], [ 25.353857697795799, 49.99371237455 ], [ 25.391819394614298, 49.964529417044297 ], [ 25.422320994690601, 49.944660046309401 ], [ 25.426090799178301, 49.927215035426698 ], [ 25.440126737473001, 49.886745335219601 ], [ 25.456227370611, 49.866887207429997 ], [ 25.464978720428999, 49.860429777929497 ], [ 25.477108780596598, 49.840944473137 ], [ 25.495647843935501, 49.821409880470704 ], [ 25.5077574333318, 49.801922828717103 ], [ 25.528390437629799, 49.780244802308097 ], [ 25.548879339499901, 49.783690602094701 ], [ 25.585763418909998, 49.798186021589103 ], [ 25.604125836905101, 49.797204614941101 ], [ 25.6376051400553, 49.7887770742378 ], [ 25.633897135538799, 49.7396121631242 ], [ 25.638154911710899, 49.732177007994203 ], [ 25.644676188961, 49.717899663267701 ], [ 25.687846989650399, 49.708667369548003 ], [ 25.695960669540401, 49.715722258957399 ], [ 25.702747941852799, 49.722535467880697 ], [ 25.7450387346511, 49.759246669203897 ], [ 25.746307293122101, 49.768958868509401 ], [ 25.772650559763299, 49.7609638674395 ], [ 25.771033170052501, 49.748627150742102 ], [ 25.7587446949026, 49.710042487744602 ], [ 25.795229981933499, 49.710025320233697 ], [ 25.801233317877699, 49.713284815340899 ], [ 25.835126776904101, 49.719735854712297 ], [ 25.860699146671099, 49.7335977517602 ], [ 25.8762921514761, 49.724083313717003 ], [ 25.891447464585202, 49.715601239749397 ], [ 25.909083663647401, 49.704827370280498 ], [ 25.922894660182099, 49.712303447322 ], [ 25.935951707017299, 49.7147749855204 ], [ 25.9567299939492, 49.719712007139997 ], [ 25.970110263373599, 49.718953672411303 ], [ 25.973379151405901, 49.720349501626799 ], [ 26.048644782963201, 49.716202754474502 ], [ 26.108870158487701, 49.718634835458403 ], [ 26.169410265885901, 49.710324119774398 ], [ 26.1821817425615, 49.709576362981302 ], [ 26.233449941931902, 49.687775922708497 ], [ 26.245088546067102, 49.6786491063882 ], [ 26.2538183210652, 49.665823423972697 ], [ 26.262897030656401, 49.658697736486403 ], [ 26.266320048436, 49.638762311322502 ], [ 26.256760788122001, 49.629304028167397 ], [ 26.226564801923601, 49.610611836632003 ], [ 26.215548487335099, 49.597331619332799 ], [ 26.208431318659098, 49.5780028863919 ], [ 26.214712200787201, 49.546382842605503 ], [ 26.206485939511801, 49.538005442323303 ], [ 26.1703662814189, 49.528163766724496 ], [ 26.152590652154299, 49.507759541970003 ], [ 26.147158835925602, 49.495102598987103 ], [ 26.156334071404501, 49.483681750219503 ], [ 26.171802118494501, 49.459633548509203 ], [ 26.200125473639702, 49.439669119248499 ], [ 26.2020307589314, 49.430104443779101 ], [ 26.202439732807001, 49.418497309580502 ], [ 26.236960510925499, 49.399703064399397 ], [ 26.240876433023601, 49.395294345712998 ], [ 26.249361660485899, 49.3892983957982 ], [ 26.253749061858802, 49.376313947338403 ], [ 26.2524296013422, 49.359942699614699 ], [ 26.239396383534899, 49.338188599618 ], [ 26.241604688551998, 49.3263966649059 ], [ 26.246080113224501, 49.319111487941498 ], [ 26.248355817705502, 49.307619467909703 ], [ 26.262446847881598, 49.267502641172598 ], [ 26.260699437703501, 49.223453386401403 ], [ 26.238075316164501, 49.214855234166997 ], [ 26.234406851758202, 49.209583239722797 ], [ 26.2274042164346, 49.198743335304002 ], [ 26.218723118746802, 49.189394970635902 ], [ 26.232066644201701, 49.179229773062801 ], [ 26.204477138534301, 49.138281423936697 ], [ 26.209250933775898, 49.117122774055701 ], [ 26.233403033496899, 49.075999774374701 ], [ 26.231567606801001, 49.041306415312199 ], [ 26.250088069055, 49.021087821434698 ], [ 26.254799003179599, 48.994962915204901 ], [ 26.2438017376391, 48.973789690984901 ], [ 26.2295131642441, 48.961609818387402 ], [ 26.228793224425001, 48.9547062654024 ], [ 26.2206237696948, 48.944867675638903 ], [ 26.2136829408966, 48.925497988908198 ], [ 26.2155314545608, 48.917498705760899 ], [ 26.238739170835501, 48.907503135574402 ], [ 26.248128833791299, 48.895039851089102 ], [ 26.249128739976399, 48.876629333495501 ], [ 26.255302980901401, 48.8717225353206 ], [ 26.273309675011699, 48.814871580323398 ], [ 26.271223905717001, 48.799485331374797 ], [ 26.2628063852076, 48.792118495100297 ], [ 26.2654278424633, 48.776848720005901 ], [ 26.270160234553899, 48.726272389651797 ], [ 26.269858034846401, 48.713525815171302 ], [ 26.272016137260099, 48.711432319764697 ], [ 26.276800519753898, 48.707474614802301 ], [ 26.280313590261098, 48.699745658404296 ], [ 26.2842943269013, 48.692246024444103 ], [ 26.299129226678001, 48.659574577943602 ], [ 26.317826712430701, 48.6512809078502 ], [ 26.324048247355702, 48.617838976445498 ], [ 26.339771464406599, 48.594748815841797 ], [ 26.386945844174601, 48.571625049874797 ], [ 26.4716024068764, 48.565372898224901 ], [ 26.503161716901701, 48.551281396653103 ], [ 26.500195467627702, 48.5337284370408 ], [ 26.480105039288102, 48.523105423814997 ], [ 26.426879562022201, 48.521761292884499 ], [ 26.398832783761701, 48.512700327771803 ], [ 26.3670653987141, 48.521771959840201 ], [ 26.342297159512501, 48.516000142506698 ], [ 26.33198223258, 48.517308848522298 ], [ 26.317764944282199, 48.518345455247598 ], [ 26.300662966913801, 48.523908574353499 ], [ 26.282103636886902, 48.532994902356201 ], [ 26.247369175909, 48.529334147343597 ], [ 26.2163735018324, 48.525387667106301 ], [ 26.179808356327801, 48.543241974068899 ], [ 26.166135699053001, 48.549293207320297 ], [ 26.162176895670299, 48.562941028669101 ], [ 26.160150768618401, 48.609278371438997 ], [ 26.134216990385099, 48.618316468420801 ], [ 26.106476832221201, 48.605708447604499 ], [ 26.1048682774742, 48.600036528621999 ], [ 26.1219991155311, 48.5679493290069 ], [ 26.104019443369701, 48.533639851096098 ], [ 26.074515473742299, 48.546666901121498 ], [ 26.064745897825699, 48.586600979839503 ], [ 26.054185017494198, 48.591733405456097 ], [ 26.046444449492299, 48.594226952591299 ], [ 26.045880295340002, 48.608150666229697 ], [ 26.0407564233169, 48.6335926577934 ], [ 26.016893587829799, 48.649393228024799 ], [ 25.9817372249485, 48.647561483902201 ], [ 25.973137116220801, 48.645649282457498 ], [ 25.9663865689262, 48.635775932128197 ], [ 25.962572814786, 48.634927188040599 ], [ 25.957464581673001, 48.627540334486298 ], [ 25.9195970418501, 48.601212042668998 ], [ 25.902756101045998, 48.606400678133497 ], [ 25.871225229650001, 48.623868677024603 ], [ 25.848834884227099, 48.648064710528203 ], [ 25.762841430368901, 48.662243300456097 ], [ 25.729894698753501, 48.6590808119442 ], [ 25.6970212509116, 48.646366144986203 ], [ 25.651158564811901, 48.656552563342899 ], [ 25.639063009687, 48.654767062120797 ], [ 25.6321076952547, 48.652459529386 ], [ 25.6194807755673, 48.643372991096399 ], [ 25.603116343258201, 48.617050598043697 ], [ 25.6070888200402, 48.607070091996597 ], [ 25.608232629304801, 48.597001340171403 ], [ 25.600553319804199, 48.574186104101798 ], [ 25.607542325257899, 48.543813865199702 ], [ 25.609434047326101, 48.5288889935619 ], [ 25.623916234956901, 48.504037826225897 ], [ 25.621145147687901, 48.4554003922078 ], [ 25.622679318299401, 48.429847630064501 ], [ 25.6133101251243, 48.416314781093199 ], [ 25.605396353278401, 48.406463017756003 ], [ 25.6017809271444, 48.401236053168297 ], [ 25.570173342296201, 48.389672397696103 ], [ 25.5408601071858, 48.387223336656902 ], [ 25.498606784127801, 48.3954582863133 ], [ 25.458696865935501, 48.392763969427001 ], [ 25.456083278389301, 48.390863132393498 ], [ 25.443840368006001, 48.389030978830398 ], [ 25.438614841383199, 48.385228443183301 ], [ 25.418356167133101, 48.382192454584199 ], [ 25.390387779735999, 48.3727776585078 ], [ 25.3608974564698, 48.350757273201701 ], [ 25.341090724467101, 48.349224761762699 ], [ 25.3403639873119, 48.345671655460499 ], [ 25.324373088485501, 48.347123780312103 ], [ 25.278441885418999, 48.349672541821903 ], [ 25.324373088330798, 48.347123779423299 ], [ 25.323647566025301, 48.343570483324697 ], [ 25.3129869771488, 48.344537229834799 ], [ 25.3122623130112, 48.340983802782297 ], [ 25.299585317944199, 48.339642339885501 ], [ 25.266849070168401, 48.320305653171097 ], [ 25.266357917925799, 48.314272282096503 ], [ 25.254224799380399, 48.303475498965398 ], [ 25.223741429535899, 48.265942043298502 ], [ 25.200521599831699, 48.258907606244101 ], [ 25.192722133506201, 48.250472135179898 ], [ 25.175661859371299, 48.243039812102602 ], [ 25.167124751672901, 48.237971172686898 ], [ 25.157560571029101, 48.233801127211699 ], [ 25.143410545841999, 48.215180399087401 ], [ 25.1666526581269, 48.2022972588599 ], [ 25.171450724444298, 48.191421728098497 ], [ 25.168412615746, 48.182035303427597 ], [ 25.1676580608619, 48.172469475306499 ], [ 25.127046852106801, 48.171168785896 ], [ 25.097281448442899, 48.153436417689598 ], [ 25.073479435862499, 48.134185431974998 ], [ 25.0654703746773, 48.122304495866501 ], [ 25.055578590164899, 48.114267849171497 ], [ 25.052443288530601, 48.112837595021297 ], [ 25.010748567753499, 48.088799892277102 ], [ 25.003237860343901, 48.080788575486302 ], [ 24.996278190453499, 48.074367489172502 ], [ 24.982874931817499, 48.054766854296403 ], [ 24.969208293885401, 48.042141779168297 ], [ 24.9538907979112, 48.021499619584098 ], [ 24.958483947721, 47.983417866876998 ], [ 24.970921534011101, 47.945116524163701 ], [ 24.976389530447101, 47.908038694929502 ], [ 25.001889662765102, 47.863531787114503 ], [ 25.001990153219801, 47.840392973944297 ], [ 24.991956714049099, 47.801904055286101 ], [ 24.972857004721401, 47.747227388286802 ], [ 24.966191744490899, 47.738619345204299 ], [ 24.934344849484699, 47.728511488073302 ], [ 24.892516487708001, 47.774000384030899 ], [ 24.887237657679801, 47.774459811908201 ], [ 24.887919093648101, 47.778018293957203 ], [ 24.888600660378501, 47.781576766105204 ], [ 24.870285628100099, 47.793925371302201 ], [ 24.8505569105021, 47.819482446719398 ], [ 24.810382631207698, 47.839009110083701 ], [ 24.78940858611, 47.838735602081897 ], [ 24.7603455954482, 47.844229684576703 ], [ 24.733727107265999, 47.854046639343103 ], [ 24.719217075507899, 47.861770240236197 ], [ 24.7032002414056, 47.8678659742625 ], [ 24.688763497411799, 47.877173025610801 ], [ 24.6790632039828, 47.926779306626003 ], [ 24.6677328976963, 47.939622262117801 ], [ 24.622449414082901, 47.938977313856597 ], [ 24.617390107902601, 47.951590616361401 ], [ 24.6070186975561, 47.967288762070297 ], [ 24.5938643497988, 47.967096823629099 ], [ 24.583603093855501, 47.972529746412 ], [ 24.575594818588101, 47.9747798165304 ], [ 24.564225801090998, 47.998267965339998 ], [ 24.585885862127601, 48.0171453394249 ], [ 24.609498184848299, 48.026861210024101 ], [ 24.6214339231311, 48.045596694382901 ], [ 24.621487750993101, 48.066854538990398 ], [ 24.605800076918001, 48.085848487941298 ], [ 24.573031258718299, 48.108446555590099 ], [ 24.569039395538599, 48.112803779471697 ], [ 24.561720029575401, 48.118638474546401 ], [ 24.5528704718248, 48.126892644240499 ], [ 24.5341929960606, 48.141768326413597 ], [ 24.530821928567999, 48.162307739995697 ], [ 24.541541964142699, 48.205582383967901 ], [ 24.5358059485193, 48.2233515241521 ], [ 24.4906855763974, 48.281471412797401 ], [ 24.478247349497899, 48.306781732314498 ], [ 24.464911201766199, 48.326412680251899 ], [ 24.433902775147502, 48.339509739195897 ], [ 24.424669473558598, 48.340026885454101 ], [ 24.4167336809974, 48.340896708536597 ], [ 24.390742649297501, 48.3695834404487 ], [ 24.383468026766401, 48.384306772061102 ], [ 24.372116849088599, 48.393271590732397 ], [ 24.340521369373899, 48.398574502948101 ], [ 24.324201553537101, 48.3985584627329 ], [ 24.313660482844501, 48.400319856712997 ], [ 24.2946768961903, 48.4002966667138 ], [ 24.283210707596901, 48.365975518743099 ], [ 24.272565397367401, 48.356700540034403 ], [ 24.226734035816499, 48.355984987048103 ], [ 24.184936944005099, 48.379558986000298 ], [ 24.18280691703, 48.381673733813699 ], [ 24.175078352574399, 48.387318376209798 ], [ 24.164502059110799, 48.397815668530001 ], [ 24.157789208447799, 48.423478022915504 ], [ 24.153923912521101, 48.434371980218401 ], [ 24.143033532618201, 48.475947777924297 ], [ 24.1498082609133, 48.498144484433702 ], [ 24.150353313774499, 48.507208452200601 ], [ 24.158539891671602, 48.533620649946599 ], [ 24.1525684866916, 48.543618526130402 ], [ 24.1383582207804, 48.542473460124803 ], [ 24.137710867608401, 48.538907631231197 ], [ 24.132341121163702, 48.539337351864603 ], [ 24.092903270047401, 48.527058676013198 ], [ 24.038103900137401, 48.5162225092458 ], [ 24.017230028592401, 48.510514372710603 ], [ 24.014399244476799, 48.461137114247599 ], [ 23.996381625083, 48.453059290021102 ], [ 23.974886227855901, 48.450536280035799 ], [ 23.972081039880099, 48.452299884966401 ], [ 23.952312978572099, 48.4561949636837 ], [ 23.929765936972199, 48.485249111900501 ], [ 23.942813074334801, 48.514548322293201 ], [ 23.941533843859801, 48.530517772121399 ], [ 23.9215908961142, 48.535838289774702 ], [ 23.891474698684998, 48.5524161941727 ], [ 23.879192043083499, 48.555686232945703 ], [ 23.879821601217301, 48.559254605659802 ], [ 23.874445862424, 48.559672421584999 ], [ 23.8711907066827, 48.557757648801598 ], [ 23.826905114882099, 48.579797904900701 ], [ 23.802779153737099, 48.597833986822103 ], [ 23.803579475954098, 48.642640264435897 ], [ 23.767439181432501, 48.646875363929503 ], [ 23.734010327335, 48.643603120395497 ], [ 23.708975290873202, 48.650895337418397 ], [ 23.647126805594699, 48.6871047742844 ], [ 23.618080133939301, 48.7005821037773 ], [ 23.609320765247201, 48.700894250842403 ], [ 23.586626201744899, 48.709968147361501 ], [ 23.582179554871701, 48.714122549376398 ], [ 23.574221725694599, 48.716426228290899 ], [ 23.5512419903196, 48.720530403807302 ], [ 23.532959029871201, 48.721170510167198 ], [ 23.5221691454256, 48.714789615713102 ], [ 23.515049533884198, 48.711906481121503 ], [ 23.506617290610201, 48.719767875720798 ], [ 23.4410220907214, 48.728414432527103 ], [ 23.4314468026962, 48.728740882289898 ], [ 23.4087806722615, 48.731320029163797 ], [ 23.4016286556413, 48.745611498621003 ], [ 23.390484194064801, 48.759125988839102 ], [ 23.3787995939722, 48.767737069354702 ], [ 23.340613240069299, 48.757426989133201 ], [ 23.319789090312, 48.764148392177802 ], [ 23.3019816438851, 48.771001153074202 ], [ 23.273998220148901, 48.776375483384498 ], [ 23.2537425631667, 48.763881024469697 ], [ 23.236819875670101, 48.761242701229897 ], [ 23.201018860521099, 48.784307687956698 ], [ 23.192421651776598, 48.792555368617698 ], [ 23.180818555823699, 48.816327028936399 ], [ 23.167502491300699, 48.836598809601298 ], [ 23.1472164754916, 48.844359717847503 ], [ 23.1240645145724, 48.844773025910698 ], [ 23.0942737774341, 48.839855628590001 ], [ 23.056699073186401, 48.838743637523201 ], [ 23.0167275059801, 48.823952019137003 ], [ 22.997842347492501, 48.821584259428498 ], [ 22.975155217858799, 48.878452863360401 ], [ 22.912228998282, 48.919611465355501 ], [ 22.909304507551699, 48.921323083090201 ], [ 22.901013506258199, 48.932524748219997 ], [ 22.913732852632702, 48.959660561120799 ], [ 22.924154071024201, 48.968317874176499 ], [ 22.9200578945259, 48.997390434033399 ], [ 22.910797789460201, 49.009654076934403 ], [ 22.869737675501501, 49.018070604058003 ], [ 22.853411295206399, 49.0265691205623 ], [ 22.8279158554747, 49.031782034995203 ], [ 22.806870685657199, 49.039219696271999 ], [ 22.7985097256405, 49.048847234425899 ], [ 22.790130253697701, 49.050926379767098 ], [ 22.790130253750828, 49.050926380104904 ], [ 22.782209517285199, 49.053424697544898 ], [ 22.752921861731199, 49.0406889855876 ], [ 22.692070240921499, 49.037757068219697 ], [ 22.6588325701209, 49.072525689387803 ], [ 22.653600917255599, 49.076287378723002 ], [ 22.645903477302198, 49.083250085162803 ], [ 22.581579248297398, 49.090210385554499 ], [ 22.558883688119501, 49.089274490634303 ], [ 22.543422192125401, 49.092724808767102 ], [ 22.497305407948701, 49.097665314497398 ], [ 22.4571350062653, 49.096290210959303 ], [ 22.436319228401999, 49.098468217162399 ], [ 22.392194929603502, 49.1297836630132 ], [ 22.381478170360101, 49.133885421945799 ], [ 22.3768911649979, 49.137999448172103 ], [ 22.3325595521354, 49.144251119703704 ], [ 22.3217411790326, 49.137710005101603 ], [ 22.295053303483801, 49.134109019917403 ], [ 22.284082608365999, 49.143923976282601 ], [ 22.258022229424199, 49.156217289229403 ], [ 22.247246521519301, 49.165844947465303 ], [ 22.194559264481299, 49.174672137330099 ], [ 22.173556384550999, 49.179804560367202 ], [ 22.151876462641201, 49.184568272102297 ], [ 22.133346362631698, 49.192741579453198 ], [ 22.123271117915401, 49.195485748621998 ], [ 22.121343684632699, 49.197743964192902 ], [ 22.1098722392395, 49.204056059396997 ], [ 22.074573286676198, 49.212370765334498 ], [ 22.064047332767299, 49.227603696200603 ], [ 22.066892486664099, 49.264044409857 ], [ 22.064189216591799, 49.265883890357102 ], [ 22.048226763996698, 49.286647377585702 ], [ 22.017884260937901, 49.315786083975802 ], [ 22.008099603508899, 49.334662255430999 ], [ 21.9913899262441, 49.351639671621903 ], [ 21.954575414559201, 49.363411319082402 ], [ 21.941105852211098, 49.363517195463601 ], [ 21.900931756580899, 49.3740837144992 ], [ 21.895221540062099, 49.379310341507001 ], [ 21.889571241597299, 49.382864246003599 ], [ 21.883084090899601, 49.389275120268401 ], [ 21.8448039154156, 49.395275119127497 ], [ 21.817519561957798, 49.386874557314698 ], [ 21.818693099709201, 49.363845751104598 ], [ 21.8038541156684, 49.352823418706301 ], [ 21.7923970760692, 49.356505193200199 ], [ 21.792736149173098, 49.389268469551901 ], [ 21.775933932474299, 49.400588285238697 ], [ 21.771380653230501, 49.4047403613298 ], [ 21.724692112140598, 49.409150912001103 ], [ 21.671955673918301, 49.4164396114491 ], [ 21.648208116737401, 49.438013843698101 ], [ 21.6107070336075, 49.433586706560298 ], [ 21.561957203204098, 49.438967853568201 ], [ 21.521675355341898, 49.420831190003902 ], [ 21.507501059138001, 49.419960131561197 ], [ 21.472010400069902, 49.423913249422398 ], [ 21.458159465020501, 49.423964612016498 ], [ 21.431339777676602, 49.426891531720401 ], [ 21.425934653440301, 49.431770355983197 ], [ 21.4010242789935, 49.4347322230009 ], [ 21.380016880057699, 49.4400237485684 ], [ 21.370511260146898, 49.4396387555026 ], [ 21.3335401384393, 49.448935854505997 ], [ 21.2982693438205, 49.454855449825097 ], [ 21.257881459208601, 49.445877814264499 ], [ 21.229475362343699, 49.425600277015903 ], [ 21.2109921840262, 49.417790970524301 ], [ 21.177794516156901, 49.414856566564303 ], [ 21.156880154848899, 49.426819609259503 ], [ 21.142960346721601, 49.429137191316997 ], [ 21.111629442688699, 49.429589385338602 ], [ 21.0810664705267, 49.421577838470299 ], [ 21.064920309648201, 49.437151859647102 ], [ 21.011215360037699, 49.450280023705297 ], [ 20.9621100053802, 49.4659440886482 ], [ 20.948221682837101, 49.468268959887901 ], [ 20.9256436334257, 49.463502255149699 ], [ 20.906323515714899, 49.451017849838998 ], [ 20.837835762069201, 49.458139196116797 ], [ 20.802092196935298, 49.432395664882002 ], [ 20.7775334271582, 49.424000972120801 ], [ 20.7705624592984, 49.419475579318501 ], [ 20.765055047592199, 49.419751212253303 ], [ 20.7392257749915, 49.419826286378601 ], [ 20.682101881709901, 49.404630463391101 ], [ 20.676773316072499, 49.398877935050599 ], [ 20.672856874530599, 49.405042441051897 ], [ 20.6528184812814, 49.407241060496801 ], [ 20.649529742476201, 49.405828072922901 ], [ 20.644266086963501, 49.402006662238797 ], [ 20.6321835537615, 49.3994492751115 ], [ 20.616295243701298, 49.3879069388395 ], [ 20.578359467404201, 49.385571973958697 ], [ 20.5676568835705, 49.388252848777597 ], [ 20.523340392986199, 49.407305922951998 ], [ 20.5178864231783, 49.412106833165801 ], [ 20.492703545403302, 49.420928927061098 ], [ 20.477621247414, 49.420856243625302 ], [ 20.462363033464001, 49.410868736713098 ], [ 20.4355398801174, 49.4015941152891 ], [ 20.351296925899799, 49.410000880448102 ], [ 20.325210306501599, 49.409841903845802 ], [ 20.276494858733201, 49.417947799634803 ], [ 20.269903124831, 49.423708366426197 ], [ 20.239556337468098, 49.426763643869002 ], [ 20.1474302938982, 49.4419385314865 ], [ 20.126020414674301, 49.4255589522703 ], [ 20.1472970186982, 49.402482835207202 ], [ 20.140291823079199, 49.3668833679057 ], [ 20.146153190666301, 49.353382269441298 ], [ 20.150688729385902, 49.3407988825385 ], [ 20.1600299683145, 49.327467853842997 ], [ 20.160166823638502, 49.303872623543299 ], [ 20.1534574517873, 49.294437645029902 ], [ 20.1565526940057, 49.257982055560703 ], [ 20.137701500996599, 49.223773719459402 ], [ 20.130335329066099, 49.204073471309698 ], [ 20.115755251591398, 49.185100556979201 ], [ 20.095007476931698, 49.178295783809901 ], [ 20.086309558243101, 49.177073308165198 ], [ 20.0536784189363, 49.180764649099501 ], [ 20.0235160329477, 49.216960845063703 ], [ 19.936747842564898, 49.225031047051502 ], [ 19.905394684140099, 49.204854571389703 ], [ 19.885691002928201, 49.2017668805751 ], [ 19.869770265447698, 49.203067610985599 ], [ 19.863417107872898, 49.208378215990997 ], [ 19.789085342396099, 49.197104917904099 ], [ 19.780681666717001, 49.208227183399899 ], [ 19.778178165328399, 49.217363891815502 ], [ 19.782421446969, 49.226220762705701 ], [ 19.792415864257901, 49.231362720645798 ], [ 19.8168207756678, 49.263706087708201 ], [ 19.816881553052799, 49.273121522666997 ], [ 19.8309358956251, 49.294369033644401 ], [ 19.8141513707134, 49.318056319275897 ] ] ] } }
]
}
