{
"type": "FeatureCollection",
"name": "pale_inside_poland_lithuania",
"crs": { "type": "name", "properties": { "name": "urn:ogc:def:crs:OGC:1.3:CRS84" } },
"features": [
{ "type": "Feature", "properties": { "name": "pale_of_settlement_1818" }, "geometry": { "type": "MultiPolygon", "coordinates": [ [ [ [ 26.242866496980781, 48.618913666009583 ], [ 26.396546237467039, 48.581144503877688 ], [ 26.387967853124223, 48.572568343207955 ], [ 26.374001136883663, 48.576005100111722 ], [ 26.360033355813488, 48.579439962768639 ], [ 26.346064512026427, 48.58287293072155 ], [ 26.3320946076363, 48.586304003514222 ], [ 26.323485474119565, 48.577672909804654 ], [ 26.309517715436805, 48.581100134664595 ], [ 26.281579037936982, 48.587948897919254 ], [ 26.253636161039246, 48.594790076206579 ], [ 26.225729215026583, 48.601613857447482 ], [ 26.242866496980781, 48.618913666009583 ] ] ], [ [ [ 26.605256340490328, 48.701860248897361 ], [ 26.380875497900639, 48.757306249163513 ], [ 26.485074276779176, 48.861183276961512 ], [ 26.428780378755636, 48.87506292984888 ], [ 26.463594203337095, 48.909735547404601 ], [ 26.294451204383691, 48.951284501764633 ], [ 26.425011319869135, 49.08173023959872 ], [ 26.410859933085202, 49.08520975596295 ], [ 26.419594109535829, 49.093911904135744 ], [ 26.207140877468728, 49.14590098838854 ], [ 26.346669519919349, 49.28567471082826 ], [ 26.118930652655976, 49.341151659829251 ], [ 26.249921394991539, 49.4727744994575 ], [ 26.235628027437297, 49.476254845632987 ], [ 26.24439137188779, 49.485035403354033 ], [ 26.029806379208207, 49.537032331837864 ], [ 25.800644498775998, 49.592002353365302 ], [ 25.571211766931711, 49.646461311716919 ], [ 25.341517571760278, 49.700407453610801 ], [ 25.478847262761064, 49.842948803959807 ], [ 25.016893478100023, 49.950287467367609 ], [ 25.153495640788115, 50.093956779519978 ], [ 24.921223645547901, 50.147339902180683 ], [ 25.023701721094969, 50.255552011942342 ], [ 24.965420187784897, 50.268908664704696 ], [ 24.999659347325338, 50.305027030668583 ], [ 24.824546086372003, 50.344991503630297 ], [ 24.688708948569158, 50.200196791137891 ], [ 24.455961439820221, 50.252525923693518 ], [ 24.222991079282824, 50.304325845686222 ], [ 24.356921272400083, 50.450100505486645 ], [ 23.888406032266904, 50.55307244308483 ], [ 23.954808905100624, 50.626499281250531 ], [ 23.837303624080487, 50.652027334497951 ], [ 23.903734994740212, 50.725612005574959 ], [ 23.785930720328206, 50.751125492603755 ], [ 23.919127109812301, 50.898647060542856 ], [ 23.682364759766806, 50.949748841594214 ], [ 23.80730665083663, 51.08863668971069 ], [ 23.792442898922445, 51.091840727194651 ], [ 23.800803441737152, 51.101106345846034 ], [ 23.577690591033328, 51.148936861728458 ], [ 23.694363758762378, 51.279112069998376 ], [ 23.664489648733863, 51.28550570656239 ], [ 23.681211783004457, 51.304118745640167 ], [ 23.471890285213917, 51.348683773650521 ], [ 23.605401390225019, 51.498092532815605 ], [ 23.364945534636981, 51.548983645463785 ], [ 23.498550963336704, 51.699019438385903 ], [ 23.256837643205955, 51.749830391222993 ], [ 23.525385773938456, 52.05129152181658 ], [ 23.037055651279868, 52.153139381538004 ], [ 22.792590682279702, 52.203196217660825 ], [ 22.925342125450573, 52.35558867044918 ], [ 22.679579692588856, 52.405544483869988 ], [ 22.547941235915154, 52.252673609509614 ], [ 22.303118990655307, 52.301570620269054 ], [ 22.43363399831118, 52.454915546372206 ], [ 22.187516900064256, 52.503700952424488 ], [ 22.318056774390122, 52.65766767837102 ], [ 22.449768602323175, 52.811780838056805 ], [ 22.57399175965493, 52.786986420092489 ], [ 22.64057889523923, 52.863975999681195 ], [ 22.765041552849496, 52.83891216857986 ], [ 22.832214132487348, 52.915814417629385 ], [ 22.96746391714257, 53.069715924843599 ], [ 22.716762129839211, 53.120423121372937 ], [ 22.465857683208679, 53.17052581965369 ], [ 22.214763050316151, 53.220023078491302 ], [ 22.347721571857679, 53.375509482792495 ], [ 22.617302743251301, 53.686870829361844 ], [ 22.871955800085857, 53.635913440453749 ], [ 23.009803605697655, 53.791280507286139 ], [ 23.265416388078926, 53.739203594574697 ], [ 23.405718440710466, 53.894174406774574 ], [ 23.662258371899547, 53.840965381087038 ], [ 23.805026219116176, 53.995519865644383 ], [ 23.94909782393432, 54.150160894682188 ], [ 23.690190935531778, 54.204402406978559 ], [ 23.94341335109074, 54.476131179210761 ], [ 23.878116215596581, 54.489820542784329 ], [ 23.914548962285174, 54.528690921261941 ], [ 23.718315996289721, 54.569615366567746 ], [ 23.863979107416728, 54.7255365247904 ], [ 23.600847274342605, 54.780059193700502 ], [ 23.337414840421605, 54.833928503564607 ], [ 23.481959954368151, 54.990969733463125 ], [ 23.216983037604649, 55.044702623432045 ], [ 23.018061747713517, 55.084568694524599 ], [ 22.982351692976476, 55.045074689807308 ], [ 22.916089763127953, 55.058248608026886 ], [ 22.809703948970483, 54.939701819611628 ], [ 22.54545363966928, 54.991603454418268 ], [ 22.280959018495583, 55.042846988127529 ], [ 22.01623440136434, 55.093431478458513 ], [ 21.75129419392966, 55.143356080992298 ], [ 21.486152887603129, 55.192620049389838 ], [ 21.621613898792489, 55.353184234563493 ], [ 21.354936507319433, 55.402269668473593 ], [ 21.490361735829936, 55.563425554242279 ], [ 21.255641639465239, 55.606216571578443 ], [ 21.255669632833108, 55.606250134690832 ], [ 21.222130456741763, 55.612325880594099 ], [ 21.357509249641506, 55.774070741259472 ], [ 21.138059926869019, 55.813399520781871 ], [ 21.138308259091875, 55.813698143092097 ], [ 21.087706003465705, 55.822779296440878 ], [ 21.12141074381206, 55.86335247561361 ], [ 21.087628577733739, 55.86940835089171 ], [ 21.10449033038466, 55.889704897121625 ], [ 21.112929043852926, 55.899853774530015 ], [ 21.096020433905476, 55.902883369063851 ], [ 21.104458885657358, 55.913034530513698 ], [ 21.110791158201554, 55.920648164305817 ], [ 21.106561490238416, 55.921405970832225 ], [ 21.108672558602265, 55.923944016420393 ], [ 21.095982255060285, 55.926216790079422 ], [ 21.10442567728872, 55.936370634526149 ], [ 21.108649352856176, 55.941447706113365 ], [ 21.100184800379498, 55.942963468551881 ], [ 21.104408410293928, 55.948041110615179 ], [ 21.095942301915414, 55.949556677402306 ], [ 21.104390700653131, 55.95971320147752 ], [ 21.087452436647773, 55.962744218386014 ], [ 21.104353951111271, 55.983062223670537 ], [ 21.087403938906171, 55.986094340209831 ], [ 21.095857054111029, 55.996255820190825 ], [ 21.104315424010068, 56.006417693392152 ], [ 21.087353646818858, 56.00945090860538 ], [ 21.104275114682611, 56.029779602913479 ], [ 21.0873015556827, 56.032813915840805 ], [ 21.095764653122981, 56.042980735712945 ], [ 21.102115433018266, 56.050606105925951 ], [ 21.097869508100842, 56.051365091562317 ], [ 21.099986747443303, 56.053907048156717 ], [ 21.087247660780594, 56.056183354168461 ], [ 21.09995178494837, 56.071437726387565 ], [ 21.091454676011693, 56.072955842193572 ], [ 21.09569025301138, 56.078040839247748 ], [ 21.070194054038108, 56.082593038438432 ], [ 21.087134440739952, 56.102941493030784 ], [ 21.053114234928099, 56.109008636476318 ], [ 21.070053515551148, 56.129366183628505 ], [ 21.036343218415219, 56.135370447618342 ], [ 21.086886146352352, 56.196534601211091 ], [ 21.223497959524785, 56.359544945167144 ], [ 21.497736930003562, 56.310060144976376 ], [ 21.637160717310802, 56.472665269889127 ], [ 21.912600605366809, 56.421985052737192 ], [ 22.054856032718565, 56.584162925835393 ], [ 22.331459834999574, 56.532272201280378 ], [ 22.607783228401555, 56.479676667258566 ], [ 22.883810214950405, 56.426377346391526 ], [ 23.15952491474231, 56.372375370129816 ], [ 23.297260228048469, 56.345111269470841 ], [ 23.372056245655688, 56.42504770668674 ], [ 23.510046174236209, 56.397474258036581 ], [ 23.585548494981051, 56.477285935172439 ], [ 23.861935447421153, 56.421340735220326 ], [ 24.275807879834296, 56.336103957328504 ], [ 24.353350080382118, 56.415237509170566 ], [ 24.491438910530619, 56.386335130416654 ], [ 24.569685017526528, 56.465333277894352 ], [ 24.777112373737555, 56.421439403769625 ], [ 24.816621840861369, 56.460833798179081 ], [ 24.88579142251983, 56.446079054969147 ], [ 24.954933386875997, 56.431280272611424 ], [ 24.91526209742381, 56.391956804451041 ], [ 25.12227914586283, 56.347403499294977 ], [ 25.397904544846138, 56.287385552831473 ], [ 25.604317387781247, 56.241913108616082 ], [ 25.644781931211895, 56.28087742186117 ], [ 25.713604507475928, 56.265596376494273 ], [ 25.835807385658139, 56.382375929730273 ], [ 25.559396491025286, 56.443674380835446 ], [ 25.640719797191519, 56.521815042792539 ], [ 25.502014363528584, 56.552345802340419 ], [ 25.583408013658289, 56.630628670053873 ], [ 25.665191462173588, 56.708907385220691 ], [ 25.804532399947124, 56.678083977166018 ], [ 25.887026266326689, 56.756210278624565 ], [ 26.165952549615291, 56.693734145047991 ], [ 26.305215790669823, 56.662229317643288 ], [ 26.389046831299293, 56.739901594236187 ], [ 26.528483862808898, 56.708069109991285 ], [ 26.613022743647555, 56.785580829573981 ], [ 26.783304501795271, 56.940569275109077 ], [ 26.955206984318764, 57.09550425233919 ], [ 27.128748842952184, 57.250377510715275 ], [ 27.303948931885341, 57.405180709922782 ], [ 27.44602068851265, 57.371784471134816 ], [ 27.490236568778499, 57.410394801127552 ], [ 27.561288031356579, 57.393588898705708 ], [ 27.516995360029902, 57.355017941830354 ], [ 27.587928911905248, 57.338205871985728 ], [ 27.871247233024008, 57.270503195353186 ], [ 27.941895982038382, 57.253399215199295 ], [ 27.919637660044106, 57.23429542284385 ], [ 27.908480476372567, 57.224710520022924 ], [ 27.89081736089339, 57.228967065147138 ], [ 27.879671393873039, 57.219379335418473 ], [ 27.868531966145405, 57.209791263182787 ], [ 27.857399073166139, 57.200202850514728 ], [ 27.846272710393688, 57.19061409948759 ], [ 27.835152873289331, 57.181025012173279 ], [ 27.852792625766387, 57.176780859800594 ], [ 27.825009872294125, 57.152812868432122 ], [ 27.833822931282462, 57.150692828452875 ], [ 27.828270098149147, 57.145899599603233 ], [ 27.837081338777146, 57.143779474015417 ], [ 27.825978219712841, 57.134194005312132 ], [ 27.843594083151331, 57.12995411626634 ], [ 27.826944603338394, 57.11557900530277 ], [ 27.835748064335434, 57.113459860128046 ], [ 27.830200322129006, 57.108668610587941 ], [ 27.839001969147404, 57.106549380574883 ], [ 27.827909026926957, 57.096967872418311 ], [ 27.816822574560366, 57.087386039483448 ], [ 27.834414614197502, 57.083150413660896 ], [ 27.780438269811224, 57.036446418965383 ], [ 27.782634259395081, 57.035918271728093 ], [ 27.781252200006474, 57.034720672778171 ], [ 27.796622494172667, 57.031022685913165 ], [ 27.785565588080775, 57.021443873921321 ], [ 27.803124584845964, 57.017217441975404 ], [ 27.781020860407942, 56.998063807159333 ], [ 27.775498961809461, 56.993275204045482 ], [ 27.784271698525803, 56.991164017490924 ], [ 27.778750252306324, 56.986375952495059 ], [ 27.787521189915065, 56.984264682377102 ], [ 27.776480813170842, 56.974689551718328 ], [ 27.794016135876323, 56.970467376925441 ], [ 27.829079101036051, 56.96201464764399 ], [ 27.818031284155477, 56.952446594713372 ], [ 27.835554302114257, 56.94821850553388 ], [ 27.853074755362641, 56.94398762628559 ], [ 27.853221105090874, 56.943952256933819 ], [ 27.797885986612339, 56.896167374275223 ], [ 28.077495842296006, 56.828292094936209 ], [ 28.11235729269896, 56.819720624515057 ], [ 28.101299871636684, 56.810237180183222 ], [ 28.118743801659225, 56.805968322306754 ], [ 28.107645000676293, 56.79644992130499 ], [ 28.125081808495217, 56.792180772216057 ], [ 28.113984897988782, 56.78266452580305 ], [ 28.131414589708932, 56.778395087102801 ], [ 28.120319570092043, 56.76888099585242 ], [ 28.137742151810702, 56.764611269140396 ], [ 28.126649023493332, 56.755099333625452 ], [ 28.144064501300182, 56.750829320499626 ], [ 28.132973264689241, 56.741319541291865 ], [ 28.150381644666403, 56.737049243348636 ], [ 28.161477378587644, 56.74655654696145 ], [ 28.178887651915019, 56.742281013833406 ], [ 28.189994272098637, 56.751785518850014 ], [ 28.207406425767186, 56.747504748114913 ], [ 28.218523931701757, 56.757006449013339 ], [ 28.235937952683791, 56.752720438255437 ], [ 28.247066343832721, 56.762219329513854 ], [ 28.264482219081948, 56.757928076323942 ], [ 28.258914983913041, 56.753179913706489 ], [ 28.267620816117038, 56.751033873423594 ], [ 28.262054063421314, 56.746286249040757 ], [ 28.270758119757161, 56.744140140231046 ], [ 28.288164258995671, 56.739845854629522 ], [ 28.305567764139379, 56.735548812414358 ], [ 28.322968631770628, 56.731249014421977 ], [ 28.31182430006174, 56.72176221498129 ], [ 28.311866384295573, 56.721751806851287 ], [ 28.267310907028236, 56.683811710672813 ], [ 28.406244983105786, 56.649413741672582 ], [ 28.317240145403517, 56.573656008142578 ], [ 28.455723381474975, 56.539241696368741 ], [ 28.522807041038032, 56.595903368808948 ], [ 28.539974894099018, 56.59161357842212 ], [ 28.551155985669308, 56.60106005527593 ], [ 28.562343451720416, 56.61050618869583 ], [ 28.573537296485618, 56.619951976638177 ], [ 28.584737524200538, 56.629397417057987 ], [ 28.595944139103157, 56.638842507908983 ], [ 28.60715714543382, 56.64828724714355 ], [ 28.618376547435219, 56.657731632712782 ], [ 28.601123275215045, 56.662052544876445 ], [ 28.62350963266698, 56.680961001292403 ], [ 28.640834555432715, 56.676619334652919 ], [ 28.629602349352378, 56.667175662566429 ], [ 28.646959533946468, 56.662823900447222 ], [ 28.681665780046547, 56.654112155413536 ], [ 28.662001895618282, 56.637598023247278 ], [ 28.666337506296887, 56.636509381505199 ], [ 28.663529707016895, 56.634150286655697 ], [ 28.693872338353202, 56.626526102332136 ], [ 28.682637515281098, 56.61709388519094 ], [ 28.699968087207562, 56.612735954615744 ], [ 28.717295950248488, 56.6083752907251 ], [ 28.706058824194862, 56.598947728940168 ], [ 28.740697735928816, 56.590223221659016 ], [ 28.775325791386116, 56.581487795428295 ], [ 28.809942964044065, 56.572741457258608 ], [ 28.844549227436808, 56.563984214185048 ], [ 28.867099033072645, 56.582798786290269 ], [ 28.884406667814012, 56.578411045161005 ], [ 28.895695458192169, 56.58781525604391 ], [ 28.906990645101406, 56.597219091561776 ], [ 28.918292232731321, 56.606622549659377 ], [ 28.926951465615751, 56.604423876986885 ], [ 28.932605735123641, 56.609124833324003 ], [ 28.941265350798453, 56.606924848033401 ], [ 28.946878019733937, 56.611588290526427 ], [ 29.189139004750611, 56.549731311551739 ], [ 29.36171773985243, 56.505116971121424 ], [ 29.350399727903653, 56.495855722491847 ], [ 29.367647410875939, 56.491389782003317 ], [ 29.356235707392933, 56.482052184521621 ], [ 29.373476374505735, 56.477586084954829 ], [ 29.364918664125813, 56.470584526547029 ], [ 29.369227605236411, 56.469468056503523 ], [ 29.366375573306485, 56.46713431157913 ], [ 29.379300549971362, 56.463784365479981 ], [ 29.396531364801589, 56.459315407459457 ], [ 29.385119943235484, 56.449984625639431 ], [ 29.402343755902578, 56.445515513428241 ], [ 29.390934560251011, 56.436186867491294 ], [ 29.40815137678025, 56.43171760261221 ], [ 29.425365350900382, 56.427245641433124 ], [ 29.442576479430453, 56.422770984888395 ], [ 29.459784759193159, 56.418293633913869 ], [ 29.476990187014806, 56.413813589446875 ], [ 29.494192759725372, 56.409330852426237 ], [ 29.511392474158438, 56.404845423792217 ], [ 29.528589327151252, 56.400357304486604 ], [ 29.540031605003975, 56.409665561578137 ], [ 29.551480261831991, 56.418973399077302 ], [ 29.568682477039239, 56.414477483584555 ], [ 29.580141629610573, 56.423782344385209 ], [ 29.591607168789508, 56.433086780259138 ], [ 29.608814721954101, 56.428583061132457 ], [ 29.620289150009171, 56.437883207760557 ], [ 29.603079098622114, 56.44239078914238 ], [ 29.695085086982392, 56.51680724044359 ], [ 29.832958750825192, 56.480517410307733 ], [ 29.970643243987485, 56.444055258655993 ], [ 30.10813697384328, 56.407421288446237 ], [ 30.061694097663008, 56.37046388078457 ], [ 30.078846479306961, 56.365879028334 ], [ 30.067252670551635, 56.356644987925677 ], [ 30.050099382853226, 56.361223357991122 ], [ 30.015353585186528, 56.333499012689231 ], [ 30.049633252208491, 56.324355093111947 ], [ 30.032269932728955, 56.310499109179524 ], [ 30.040835005528084, 56.308213396781895 ], [ 30.035049424586198, 56.303595151276546 ], [ 30.06073720724207, 56.296735950312197 ], [ 30.07231593022572, 56.305968456377975 ], [ 30.089441380244747, 56.301389743808926 ], [ 30.106563853314132, 56.29680836710979 ], [ 30.118124337756335, 56.306009337923449 ], [ 30.289256623337501, 56.260049291562865 ], [ 30.562387822686148, 56.18592016896357 ], [ 30.834734993039945, 56.111115830647215 ], [ 31.106286190410064, 56.035640553653202 ], [ 31.241759634332695, 55.997652674297299 ], [ 31.336741059866739, 56.070069619056987 ], [ 31.472242967790788, 56.03174641205436 ], [ 31.567862462011103, 56.103957698324209 ], [ 31.838698245571948, 56.026473373557998 ], [ 31.69473833525635, 55.9186534321503 ], [ 31.762146423573057, 55.899306989716372 ], [ 31.714305925259996, 55.863390821658584 ], [ 31.91604822046726, 55.805233196777536 ], [ 31.725021423170364, 55.661986943470986 ], [ 31.535589187822705, 55.518598296803944 ], [ 31.347737279052463, 55.375075640748342 ], [ 31.161451528761091, 55.231427282711877 ], [ 31.06889155456582, 55.159558540512016 ], [ 31.201124059042492, 55.122095748667974 ], [ 31.108725732152976, 55.050363870518957 ], [ 31.240545584251283, 55.012907187179181 ], [ 31.503615771346219, 54.937518650552718 ], [ 31.318645242329417, 54.79496255327512 ], [ 31.580086824882624, 54.719607842925683 ], [ 31.395769445234809, 54.577600424772555 ], [ 31.21295244654268, 54.43548590802164 ], [ 31.471936660103403, 54.360827687627157 ], [ 31.601153495612369, 54.323268394945259 ], [ 31.693010402642347, 54.393845844480417 ], [ 31.822249400608762, 54.355968900193041 ], [ 31.914685222179262, 54.426353396380307 ], [ 32.173003281254161, 54.349810540647262 ], [ 32.080160270864049, 54.279757949773717 ], [ 32.208829679245284, 54.241425043003545 ], [ 32.116156290308915, 54.171509149924432 ], [ 32.244434681805878, 54.133191540513927 ], [ 32.500416241373323, 54.056106837112765 ], [ 32.3612088013289, 53.951925468754915 ], [ 32.424938352978089, 53.932685796138898 ], [ 32.378669843831048, 53.89798548877986 ], [ 32.569427302339619, 53.840169046758739 ], [ 32.430733021227482, 53.736397946729525 ], [ 32.494080317994403, 53.717176469523061 ], [ 32.447981592778653, 53.682613218816059 ], [ 32.63759742594889, 53.624853530589029 ], [ 32.545385321312374, 53.555953959472063 ], [ 32.671372021161247, 53.517431025488591 ], [ 32.579329703402607, 53.448668692235657 ], [ 32.704942195812691, 53.410166350277976 ], [ 33.205501482295396, 53.254724612480011 ], [ 33.33016321442495, 53.215508926222391 ], [ 33.423286618124919, 53.283275870068493 ], [ 33.547928031326762, 53.24375243796019 ], [ 33.641576604908693, 53.311320610874034 ], [ 33.890607722275632, 53.231517153866392 ], [ 33.726360398888879, 53.113838000254496 ], [ 33.757359878503635, 53.103896580056414 ], [ 33.733973082932287, 53.08708752959663 ], [ 33.826647551753119, 53.057085704697172 ], [ 33.803469897259447, 53.040462808985147 ], [ 33.834399226257659, 53.03050759281566 ], [ 33.811014305815092, 53.013736311045726 ], [ 33.841920946902704, 53.003782898640068 ], [ 33.90369728714299, 52.983850172916924 ], [ 33.950210012223508, 53.017084403903681 ], [ 34.011989753863546, 52.997084235414967 ], [ 33.965424268448814, 52.963882974726964 ], [ 34.02710176786757, 52.943881378771934 ], [ 33.991957185596128, 52.918830448190043 ], [ 34.007361190078313, 52.913832533388252 ], [ 33.995654608930849, 52.905483811173276 ], [ 34.041840462463576, 52.89048506170073 ], [ 34.000883322797975, 52.861287959414177 ], [ 34.008573828200994, 52.858790870105757 ], [ 34.002727570689096, 52.854619998858063 ], [ 34.056535114056295, 52.837129997365231 ], [ 34.057036836955504, 52.836966529703297 ], [ 33.823609056614686, 52.670375773716493 ], [ 33.65031718088246, 52.545184830940876 ], [ 33.665594809454156, 52.540273752223634 ], [ 33.65408196975698, 52.531926624556917 ], [ 33.882852979354936, 52.458045856324752 ], [ 34.126136920489181, 52.37871930196075 ], [ 34.308024350199744, 52.318824359459605 ], [ 34.261668850412363, 52.285926275336521 ], [ 34.231391969108977, 52.295900363735051 ], [ 34.208219886100643, 52.27941293848577 ], [ 34.185068729572393, 52.262923609849736 ], [ 34.215326275616611, 52.252970236874056 ], [ 34.169067290885437, 52.220006611030641 ], [ 34.145969100035536, 52.203521988699528 ], [ 34.176185654400058, 52.193591385780906 ], [ 34.15309861995982, 52.177115235282415 ], [ 34.183293595615467, 52.167186725937064 ], [ 34.09111468974772, 52.101305030222392 ], [ 34.076027924324137, 52.106242439795658 ], [ 34.064541454721443, 52.098009866476438 ], [ 34.053050047214207, 52.089769593004085 ], [ 34.068121840129649, 52.084830075325712 ], [ 34.045149705630848, 52.068353336506135 ], [ 34.060213708495496, 52.063416909196327 ], [ 34.048732976716067, 52.055180444865485 ], [ 34.037257415713356, 52.046943538901921 ], [ 34.052313636001131, 52.042010200775557 ], [ 34.035106345138935, 52.029657869361174 ], [ 34.042631539294234, 52.027192358335057 ], [ 34.036897751728596, 52.023075336928073 ], [ 34.104586138424487, 52.000868506779504 ], [ 34.116065874754391, 52.009090882274414 ], [ 34.131102090934313, 52.004147843970323 ], [ 34.146135371162593, 51.999202764922792 ], [ 34.161165713649424, 51.994255646265962 ], [ 34.176193116607728, 51.98930648913479 ], [ 34.191217578253152, 51.984355294665072 ], [ 34.185471070290831, 51.980250588489255 ], [ 34.192981600545785, 51.977774870493597 ], [ 34.187235783039156, 51.973670695101042 ], [ 34.239784719571468, 51.956330929711754 ], [ 34.269796482048463, 51.946411317257642 ], [ 34.258295624481761, 51.93821677420997 ], [ 34.273294714325473, 51.93325649665956 ], [ 34.264670667630682, 51.927112222155969 ], [ 34.268419535862165, 51.925872318203979 ], [ 34.265545347781007, 51.923824331050916 ], [ 34.276790404200369, 51.920104341396588 ], [ 34.291781234533779, 51.915142582570681 ], [ 34.280283554512465, 51.906954852608969 ], [ 34.274536638681397, 51.902860818593574 ], [ 34.282029178218579, 51.900381108499168 ], [ 34.276282954413851, 51.896287604743847 ], [ 34.283774168096826, 51.893808031434844 ], [ 34.272284385770433, 51.885621972299802 ], [ 34.287262247784369, 51.880663879010221 ], [ 34.275775231101207, 51.872479941373832 ], [ 34.29074779640171, 51.867522396468964 ], [ 34.267784409882097, 51.851158318291475 ], [ 34.256310391607776, 51.84297561149031 ], [ 34.271272952972851, 51.838023751380206 ], [ 34.259801690806071, 51.829843168076245 ], [ 34.248335538929233, 51.821662142767686 ], [ 34.242604378677989, 51.817571464910678 ], [ 34.250081615732249, 51.815097985494305 ], [ 34.244351142743383, 51.811007838895691 ], [ 34.251827060270969, 51.808534496601176 ], [ 34.246097274388099, 51.804444881286116 ], [ 34.253571872897282, 51.80197167622871 ], [ 34.247842773964095, 51.797882592222336 ], [ 34.255316053962872, 51.795409524517176 ], [ 34.249587641823055, 51.791320971844549 ], [ 34.257059603819087, 51.788848041606727 ], [ 34.2513318783164, 51.784760020292865 ], [ 34.258802522817064, 51.782287227637369 ], [ 34.253075483795264, 51.778199737707226 ], [ 34.260544811307668, 51.775727082748993 ], [ 34.254818458610565, 51.77164012422746 ], [ 34.262286469641502, 51.769167607081336 ], [ 34.256560803112933, 51.76508117999326 ], [ 34.264027498168907, 51.762608800774025 ], [ 34.258302517652737, 51.758522905144176 ], [ 34.265767897239961, 51.756050663966533 ], [ 34.260043602580119, 51.751965299819638 ], [ 34.267507667204491, 51.749493196798198 ], [ 34.26178405824492, 51.745408364158941 ], [ 34.269246808412063, 51.742936399408272 ], [ 34.263523884996722, 51.738852098301244 ], [ 34.270985321211981, 51.736380271935793 ], [ 34.265263083184898, 51.732296502385573 ], [ 34.272723205953291, 51.729824814519745 ], [ 34.267001653158509, 51.725741576550824 ], [ 34.274460462984777, 51.723270027298938 ], [ 34.268739595266382, 51.71918732093576 ], [ 34.276197092654982, 51.716715910412049 ], [ 34.270476909857081, 51.712633735678999 ], [ 34.277933095312157, 51.710162463997641 ], [ 34.272213597278906, 51.706080820919034 ], [ 34.279668471304333, 51.703609688194142 ], [ 34.273949657879911, 51.699528576794251 ], [ 34.281403220979257, 51.697057583139809 ], [ 34.275685092007883, 51.692977003442877 ], [ 34.283137344684434, 51.690506148972837 ], [ 34.277419900010365, 51.686426101003001 ], [ 34.284870842767099, 51.683955385831233 ], [ 34.279154082234612, 51.679875869612594 ], [ 34.286603715574238, 51.677405293852878 ], [ 34.280887639027668, 51.673326309409489 ], [ 34.288335963452596, 51.67085587317554 ], [ 34.282620570736285, 51.666777420531375 ], [ 34.290067586748613, 51.664307123936851 ], [ 34.281495998085695, 51.658190202384446 ], [ 34.285218797023795, 51.656955346249511 ], [ 34.282362088211173, 51.654916478496681 ], [ 34.293528960978293, 51.651211640325236 ], [ 34.282460509874696, 51.643312632241937 ], [ 34.282925690329492, 51.643158317006829 ], [ 34.282568720332193, 51.642903506089546 ], [ 34.296987841029924, 51.638118844116406 ], [ 34.285565153864781, 51.629967150440237 ], [ 34.300444229666084, 51.625028736406605 ], [ 34.289024272918418, 51.616879170740376 ], [ 34.303898129645255, 51.611941318289979 ], [ 34.292480902072988, 51.60379388082179 ], [ 34.281068725098343, 51.595646017397279 ], [ 34.269661596619564, 51.587497729753565 ], [ 34.284525591610155, 51.58256554751383 ], [ 34.261721819763338, 51.566272810397052 ], [ 34.246862476741967, 51.571199888752581 ], [ 34.235470481138968, 51.563050338865004 ], [ 34.224083525623485, 51.554900371697634 ], [ 34.20922597075478, 51.559820359787274 ], [ 34.186471841112784, 51.543514085086869 ], [ 34.171616095433109, 51.548426987128529 ], [ 34.160248924531317, 51.540270686316987 ], [ 34.145392663987721, 51.545179051116733 ], [ 34.134032872410252, 51.537019797302058 ], [ 34.119176107057434, 51.541923625463774 ], [ 34.107823698789581, 51.533761422679554 ], [ 34.0938951007386, 51.538354567458704 ], [ 34.093185880268379, 51.537844267418492 ], [ 34.092257227408361, 51.538150404842817 ], [ 34.081621417687771, 51.530495567095642 ], [ 34.052831959935183, 51.539977346735014 ], [ 34.052123349053979, 51.539466704015098 ], [ 34.051194488787225, 51.53977243326478 ], [ 34.04056782359396, 51.532112457138432 ], [ 34.025706771748666, 51.537000683717999 ], [ 34.010842889325446, 51.541886913839839 ], [ 33.995976178086508, 51.546771146400637 ], [ 33.984653057072805, 51.53859250567362 ], [ 33.969785896975331, 51.54347220192593 ], [ 33.940043113206535, 51.553225595203919 ], [ 33.910289056491088, 51.562970982185831 ], [ 33.880523741047391, 51.572708354090274 ], [ 33.850747181135361, 51.582437702148873 ], [ 33.83585468897126, 51.587299364499422 ], [ 33.824560554009736, 51.57909498263313 ], [ 33.80966767057933, 51.583952103017687 ], [ 33.79477198669948, 51.588807213468108 ], [ 33.779873504167718, 51.593660312894045 ], [ 33.768591671159456, 51.585447956357257 ], [ 33.73879117331974, 51.595143057109823 ], [ 33.723886738892666, 51.599987587204296 ], [ 33.7126172445763, 51.591767267220511 ], [ 33.697712460194957, 51.596607254007587 ], [ 33.686450452347977, 51.588384035335139 ], [ 33.671545328046399, 51.593219479528216 ], [ 33.660290810406707, 51.584993366259347 ], [ 33.645501815819536, 51.589786534969505 ], [ 33.645413928741128, 51.589722247443824 ], [ 33.645297469283975, 51.589759980898208 ], [ 33.634138332502189, 51.581595264807227 ], [ 33.622896353131395, 51.573365897817617 ], [ 33.607993032361804, 51.578189735801324 ], [ 33.596758549627019, 51.569957485109512 ], [ 33.585529108039637, 51.561724875623916 ], [ 33.574304705405766, 51.553491909065862 ], [ 33.589200659148915, 51.54867563476148 ], [ 33.544343555015324, 51.515750303379072 ], [ 33.521945172589092, 51.499285534052213 ], [ 33.51075351611847, 51.491052629484663 ], [ 33.495874793385575, 51.495851289517056 ], [ 33.480993342340042, 51.500647936507598 ], [ 33.469811642074013, 51.492409663241794 ], [ 33.440045512220003, 51.501991891153487 ], [ 33.428873784470419, 51.493748256522153 ], [ 33.41398912089619, 51.498533837575913 ], [ 33.406545771233731, 51.500925872004139 ], [ 33.400963652426185, 51.49680204656039 ], [ 33.39352024610514, 51.49919294963356 ], [ 33.387940004329586, 51.495068413541567 ], [ 33.40282489604094, 51.490287357239666 ], [ 33.391665690597577, 51.482040542633136 ], [ 33.380511502360932, 51.473793395466593 ], [ 33.369362329125877, 51.46554591744934 ], [ 33.358218168687394, 51.457298110289727 ], [ 33.373090408740836, 51.452525063098228 ], [ 33.350812140083875, 51.436033474837551 ], [ 33.33411657782684, 51.423663929751129 ], [ 33.341547333874729, 51.421281031220715 ], [ 33.335984025403107, 51.417158313251868 ], [ 33.34341348773129, 51.414775537207881 ], [ 33.332289376429031, 51.406531110125208 ], [ 33.321170262457962, 51.398286362161102 ], [ 33.310056143619406, 51.390041295016964 ], [ 33.298947017714752, 51.381795910393166 ], [ 33.287842882545469, 51.373550209989112 ], [ 33.272995743462459, 51.378302767598527 ], [ 33.262245786432167, 51.370312028376368 ], [ 33.262709724342677, 51.370163616899028 ], [ 33.262363027037466, 51.369905848679167 ], [ 33.276743735913129, 51.365304195503278 ], [ 33.265649575619371, 51.357057868633142 ], [ 33.280489061545367, 51.352308293370491 ], [ 33.269397391871998, 51.344064149669087 ], [ 33.263853424987538, 51.339941961471226 ], [ 33.271270300483422, 51.337568291821775 ], [ 33.265726955451328, 51.333446649579344 ], [ 33.273142543236695, 51.331073101911258 ], [ 33.264828924842355, 51.324891428582973 ], [ 33.268536002546895, 51.323704934202397 ], [ 33.265765262787077, 51.321644493655441 ], [ 33.276885032622673, 51.318084726440695 ], [ 33.276863568857763, 51.318068766526295 ], [ 33.336165203153961, 51.299080283209136 ], [ 33.66144077143035, 51.193985970717549 ], [ 33.683746129067835, 51.210335269777673 ], [ 33.713261582226494, 51.200723636851798 ], [ 33.735596304543662, 51.217061560155145 ], [ 33.794613669780482, 51.197794548082463 ], [ 33.824105984627558, 51.188149212498047 ], [ 33.846489025058531, 51.204455643672027 ], [ 33.875979859807146, 51.194792386392294 ], [ 33.898392132267645, 51.211087355746237 ], [ 34.008920091010594, 51.174742392583433 ], [ 34.014535036297886, 51.178806474815737 ], [ 34.021898631558564, 51.176378922645611 ], [ 34.06124192378936, 51.20482051980116 ], [ 34.120158241336526, 51.185347184049142 ], [ 34.179030011897083, 51.165842542645422 ], [ 34.237857126089423, 51.146306665665918 ], [ 34.296639475173997, 51.126739623383585 ], [ 34.274076662745188, 51.110568597751289 ], [ 34.303441949687979, 51.100783520000526 ], [ 34.280889754574851, 51.084621061160256 ], [ 34.368891265456234, 51.055249610154533 ], [ 34.369010034830168, 51.055209806762534 ], [ 34.278770422282079, 50.990705679387489 ], [ 34.512661762741892, 50.912365505707086 ], [ 34.332785016032823, 50.783850337502315 ], [ 34.565398664357133, 50.705665567300571 ], [ 34.79730151205441, 50.626997003052907 ], [ 34.617547286838089, 50.499672853535039 ], [ 34.848194484322882, 50.421168892039866 ], [ 35.078131345459234, 50.342191447025044 ], [ 35.038739080293013, 50.314607525627935 ], [ 35.038816317041245, 50.314580906712528 ], [ 34.898524014815251, 50.216055065017486 ], [ 35.127226891631473, 50.137251192715702 ], [ 35.082383096506682, 50.105862121857179 ], [ 35.0824666449547, 50.105833214032664 ], [ 34.948299658007336, 50.011659123207863 ], [ 34.859282874935403, 49.948828334796801 ], [ 34.972982698621308, 49.909731449120436 ], [ 34.884132645739115, 49.847037348175107 ], [ 34.997530753142058, 49.807984538062776 ], [ 35.097760387099328, 49.878297574109652 ], [ 35.111832808813446, 49.873423037594513 ], [ 35.100687768984585, 49.86561022603793 ], [ 35.199861573324512, 49.831193754089298 ], [ 35.249398307032578, 49.813952847802078 ], [ 35.254980584618053, 49.817846229210581 ], [ 35.262055013129988, 49.815380845932062 ], [ 35.301166582239446, 49.842627549819596 ], [ 35.357764525600302, 49.822853638315415 ], [ 35.414318374424127, 49.803051424420403 ], [ 35.45908522231462, 49.834061352430595 ], [ 35.628635412878864, 49.774409238246349 ], [ 35.449390633218876, 49.650637572968797 ], [ 35.674270738365792, 49.571290506836164 ], [ 35.853992831067046, 49.694422824706116 ], [ 36.078630168326725, 49.613992503410437 ], [ 35.898443321115764, 49.491500426542999 ], [ 36.121902839125134, 49.411271911327034 ], [ 36.344643895093675, 49.330609577408588 ], [ 36.299553102754501, 49.300289820214935 ], [ 36.3550982427844, 49.28009700373434 ], [ 36.310051502630749, 49.249810416467525 ], [ 36.365524372193128, 49.229630824629162 ], [ 36.320521594690433, 49.199377410526225 ], [ 36.375922400829467, 49.179211084007079 ], [ 36.33096349669156, 49.148990846096694 ], [ 36.386292445548676, 49.128837825306192 ], [ 36.346987850201465, 49.102424511720393 ], [ 36.353897874762424, 49.099907876926466 ], [ 36.348286928670227, 49.096134753595507 ], [ 36.396634622556199, 49.078511091489943 ], [ 36.374190096547061, 49.063434978315136 ], [ 36.401795296805695, 49.053365184710195 ], [ 36.379361689539756, 49.038297364564073 ], [ 36.406949047412141, 49.028230925048504 ], [ 36.384526347814202, 49.01317139822465 ], [ 36.412095888720472, 49.003108317742409 ], [ 36.389684085730693, 48.988057084521515 ], [ 36.41723583503579, 48.977997368000011 ], [ 36.472305975234519, 48.957858263280713 ], [ 36.427495099709965, 48.927810461891909 ], [ 36.4824943063497, 48.907684904091433 ], [ 36.437726955085481, 48.877670247802293 ], [ 36.492655429463092, 48.857558275766152 ], [ 36.453518193059772, 48.831324808541027 ], [ 36.46037826282798, 48.828813316434278 ], [ 36.454791172603663, 48.825065893010915 ], [ 36.502789456727761, 48.807478418652352 ], [ 36.480440484434247, 48.792505042144519 ], [ 36.50784634429543, 48.782456041780904 ], [ 36.485508203758656, 48.767490949855002 ], [ 36.512896499678348, 48.757445372631565 ], [ 36.567639997537839, 48.737334845723161 ], [ 36.522976669235362, 48.707459177120676 ], [ 36.577650140255798, 48.687362432076718 ], [ 36.63227952881897, 48.667239997863668 ], [ 36.609948002385352, 48.652339277726426 ], [ 36.637239745271351, 48.64227833172469 ], [ 36.61491905196354, 48.627385875030306 ], [ 36.642193383103894, 48.617328411443374 ], [ 36.696708997028594, 48.597194340602918 ], [ 36.652080976803049, 48.56746382735453 ], [ 36.706527170590569, 48.547343774185215 ], [ 36.661942417334551, 48.51764628311215 ], [ 36.716319385938924, 48.497540284192809 ], [ 36.671777811528557, 48.467875815773439 ], [ 36.649532642157368, 48.4530412054403 ], [ 36.676685774473654, 48.443008247398488 ], [ 36.654451350431124, 48.428181901003924 ], [ 36.681587265631308, 48.418152461939158 ], [ 36.63715690733838, 48.388514739860618 ], [ 36.69137088530907, 48.368476257754956 ], [ 36.646983355829718, 48.338871602246236 ], [ 36.60266369461813, 48.309260809139715 ], [ 36.5694684376382, 48.287048743817472 ], [ 36.582997822205328, 48.282062147776685 ], [ 36.571939621385305, 48.274659823203102 ], [ 36.612506895778701, 48.259697965972428 ], [ 36.568297416080171, 48.230114282794091 ], [ 36.480080966149963, 48.170929297083376 ], [ 36.436073831056937, 48.14132818362171 ], [ 36.490024787028673, 48.121513254709313 ], [ 36.446059448362071, 48.091945419257506 ], [ 36.402161222283901, 48.062372004161759 ], [ 36.358330026440505, 48.032793103241644 ], [ 36.412162355035811, 48.013069806364207 ], [ 36.23740341239246, 47.894855905140339 ], [ 36.063708975282452, 47.776560845812497 ], [ 36.010083618936449, 47.79597560291257 ], [ 35.966851966107988, 47.766351520589566 ], [ 35.923686512361471, 47.736722880325331 ], [ 35.880587173864306, 47.707089773867267 ], [ 35.837553866661416, 47.677452292771868 ], [ 35.78399415277562, 47.696689260102012 ], [ 35.698178856840947, 47.637325378200913 ], [ 35.644633285680946, 47.65646135495944 ], [ 35.601851533659818, 47.62673530780792 ], [ 35.559135631382567, 47.597005357206257 ], [ 35.505605272895025, 47.616040538612395 ], [ 35.462982525520339, 47.586268905418201 ], [ 35.409440806803985, 47.605241293882379 ], [ 35.366911448988276, 47.575428188526885 ], [ 35.313358864116623, 47.594337798753514 ], [ 35.270923127724679, 47.564483432242291 ], [ 35.217360170012078, 47.583330280215634 ], [ 35.175018284114692, 47.553434864119247 ], [ 35.121445446095755, 47.572218967099161 ], [ 35.081240929525187, 47.586290550674676 ], [ 35.070678153272354, 47.578799730099497 ], [ 35.057273699434987, 47.583484760855903 ], [ 35.025615410376844, 47.561004090061594 ], [ 34.971995517605478, 47.579700279221797 ], [ 34.929870777245988, 47.549685881573772 ], [ 34.822576370678902, 47.586927452474605 ], [ 34.795729464698745, 47.596222014714606 ], [ 34.774728150917397, 47.581166909797595 ], [ 34.747879286177593, 47.59044576676019 ], [ 34.726901793137799, 47.575380633645743 ], [ 34.673191031853989, 47.593900583620993 ], [ 34.619443366046362, 47.612395065553528 ], [ 34.56565888245553, 47.630864018032611 ], [ 34.511837668278531, 47.649307379787913 ], [ 34.457979811168961, 47.667725089690492 ], [ 34.404085399236919, 47.686117086753818 ], [ 34.36235979051655, 47.655760993177275 ], [ 34.308459498123526, 47.674089963867274 ], [ 34.266830721112051, 47.643694458973691 ], [ 34.212925039112108, 47.661960432759152 ], [ 34.17139329599766, 47.631525735389793 ], [ 34.129927671310298, 47.601089114470781 ], [ 34.082785082397592, 47.616985742046033 ], [ 34.077609929388601, 47.613176984665074 ], [ 34.070873539211703, 47.615445736780856 ], [ 34.034679779525305, 47.58877962383896 ], [ 33.952140797435256, 47.527823748124213 ], [ 33.910970046271103, 47.497343498334885 ], [ 33.964724429895739, 47.479325175392631 ], [ 33.923587951751678, 47.448880269937419 ], [ 33.88251701349504, 47.418433972728941 ], [ 33.936173866140663, 47.400463411761891 ], [ 33.895136990973135, 47.370052483934096 ], [ 33.8132590054933, 47.309226897983109 ], [ 33.759696472198115, 47.32708760838954 ], [ 33.718886727462518, 47.29663662090465 ], [ 33.678142039428515, 47.266184678965089 ], [ 33.637462311361617, 47.235731869388012 ], [ 33.596847446498543, 47.205278278775801 ], [ 33.556297348048808, 47.174823993515993 ], [ 33.609701515216621, 47.157145238482386 ], [ 33.569184242612501, 47.12672656630069 ], [ 33.488343152285339, 47.065887570452254 ], [ 33.541618688397826, 47.048291857242567 ], [ 33.501262827776884, 47.017907775992867 ], [ 33.460971140437174, 46.987523315699832 ], [ 33.407759359238028, 47.005046943041179 ], [ 33.354514962620868, 47.022545155996845 ], [ 33.314351428719313, 46.992088504929157 ], [ 33.261106784308339, 47.009525329464324 ], [ 33.207829867497885, 47.026936649403211 ], [ 33.247928691873177, 47.057465118187373 ], [ 33.194587003140391, 47.074886757515145 ], [ 33.087806985530996, 47.109653079001703 ], [ 32.98089874128145, 47.144316427864084 ], [ 32.873863028390353, 47.178876370581435 ], [ 32.766700611404488, 47.213332476123902 ], [ 32.801578523682856, 47.240327140437238 ], [ 32.794872974572662, 47.242481099708698 ], [ 32.799859054688341, 47.24633806407968 ], [ 32.752902676997081, 47.261408269748209 ], [ 32.699208674695235, 47.278606851542477 ], [ 32.645483223660094, 47.295779237746814 ], [ 32.591726421642996, 47.312925375127449 ], [ 32.537938366804354, 47.330045210612234 ], [ 32.484119157713288, 47.347138691291605 ], [ 32.43026889334719, 47.364205764419374 ], [ 32.376387673091429, 47.381246377413582 ], [ 32.322475596738897, 47.398260477857391 ], [ 32.295508018822972, 47.40675756953798 ], [ 32.275732208782202, 47.39116259399983 ], [ 32.248765815201324, 47.399644152255149 ], [ 32.229015181301307, 47.384040538020912 ], [ 32.121108960637486, 47.41786471186095 ], [ 32.160555235134453, 47.449143182212268 ], [ 32.106520740460596, 47.466050711617726 ], [ 32.052455894753301, 47.482931468894762 ], [ 31.998360800242008, 47.499785402634934 ], [ 32.018054421810049, 47.515478260467383 ], [ 31.990986487157201, 47.523904011188513 ], [ 32.010687434090165, 47.539606034383567 ], [ 31.983602864611463, 47.548033919696145 ], [ 31.766655559712863, 47.615213901848875 ], [ 31.712344002380053, 47.631941136496977 ], [ 31.751593105442169, 47.663540929921567 ], [ 31.697214603627074, 47.680276303930107 ], [ 31.656411205136106, 47.692809932875349 ], [ 31.646609068523148, 47.68489437887127 ], [ 31.633006567826488, 47.68906663304417 ], [ 31.603631944147274, 47.665313939147225 ], [ 31.549231654506841, 47.681959406833919 ], [ 31.331337909237568, 47.748267224649133 ], [ 31.290431081015775, 47.76065095598085 ], [ 31.280702400765179, 47.752683012061766 ], [ 31.267065586924765, 47.756805280859858 ], [ 31.2379115608401, 47.732895627069539 ], [ 31.183375275681446, 47.749341157013276 ], [ 31.128810432057133, 47.76575906470724 ], [ 31.167613392434308, 47.797708950655426 ], [ 31.112981186928703, 47.814134191200566 ], [ 31.151811520945628, 47.846121251861604 ], [ 31.097111773889619, 47.862553778731751 ], [ 31.13596950518307, 47.894578020160026 ], [ 31.081202036189733, 47.911017786568252 ], [ 31.02640596195814, 47.927429648850897 ], [ 31.065251816264578, 47.959526173512018 ], [ 31.010387786788979, 47.975945150060809 ], [ 30.955495210900928, 47.992336095885683 ], [ 30.994328789045078, 48.024504941204491 ], [ 30.939368024021409, 48.040902875323752 ], [ 30.958790038758089, 48.057005658999593 ], [ 30.931289003654449, 48.065202842565235 ], [ 30.950717814590245, 48.081314943609428 ], [ 30.923199671804298, 48.089513854329212 ], [ 30.868141996663237, 48.105890492657558 ], [ 30.906989992744137, 48.138168989770207 ], [ 30.824277665029083, 48.162723353772812 ], [ 30.804887645509815, 48.146567683562097 ], [ 30.832451398321506, 48.138395363335967 ], [ 30.813055896006031, 48.122238846794552 ], [ 30.793677188069879, 48.106082902493959 ], [ 30.821213722930192, 48.097921024878012 ], [ 30.801841728604369, 48.081774416910548 ], [ 30.78248649424129, 48.065628395143428 ], [ 30.768729172196313, 48.069701468044663 ], [ 30.759060352013378, 48.06162649514058 ], [ 30.749395716582526, 48.053551673785101 ], [ 30.763148004597703, 48.049482970359833 ], [ 30.743826244436743, 48.033338153327463 ], [ 30.724521198527938, 48.017193954798529 ], [ 30.710778984261406, 48.021253930742922 ], [ 30.701135244005574, 48.01317988729226 ], [ 30.687393811211116, 48.017235920075223 ], [ 30.677756766889953, 48.009159858194593 ], [ 30.650273746790791, 48.017262275174936 ], [ 30.631022280302691, 48.001101934988881 ], [ 30.603542467705449, 48.009188590863843 ], [ 30.565109815397143, 47.976852542948123 ], [ 30.545918470320409, 47.960685556110683 ], [ 30.521894640869231, 47.967732799576318 ], [ 30.51949800388546, 47.965711027493818 ], [ 30.516065761081002, 47.966717200193806 ], [ 30.499297690829327, 47.952564161516221 ], [ 30.478708681839581, 47.958593197995114 ], [ 30.473922051804042, 47.954547951017595 ], [ 30.467058837920021, 47.956556206828914 ], [ 30.452707091071265, 47.944419119141031 ], [ 30.425257660244998, 47.95244124385539 ], [ 30.39780148614927, 47.960456307669943 ], [ 30.370338583058803, 47.968464304864561 ], [ 30.349736998438836, 47.974465661857053 ], [ 30.344964756015639, 47.970411959444519 ], [ 30.338097365131759, 47.972410987885524 ], [ 30.323788796013208, 47.960248553827398 ], [ 30.268850074237971, 47.976211916850517 ], [ 30.227628566136623, 47.98816584270925 ], [ 30.218112766354263, 47.980042722247802 ], [ 30.204371535671804, 47.984021666649006 ], [ 30.194862478479212, 47.975896599441199 ], [ 30.167380246440008, 47.983844866899325 ], [ 30.14838496029542, 47.967586758619071 ], [ 30.120906536374928, 47.975519338407224 ], [ 30.101938242057038, 47.959253491210063 ], [ 30.081332934972387, 47.965191833595306 ], [ 30.076595406100928, 47.961123898426052 ], [ 30.06972680650167, 47.963101922852978 ], [ 30.05552239133409, 47.950896837705351 ], [ 30.028051755512813, 47.958798073437222 ], [ 30.014314004765978, 47.962746028306739 ], [ 30.004857409249869, 47.954603160121906 ], [ 29.991120656321165, 47.958547200018401 ], [ 29.98167081933002, 47.950402418140136 ], [ 29.954197712489808, 47.95828089406276 ], [ 29.926718169425001, 47.96615226094552 ], [ 29.912975988859895, 47.970085276785362 ], [ 29.903543418249576, 47.961930045170959 ], [ 29.889802266945306, 47.965859148070912 ], [ 29.880376468543837, 47.957702016260711 ], [ 29.839151340600221, 47.969472250658541 ], [ 29.829737594975668, 47.961308961683464 ], [ 29.81599534396172, 47.965226682547467 ], [ 29.806588378469321, 47.957061503911596 ], [ 29.779104412038503, 47.964887346028704 ], [ 29.760313474972641, 47.948549208295965 ], [ 29.732833796290841, 47.956359421599714 ], [ 29.708783917839192, 47.963187510603021 ], [ 29.706438702378566, 47.961143321303247 ], [ 29.703002779222746, 47.962118184166705 ], [ 29.686594664441508, 47.947808368952849 ], [ 29.665984058135656, 47.953649636906611 ], [ 29.6613003454965, 47.949559669758159 ], [ 29.654430028993382, 47.951505337569188 ], [ 29.640387081696584, 47.939234229303096 ], [ 29.619779798497298, 47.945063791496338 ], [ 29.615102880480986, 47.94097196241313 ], [ 29.608233677349556, 47.942913728938066 ], [ 29.594211112964398, 47.930637043930581 ], [ 29.573607195097502, 47.93645490871036 ], [ 29.568937073795581, 47.932361225245238 ], [ 29.562068998102387, 47.934299093273054 ], [ 29.548066822855418, 47.922016854179994 ], [ 29.534333533358268, 47.925888083945445 ], [ 29.525006577393974, 47.917698145600674 ], [ 29.511274433162473, 47.921565481160961 ], [ 29.501954275682294, 47.913373701460095 ], [ 29.483326304137446, 47.896990954347785 ], [ 29.464714777251334, 47.880609298903906 ], [ 29.446119679157981, 47.864228745453573 ], [ 29.427540994001028, 47.847849304305939 ], [ 29.454955482170583, 47.840150755075364 ], [ 29.436382462449682, 47.823780838664376 ], [ 29.427102095785877, 47.815596301751761 ], [ 29.440799032138194, 47.811750662958111 ], [ 29.43152007838021, 47.803568507570574 ], [ 29.445212829027682, 47.799723192915692 ], [ 29.426661835559937, 47.783363928212275 ], [ 29.454032115063743, 47.775676372573713 ], [ 29.419272983926032, 47.74502154731347 ], [ 29.42269134019066, 47.74406207012543 ], [ 29.420375938137838, 47.742018688968358 ], [ 29.444300640755241, 47.735300169208266 ], [ 29.425777249768046, 47.718961098315823 ], [ 29.411895400587461, 47.706707551395226 ], [ 29.418725516987184, 47.704790644297596 ], [ 29.414099602413266, 47.700706796615485 ], [ 29.434585711439951, 47.694954996155921 ], [ 29.416084224780352, 47.678626607725924 ], [ 29.44338315508223, 47.670959734150578 ], [ 29.424887277811916, 47.654640874133605 ], [ 29.408716710434376, 47.640362829716473 ], [ 29.412126162815984, 47.639405934478354 ], [ 29.40981693005822, 47.637366417798304 ], [ 29.433679333356537, 47.630665985231914 ], [ 29.415205290772217, 47.614357823656768 ], [ 29.442460412438258, 47.606701946348451 ], [ 29.42399196056315, 47.590403313970292 ], [ 29.405539701427852, 47.574105865039876 ], [ 29.387103619513542, 47.557809609661867 ], [ 29.368683699310729, 47.541514557925119 ], [ 29.350279925319324, 47.525220719902727 ], [ 29.331892282048631, 47.508928105652018 ], [ 29.30470090711464, 47.516534008720583 ], [ 29.267995214892697, 47.483935894875493 ], [ 29.249666505701882, 47.467638725199343 ], [ 29.223350269145048, 47.474976169860994 ], [ 29.222778078551165, 47.474466653120885 ], [ 29.221929088238404, 47.474703227497145 ], [ 29.204199285134454, 47.458908579243918 ], [ 29.185913358752369, 47.442605695285756 ], [ 29.167643473789742, 47.426304110403201 ], [ 29.149389614773558, 47.410003834538429 ], [ 29.122261336801053, 47.417537828390387 ], [ 29.108695075341434, 47.421302206430674 ], [ 29.099582164370478, 47.413146381955421 ], [ 29.086017166209615, 47.416906954182878 ], [ 29.09284946729975, 47.423025335521707 ], [ 29.089457495623392, 47.423965591652717 ], [ 29.091735262319986, 47.426005222551076 ], [ 29.067987822892174, 47.432584857636336 ], [ 29.040842616078844, 47.440097883215905 ], [ 29.059053647555984, 47.456431122671042 ], [ 29.072722441533244, 47.468681931934675 ], [ 29.065930560808084, 47.470562697409932 ], [ 29.070488159126256, 47.47464698235116 ], [ 29.050108385557348, 47.480288195331099 ], [ 29.068340746967571, 47.496632349205235 ], [ 29.082025559859794, 47.508891336267602 ], [ 29.075226889044931, 47.510774471334443 ], [ 29.079789830121729, 47.514861481358551 ], [ 29.059389674858195, 47.520509799960195 ], [ 29.077643416104969, 47.536864854659427 ], [ 29.050427473906815, 47.544398048736078 ], [ 29.059554988535883, 47.552580198512352 ], [ 29.045942193496259, 47.556346220723711 ], [ 29.055071035759102, 47.564530764387499 ], [ 29.041454122925607, 47.568297090223126 ], [ 29.014216048769061, 47.57582445701717 ], [ 29.032469600673309, 47.592206919082365 ], [ 28.977954815671765, 47.607256998200171 ], [ 28.996202810088427, 47.623657296027339 ], [ 28.968926073925868, 47.631179992677943 ], [ 28.941643692167858, 47.638695615003421 ], [ 28.959886075566924, 47.655113751225457 ], [ 28.932587153003148, 47.662630544932959 ], [ 28.950834799110638, 47.679058268383713 ], [ 28.923519314347487, 47.686576227172033 ], [ 28.937207477164471, 47.698904086248362 ], [ 28.930375673463931, 47.700784015360981 ], [ 28.934939735733856, 47.704893984118726 ], [ 28.914440154621342, 47.710532656216039 ], [ 28.932698325697192, 47.726979556549317 ], [ 28.948687533025144, 47.741371679073794 ], [ 28.945268060175621, 47.742313006314347 ], [ 28.947553076103944, 47.74436923531151 ], [ 28.923613085499227, 47.750956316491482 ], [ 28.960188690175535, 47.78387324502259 ], [ 28.969342756785288, 47.792103292420087 ], [ 28.95564709792022, 47.795875238184763 ], [ 28.964802492032476, 47.804107681503616 ], [ 28.95110266172561, 47.807879915144632 ], [ 28.969420179479343, 47.824349916789593 ], [ 28.942005246615683, 47.83189731763531 ], [ 28.978667234366565, 47.864857773372108 ], [ 28.951224569077869, 47.872414617213657 ], [ 28.969569056494837, 47.888905069607944 ], [ 28.985633900690644, 47.903335259101496 ], [ 28.982200581557279, 47.904281308347365 ], [ 28.984496410134533, 47.906342973027471 ], [ 28.96045944795102, 47.912963088265727 ], [ 28.978825642004704, 47.929464393061721 ], [ 28.951338386756088, 47.937031823596271 ], [ 28.968561227831159, 47.952510742338099 ], [ 28.966842435288303, 47.952983955603607 ], [ 28.96799109412337, 47.9540159554181 ], [ 28.942205850875013, 47.96111126982057 ], [ 28.887180409148989, 47.976226793120361 ], [ 28.83213202338068, 47.991313487463145 ], [ 28.804599264445777, 47.998846011496255 ], [ 28.822920566986685, 48.015408035428855 ], [ 28.795370941998151, 48.022941634615876 ], [ 28.767815622606694, 48.030468002249464 ], [ 28.786130990557453, 48.047047924360974 ], [ 28.758558779098767, 48.054575350986006 ], [ 28.730980884541424, 48.062095531564886 ], [ 28.740133515452818, 48.070394279076503 ], [ 28.72633963035203, 48.074153723813879 ], [ 28.712544327813752, 48.077911354620504 ], [ 28.703397322206452, 48.069608461234097 ], [ 28.648213255594406, 48.084612548455247 ], [ 28.537777785528796, 48.114533499448918 ], [ 28.528668849511181, 48.106206123394777 ], [ 28.514860985794712, 48.109935989548454 ], [ 28.501051736431847, 48.113664034568878 ], [ 28.510154979527659, 48.121995537679133 ], [ 28.48252662908256, 48.129450286566609 ], [ 28.518957971391067, 48.162796245546645 ], [ 28.546609129808889, 48.155324978631427 ], [ 28.56486094095273, 48.171991738305842 ], [ 28.537198379874585, 48.179471275969966 ], [ 28.509530232058726, 48.186943504899581 ], [ 28.491301245540289, 48.170260208607324 ], [ 28.47747079968504, 48.173989449704841 ], [ 28.468365353487901, 48.165646251225311 ], [ 28.454536383280473, 48.16937160110659 ], [ 28.445437921360199, 48.161026685320437 ], [ 28.417781568642045, 48.168467778174652 ], [ 28.42687429979717, 48.176816817100537 ], [ 28.413041190417641, 48.180536682032091 ], [ 28.422135175470935, 48.188888130704505 ], [ 28.408297818962183, 48.19260822714984 ], [ 28.380618979057115, 48.200042927346978 ], [ 28.398802084804764, 48.216759238046627 ], [ 28.371106237025565, 48.224194852001233 ], [ 28.343404896146733, 48.231623128794261 ], [ 28.322625295072818, 48.23718951855443 ], [ 28.31808590104632, 48.233004644997202 ], [ 28.311159406565572, 48.234858675652205 ], [ 28.314563313241678, 48.237997708409175 ], [ 28.312831500771903, 48.238461240806011 ], [ 28.313966220195695, 48.239507628289417 ], [ 28.287985797831972, 48.246457652145871 ], [ 28.306139235004633, 48.263208322277521 ], [ 28.324309209688263, 48.279960406343314 ], [ 28.296568294570317, 48.287383109808331 ], [ 28.268821910622364, 48.294798447408596 ], [ 28.250675143774576, 48.278029894250608 ], [ 28.232544915553706, 48.261262770737076 ], [ 28.208282711708872, 48.267730754203114 ], [ 28.206018867503026, 48.265634066274124 ], [ 28.202552682500372, 48.266557475380452 ], [ 28.18671427201259, 48.251880396693615 ], [ 28.158991955624181, 48.259256346219132 ], [ 28.177082375339989, 48.276038447420007 ], [ 28.149343022982361, 48.283415233496505 ], [ 28.167438293325063, 48.30020699936204 ], [ 28.139681882779531, 48.307584615134509 ], [ 28.130638026685482, 48.299184446923299 ], [ 28.116760732862708, 48.302868435566488 ], [ 28.102882100813826, 48.306550578279413 ], [ 28.089002132523472, 48.310230874490571 ], [ 28.098037202314764, 48.318637192417491 ], [ 28.084152966193269, 48.322317690188157 ], [ 28.09205947752427, 48.329675313836248 ], [ 28.090323533120351, 48.330135470242816 ], [ 28.091453247420173, 48.331186614387292 ], [ 28.07930073094607, 48.334407124422505 ], [ 28.086078447695957, 48.340715455149287 ], [ 28.082605561561834, 48.341635725075932 ], [ 28.084865134230697, 48.343738676126407 ], [ 28.074445423817203, 48.346499176381585 ], [ 28.08122404136482, 48.352809320591469 ], [ 28.077750086371147, 48.353729640352519 ], [ 28.080009959431496, 48.355833195881964 ], [ 28.069587041838265, 48.358593845251455 ], [ 28.078626917337704, 48.367009834838214 ], [ 28.064725582037028, 48.37069113021623 ], [ 28.082811881174507, 48.387528312209064 ], [ 28.054993417059837, 48.394893545157274 ], [ 28.027169604275439, 48.40225135594055 ], [ 27.999340458824832, 48.409601740005556 ], [ 27.971505996732326, 48.416944692812756 ], [ 27.943666234042919, 48.424280209836425 ], [ 27.929744369994118, 48.427945178518925 ], [ 27.93876120914074, 48.436386858547799 ], [ 27.924835054045207, 48.44005201182155 ], [ 27.910907579426894, 48.443715303246258 ], [ 27.896978787299062, 48.447376732260118 ], [ 27.883048679676254, 48.451036298302228 ], [ 27.891776170646342, 48.45922245871369 ], [ 27.89134074338137, 48.459336852003972 ], [ 27.891622337316722, 48.459600929599503 ], [ 27.878123364827072, 48.463146280431857 ], [ 27.869117258574317, 48.454694000812545 ], [ 27.855184526010365, 48.458349839231865 ], [ 27.841250484002806, 48.462003813001893 ], [ 27.827315134571347, 48.465655921565208 ], [ 27.813378479736951, 48.469306164365214 ], [ 27.79944052152188, 48.472954540846224 ], [ 27.785501261949687, 48.476601050453425 ], [ 27.776517246495658, 48.468136908829216 ], [ 27.74864083062203, 48.475420249812437 ], [ 27.720759243253383, 48.482696119306006 ], [ 27.706816515329454, 48.486331250868474 ], [ 27.697851664516158, 48.47785731782664 ], [ 27.683910660218086, 48.481488546135459 ], [ 27.669968373566107, 48.485117905038734 ], [ 27.656024806592818, 48.488745393990271 ], [ 27.642079961332115, 48.492371012444785 ], [ 27.633131312738019, 48.48388934580764 ], [ 27.619188211195862, 48.487511063137916 ], [ 27.5912981946875, 48.494748884503338 ], [ 27.535502965056931, 48.509202058912791 ], [ 27.544430423569793, 48.51769792208863 ], [ 27.53047542538053, 48.521308557041465 ], [ 27.516519167265425, 48.5249173166291 ], [ 27.525165710138655, 48.533151995051227 ], [ 27.524729464749708, 48.533264799878474 ], [ 27.525008447318374, 48.533530442979256 ], [ 27.497522322325263, 48.540633576509748 ], [ 27.483559250362767, 48.544238730474461 ], [ 27.492479794670935, 48.55274553105675 ], [ 27.478512419774273, 48.556350830841836 ], [ 27.487434065213527, 48.564860063090208 ], [ 27.473462384582195, 48.568465507798912 ], [ 27.48238513085472, 48.576977171742342 ], [ 27.468409141685541, 48.58058276047683 ], [ 27.477298121630625, 48.589063597166813 ], [ 27.477243513573573, 48.589077685688714 ], [ 27.477278380388544, 48.589110944696181 ], [ 27.449371131978449, 48.596306436837381 ], [ 27.458293020354663, 48.604824989509858 ], [ 27.444307149860734, 48.608428979356127 ], [ 27.453230135698625, 48.61694996411736 ], [ 27.439239947900543, 48.620554094075608 ], [ 27.448164030894368, 48.629077510950523 ], [ 27.434169522978326, 48.63268178011802 ], [ 27.438631592402007, 48.636944653836956 ], [ 27.431633100930522, 48.638746587110461 ], [ 27.436095444372999, 48.64301006888617 ], [ 27.429095871970564, 48.644812036603547 ], [ 27.415095786336153, 48.648414555657297 ], [ 27.424018991749726, 48.656944862650434 ], [ 27.410014580023081, 48.660547517888908 ], [ 27.396008915243875, 48.664148282960006 ], [ 27.382001999483428, 48.66774715733235 ], [ 27.3679938348143, 48.671344140475412 ], [ 27.353984423310326, 48.674939231859632 ], [ 27.339973767046573, 48.678532430956267 ], [ 27.331069037972728, 48.669989983426944 ], [ 27.322168473350494, 48.661447949503 ], [ 27.313272070926228, 48.652906330463338 ], [ 27.30437982844732, 48.644365127585822 ], [ 27.29549174366219, 48.635824342147238 ], [ 27.286607814320263, 48.627283975423303 ], [ 27.277728038171976, 48.618744028688667 ], [ 27.268852412968808, 48.610204503216906 ], [ 27.254865213796347, 48.613779669168224 ], [ 27.245996824318087, 48.605238553157818 ], [ 27.218024944890093, 48.612379196986446 ], [ 27.190048205771856, 48.619512288127254 ], [ 27.176058019018502, 48.623076000148082 ], [ 27.167209246206845, 48.614525258892655 ], [ 27.153220951960087, 48.618085073263657 ], [ 27.144379423769031, 48.609532756099284 ], [ 27.116405433928822, 48.616642703921308 ], [ 27.098747216613265, 48.599531353097554 ], [ 27.084764640117715, 48.603079485739606 ], [ 27.075944845013758, 48.594522464526285 ], [ 27.061964187814624, 48.598066707009885 ], [ 27.047982344178536, 48.601609060702877 ], [ 27.033999316187433, 48.605149525099577 ], [ 27.020015105924458, 48.608688099695236 ], [ 27.00602971547395, 48.61222478398598 ], [ 26.992043146921425, 48.615759577468822 ], [ 26.978055402353622, 48.6192924796417 ], [ 26.964066483858456, 48.622823490003441 ], [ 26.95095080846254, 48.626132093623895 ], [ 26.950401451077528, 48.625596178398318 ], [ 26.949527048366996, 48.625816685036369 ], [ 26.941288807835925, 48.617778050446319 ], [ 26.927300679036016, 48.621303281816182 ], [ 26.918520354932237, 48.612727181576425 ], [ 26.904534194309996, 48.616248528170772 ], [ 26.890546872832541, 48.619767982371457 ], [ 26.878307015920672, 48.622845952053645 ], [ 26.877210892560228, 48.62177325581586 ], [ 26.875462318280643, 48.62221281635356 ], [ 26.867791603528083, 48.614703924519993 ], [ 26.83981745821762, 48.621729389095087 ], [ 26.811838712387015, 48.628747279036411 ], [ 26.787353549109241, 48.634881716084969 ], [ 26.785167018641751, 48.632733526653453 ], [ 26.78166904939966, 48.633609276952157 ], [ 26.775111595388385, 48.627164510242864 ], [ 26.761121371208983, 48.630664838956292 ], [ 26.747130009735336, 48.634163272280688 ], [ 26.738396654755054, 48.625566691133734 ], [ 26.727904757412926, 48.628187785884499 ], [ 26.725722654586693, 48.626038342135132 ], [ 26.722225411488765, 48.626911679674443 ], [ 26.715681239727477, 48.620463152840834 ], [ 26.706959279437267, 48.611865527891418 ], [ 26.692975132382326, 48.615354229966094 ], [ 26.675549873999191, 48.598156438923361 ], [ 26.661570928441616, 48.601639293349393 ], [ 26.652867627527609, 48.593039133442822 ], [ 26.638890729510479, 48.596518119855681 ], [ 26.612814954661637, 48.570714586584906 ], [ 26.626782359627914, 48.567241517053432 ], [ 26.618095474362217, 48.558643270183119 ], [ 26.609412687326461, 48.550045504681215 ], [ 26.60073399625, 48.541448221789317 ], [ 26.586776082453611, 48.544915383346073 ], [ 26.578104648366246, 48.536316616957834 ], [ 26.564584938073192, 48.539671722983087 ], [ 26.564314117521871, 48.53940295983783 ], [ 26.563877983814596, 48.539511157632575 ], [ 26.555484623783322, 48.531179676748067 ], [ 26.545019395639255, 48.533774442703319 ], [ 26.542854584080867, 48.531624089141651 ], [ 26.539366236354475, 48.532488652312793 ], [ 26.54044851118136, 48.53356388664583 ], [ 26.538704262267398, 48.53399615465483 ], [ 26.539786551459152, 48.535071427322372 ], [ 26.527575985894313, 48.538096691814538 ], [ 26.51362003390571, 48.541552365844176 ], [ 26.517946856506889, 48.54585537378766 ], [ 26.510967679678011, 48.547582992894888 ], [ 26.515294731056077, 48.551886614297779 ], [ 26.466427343307444, 48.563970146294245 ], [ 26.605256340490328, 48.701860248897361 ] ], [ [ 26.180854696766001, 56.064509506969337 ], [ 26.112433407924367, 56.080064868359422 ], [ 26.153417550154938, 56.118737659595617 ], [ 25.947736980499513, 56.165254244752312 ], [ 25.785286120126447, 56.010119088288192 ], [ 26.058247377844015, 55.948595848361037 ], [ 26.180854696766001, 56.064509506969337 ] ], [ [ 21.099939842193496, 56.077282011703062 ], [ 21.099939905961602, 56.077282088237808 ], [ 21.09933277752884, 56.0773904875158 ], [ 21.099939842193496, 56.077282011703062 ] ] ] ] } }
]
}
