{
"type": "FeatureCollection",
"name": "PRU_RHE_1914",
"crs": { "type": "name", "properties": { "name": "urn:ogc:def:crs:OGC:1.3:CRS84" } },
"features": [
{ "type": "Feature", "properties": { "name": "Rheinprovinz" }, "geometry": { "type": "MultiPolygon", "coordinates": [ [ [ [ 8.55, 50.69 ], [ 8.54, 50.69 ], [ 8.51, 50.69 ], [ 8.5, 50.7 ], [ 8.48, 50.7 ], [ 8.47, 50.7 ], [ 8.45, 50.7 ], [ 8.44, 50.7 ], [ 8.44, 50.69 ], [ 8.43, 50.68 ], [ 8.42, 50.66 ], [ 8.41, 50.66 ], [ 8.39, 50.66 ], [ 8.38, 50.65 ], [ 8.38, 50.64 ], [ 8.37, 50.63 ], [ 8.35, 50.64 ], [ 8.33, 50.64 ], [ 8.29, 50.63 ], [ 8.27, 50.62 ], [ 8.27, 50.61 ], [ 8.27, 50.6 ], [ 8.27, 50.58 ], [ 8.27, 50.57 ], [ 8.28, 50.55 ], [ 8.32, 50.52 ], [ 8.36, 50.51 ], [ 8.38, 50.5 ], [ 8.39, 50.5 ], [ 8.42, 50.47 ], [ 8.43, 50.47 ], [ 8.44, 50.48 ], [ 8.44, 50.47 ], [ 8.44, 50.46 ], [ 8.43, 50.45 ], [ 8.43, 50.44 ], [ 8.44, 50.44 ], [ 8.45, 50.43 ], [ 8.46, 50.43 ], [ 8.46, 50.42 ], [ 8.48, 50.42 ], [ 8.48, 50.43 ], [ 8.48, 50.44 ], [ 8.49, 50.44 ], [ 8.51, 50.44 ], [ 8.53, 50.44 ], [ 8.53, 50.45 ], [ 8.53, 50.46 ], [ 8.54, 50.46 ], [ 8.59, 50.45 ], [ 8.6, 50.44 ], [ 8.61, 50.44 ], [ 8.62, 50.45 ], [ 8.63, 50.45 ], [ 8.63, 50.47 ], [ 8.63, 50.48 ], [ 8.62, 50.48 ], [ 8.62, 50.49 ], [ 8.63, 50.51 ], [ 8.64, 50.52 ], [ 8.62, 50.53 ], [ 8.63, 50.54 ], [ 8.64, 50.55 ], [ 8.63, 50.55 ], [ 8.62, 50.55 ], [ 8.6, 50.55 ], [ 8.59, 50.55 ], [ 8.61, 50.56 ], [ 8.61, 50.57 ], [ 8.61, 50.58 ], [ 8.62, 50.59 ], [ 8.61, 50.6 ], [ 8.6, 50.6 ], [ 8.58, 50.61 ], [ 8.57, 50.58 ], [ 8.56, 50.58 ], [ 8.53, 50.58 ], [ 8.52, 50.58 ], [ 8.51, 50.59 ], [ 8.5, 50.58 ], [ 8.49, 50.57 ], [ 8.48, 50.57 ], [ 8.47, 50.58 ], [ 8.48, 50.58 ], [ 8.48, 50.6 ], [ 8.48, 50.63 ], [ 8.49, 50.63 ], [ 8.49, 50.62 ], [ 8.5, 50.61 ], [ 8.52, 50.6 ], [ 8.52, 50.61 ], [ 8.53, 50.61 ], [ 8.52, 50.62 ], [ 8.53, 50.63 ], [ 8.53, 50.65 ], [ 8.54, 50.66 ], [ 8.55, 50.67 ], [ 8.56, 50.69 ], [ 8.55, 50.69 ] ] ], [ [ [ 8.65, 50.7 ], [ 8.64, 50.69 ], [ 8.62, 50.68 ], [ 8.61, 50.67 ], [ 8.6, 50.65 ], [ 8.61, 50.64 ], [ 8.61, 50.63 ], [ 8.61, 50.62 ], [ 8.62, 50.61 ], [ 8.63, 50.6 ], [ 8.66, 50.6 ], [ 8.66, 50.61 ], [ 8.68, 50.63 ], [ 8.68, 50.65 ], [ 8.69, 50.66 ], [ 8.7, 50.67 ], [ 8.71, 50.67 ], [ 8.7, 50.68 ], [ 8.69, 50.68 ], [ 8.65, 50.7 ] ] ], [ [ [ 7.86, 50.0 ], [ 7.85, 50.01 ], [ 7.83, 50.02 ], [ 7.79, 50.05 ], [ 7.78, 50.05 ], [ 7.77, 50.06 ], [ 7.77, 50.07 ], [ 7.77, 50.08 ], [ 7.74, 50.1 ], [ 7.72, 50.11 ], [ 7.72, 50.12 ], [ 7.73, 50.12 ], [ 7.74, 50.13 ], [ 7.72, 50.15 ], [ 7.69, 50.17 ], [ 7.66, 50.17 ], [ 7.64, 50.18 ], [ 7.64, 50.19 ], [ 7.64, 50.2 ], [ 7.62, 50.22 ], [ 7.59, 50.23 ], [ 7.58, 50.24 ], [ 7.58, 50.25 ], [ 7.59, 50.26 ], [ 7.62, 50.25 ], [ 7.64, 50.25 ], [ 7.65, 50.26 ], [ 7.65, 50.27 ], [ 7.64, 50.28 ], [ 7.62, 50.28 ], [ 7.63, 50.28 ], [ 7.61, 50.29 ], [ 7.59, 50.31 ], [ 7.61, 50.31 ], [ 7.62, 50.32 ], [ 7.63, 50.32 ], [ 7.64, 50.32 ], [ 7.65, 50.32 ], [ 7.66, 50.33 ], [ 7.68, 50.36 ], [ 7.68, 50.37 ], [ 7.68, 50.38 ], [ 7.66, 50.38 ], [ 7.66, 50.39 ], [ 7.68, 50.4 ], [ 7.67, 50.42 ], [ 7.66, 50.43 ], [ 7.65, 50.43 ], [ 7.64, 50.44 ], [ 7.63, 50.44 ], [ 7.64, 50.45 ], [ 7.65, 50.45 ], [ 7.66, 50.46 ], [ 7.65, 50.46 ], [ 7.62, 50.46 ], [ 7.61, 50.46 ], [ 7.59, 50.45 ], [ 7.59, 50.46 ], [ 7.59, 50.47 ], [ 7.6, 50.48 ], [ 7.62, 50.48 ], [ 7.65, 50.49 ], [ 7.67, 50.5 ], [ 7.67, 50.51 ], [ 7.67, 50.52 ], [ 7.69, 50.52 ], [ 7.7, 50.53 ], [ 7.7, 50.55 ], [ 7.68, 50.55 ], [ 7.67, 50.56 ], [ 7.67, 50.57 ], [ 7.68, 50.57 ], [ 7.68, 50.58 ], [ 7.68, 50.59 ], [ 7.67, 50.6 ], [ 7.67, 50.61 ], [ 7.68, 50.62 ], [ 7.68, 50.63 ], [ 7.67, 50.63 ], [ 7.67, 50.65 ], [ 7.68, 50.65 ], [ 7.69, 50.67 ], [ 7.71, 50.68 ], [ 7.71, 50.69 ], [ 7.69, 50.71 ], [ 7.7, 50.71 ], [ 7.72, 50.71 ], [ 7.73, 50.71 ], [ 7.73, 50.72 ], [ 7.72, 50.72 ], [ 7.72, 50.73 ], [ 7.73, 50.73 ], [ 7.74, 50.73 ], [ 7.75, 50.73 ], [ 7.74, 50.74 ], [ 7.75, 50.74 ], [ 7.77, 50.74 ], [ 7.79, 50.74 ], [ 7.8, 50.74 ], [ 7.81, 50.74 ], [ 7.79, 50.73 ], [ 7.8, 50.72 ], [ 7.82, 50.71 ], [ 7.83, 50.71 ], [ 7.84, 50.71 ], [ 7.84, 50.7 ], [ 7.84, 50.69 ], [ 7.87, 50.69 ], [ 7.88, 50.69 ], [ 7.88, 50.7 ], [ 7.88, 50.72 ], [ 7.89, 50.72 ], [ 7.9, 50.72 ], [ 7.92, 50.72 ], [ 7.95, 50.71 ], [ 7.97, 50.7 ], [ 7.97, 50.69 ], [ 7.99, 50.69 ], [ 8.01, 50.7 ], [ 8.02, 50.7 ], [ 8.04, 50.7 ], [ 8.05, 50.7 ], [ 8.04, 50.71 ], [ 8.04, 50.72 ], [ 8.04, 50.74 ], [ 7.99, 50.76 ], [ 7.98, 50.78 ], [ 7.97, 50.8 ], [ 7.98, 50.82 ], [ 7.97, 50.83 ], [ 7.97, 50.84 ], [ 7.94, 50.85 ], [ 7.92, 50.85 ], [ 7.91, 50.85 ], [ 7.9, 50.86 ], [ 7.89, 50.88 ], [ 7.88, 50.88 ], [ 7.87, 50.88 ], [ 7.84, 50.88 ], [ 7.83, 50.89 ], [ 7.83, 50.9 ], [ 7.83, 50.91 ], [ 7.85, 50.93 ], [ 7.84, 50.93 ], [ 7.82, 50.94 ], [ 7.81, 50.95 ], [ 7.81, 50.96 ], [ 7.81, 50.98 ], [ 7.8, 50.98 ], [ 7.78, 50.99 ], [ 7.76, 51.0 ], [ 7.76, 51.01 ], [ 7.76, 51.03 ], [ 7.76, 51.05 ], [ 7.74, 51.07 ], [ 7.73, 51.08 ], [ 7.71, 51.09 ], [ 7.68, 51.08 ], [ 7.66, 51.08 ], [ 7.65, 51.08 ], [ 7.63, 51.09 ], [ 7.63, 51.11 ], [ 7.62, 51.11 ], [ 7.6, 51.11 ], [ 7.56, 51.11 ], [ 7.55, 51.11 ], [ 7.54, 51.1 ], [ 7.53, 51.1 ], [ 7.53, 51.11 ], [ 7.52, 51.11 ], [ 7.53, 51.12 ], [ 7.53, 51.13 ], [ 7.51, 51.14 ], [ 7.49, 51.16 ], [ 7.48, 51.16 ], [ 7.47, 51.17 ], [ 7.46, 51.18 ], [ 7.45, 51.19 ], [ 7.45, 51.2 ], [ 7.47, 51.22 ], [ 7.46, 51.23 ], [ 7.45, 51.24 ], [ 7.45, 51.25 ], [ 7.44, 51.25 ], [ 7.41, 51.26 ], [ 7.39, 51.25 ], [ 7.39, 51.24 ], [ 7.38, 51.24 ], [ 7.36, 51.25 ], [ 7.35, 51.25 ], [ 7.34, 51.25 ], [ 7.32, 51.25 ], [ 7.29, 51.26 ], [ 7.28, 51.26 ], [ 7.27, 51.26 ], [ 7.26, 51.26 ], [ 7.26, 51.27 ], [ 7.26, 51.28 ], [ 7.25, 51.28 ], [ 7.22, 51.29 ], [ 7.2, 51.29 ], [ 7.2, 51.3 ], [ 7.2, 51.31 ], [ 7.19, 51.32 ], [ 7.19, 51.33 ], [ 7.18, 51.33 ], [ 7.17, 51.34 ], [ 7.16, 51.35 ], [ 7.16, 51.37 ], [ 7.15, 51.38 ], [ 7.14, 51.38 ], [ 7.15, 51.4 ], [ 7.13, 51.41 ], [ 7.12, 51.43 ], [ 7.13, 51.44 ], [ 7.15, 51.45 ], [ 7.13, 51.46 ], [ 7.13, 51.48 ], [ 7.13, 51.5 ], [ 7.12, 51.5 ], [ 7.11, 51.5 ], [ 7.09, 51.51 ], [ 7.06, 51.51 ], [ 7.03, 51.52 ], [ 7.02, 51.53 ], [ 7.01, 51.53 ], [ 7.0, 51.52 ], [ 6.99, 51.52 ], [ 6.97, 51.52 ], [ 6.94, 51.51 ], [ 6.91, 51.5 ], [ 6.86, 51.5 ], [ 6.88, 51.51 ], [ 6.88, 51.52 ], [ 6.89, 51.54 ], [ 6.89, 51.55 ], [ 6.89, 51.56 ], [ 6.86, 51.58 ], [ 6.86, 51.59 ], [ 6.87, 51.6 ], [ 6.86, 51.62 ], [ 6.88, 51.63 ], [ 6.88, 51.64 ], [ 6.9, 51.64 ], [ 6.93, 51.64 ], [ 6.94, 51.66 ], [ 6.92, 51.67 ], [ 6.89, 51.68 ], [ 6.88, 51.69 ], [ 6.88, 51.71 ], [ 6.88, 51.74 ], [ 6.87, 51.75 ], [ 6.86, 51.75 ], [ 6.85, 51.75 ], [ 6.83, 51.75 ], [ 6.81, 51.75 ], [ 6.8, 51.76 ], [ 6.79, 51.77 ], [ 6.78, 51.78 ], [ 6.77, 51.78 ], [ 6.75, 51.77 ], [ 6.74, 51.76 ], [ 6.7, 51.76 ], [ 6.68, 51.75 ], [ 6.67, 51.74 ], [ 6.65, 51.74 ], [ 6.64, 51.74 ], [ 6.64, 51.75 ], [ 6.62, 51.76 ], [ 6.59, 51.78 ], [ 6.56, 51.8 ], [ 6.55, 51.8 ], [ 6.54, 51.81 ], [ 6.49, 51.82 ], [ 6.46, 51.83 ], [ 6.43, 51.84 ], [ 6.41, 51.84 ], [ 6.4, 51.84 ], [ 6.38, 51.84 ], [ 6.35, 51.85 ], [ 6.31, 51.86 ], [ 6.28, 51.87 ], [ 6.26, 51.87 ], [ 6.22, 51.88 ], [ 6.19, 51.89 ], [ 6.18, 51.9 ], [ 6.17, 51.9 ], [ 6.13, 51.9 ], [ 6.13, 51.89 ], [ 6.15, 51.87 ], [ 6.16, 51.84 ], [ 6.14, 51.85 ], [ 6.11, 51.85 ], [ 6.08, 51.86 ], [ 6.07, 51.86 ], [ 6.03, 51.84 ], [ 6.0, 51.83 ], [ 5.96, 51.83 ], [ 5.95, 51.83 ], [ 5.95, 51.82 ], [ 5.96, 51.81 ], [ 5.99, 51.78 ], [ 5.99, 51.77 ], [ 5.96, 51.76 ], [ 5.96, 51.75 ], [ 5.97, 51.74 ], [ 5.99, 51.74 ], [ 6.03, 51.72 ], [ 6.04, 51.71 ], [ 6.03, 51.7 ], [ 6.05, 51.67 ], [ 6.11, 51.65 ], [ 6.12, 51.65 ], [ 6.12, 51.64 ], [ 6.1, 51.62 ], [ 6.1, 51.61 ], [ 6.11, 51.6 ], [ 6.14, 51.58 ], [ 6.18, 51.55 ], [ 6.21, 51.52 ], [ 6.22, 51.5 ], [ 6.22, 51.45 ], [ 6.21, 51.41 ], [ 6.22, 51.38 ], [ 6.23, 51.37 ], [ 6.22, 51.36 ], [ 6.2, 51.35 ], [ 6.2, 51.34 ], [ 6.19, 51.34 ], [ 6.18, 51.33 ], [ 6.16, 51.32 ], [ 6.14, 51.29 ], [ 6.12, 51.27 ], [ 6.09, 51.25 ], [ 6.09, 51.24 ], [ 6.1, 51.23 ], [ 6.08, 51.21 ], [ 6.08, 51.2 ], [ 6.08, 51.19 ], [ 6.09, 51.17 ], [ 6.1, 51.17 ], [ 6.13, 51.18 ], [ 6.16, 51.19 ], [ 6.17, 51.18 ], [ 6.16, 51.17 ], [ 6.18, 51.15 ], [ 6.17, 51.14 ], [ 6.13, 51.14 ], [ 6.11, 51.13 ], [ 6.09, 51.12 ], [ 6.06, 51.11 ], [ 6.04, 51.1 ], [ 6.01, 51.09 ], [ 5.98, 51.07 ], [ 5.98, 51.05 ], [ 5.97, 51.04 ], [ 5.95, 51.04 ], [ 5.94, 51.06 ], [ 5.92, 51.06 ], [ 5.9, 51.06 ], [ 5.88, 51.05 ], [ 5.88, 51.04 ], [ 5.9, 51.02 ], [ 5.91, 51.0 ], [ 5.9, 50.98 ], [ 5.9, 50.97 ], [ 5.91, 50.97 ], [ 5.95, 50.98 ], [ 5.97, 50.98 ], [ 5.99, 50.98 ], [ 6.01, 50.98 ], [ 6.03, 50.98 ], [ 6.03, 50.97 ], [ 6.02, 50.96 ], [ 6.02, 50.94 ], [ 6.03, 50.93 ], [ 6.06, 50.92 ], [ 6.09, 50.92 ], [ 6.08, 50.9 ], [ 6.08, 50.89 ], [ 6.09, 50.88 ], [ 6.09, 50.87 ], [ 6.08, 50.85 ], [ 6.07, 50.85 ], [ 6.06, 50.85 ], [ 6.04, 50.84 ], [ 6.03, 50.83 ], [ 6.03, 50.81 ], [ 6.02, 50.81 ], [ 5.99, 50.8 ], [ 5.98, 50.8 ], [ 6.01, 50.79 ], [ 6.0, 50.77 ], [ 6.0, 50.76 ], [ 6.01, 50.76 ], [ 6.01, 50.75 ], [ 6.02, 50.74 ], [ 6.02, 50.73 ], [ 6.0, 50.72 ], [ 5.99, 50.71 ], [ 5.97, 50.69 ], [ 5.98, 50.68 ], [ 5.98, 50.67 ], [ 6.0, 50.65 ], [ 6.01, 50.63 ], [ 6.01, 50.62 ], [ 6.02, 50.61 ], [ 6.04, 50.61 ], [ 6.05, 50.61 ], [ 6.06, 50.6 ], [ 6.08, 50.6 ], [ 6.11, 50.59 ], [ 6.13, 50.57 ], [ 6.13, 50.55 ], [ 6.14, 50.55 ], [ 6.13, 50.54 ], [ 6.12, 50.53 ], [ 6.11, 50.53 ], [ 6.1, 50.53 ], [ 6.06, 50.53 ], [ 6.02, 50.5 ], [ 6.01, 50.5 ], [ 6.01, 50.47 ], [ 6.02, 50.45 ], [ 6.01, 50.45 ], [ 5.99, 50.45 ], [ 5.98, 50.45 ], [ 5.98, 50.43 ], [ 5.99, 50.41 ], [ 5.98, 50.39 ], [ 5.99, 50.38 ], [ 6.01, 50.37 ], [ 6.02, 50.35 ], [ 6.0, 50.33 ], [ 5.98, 50.33 ], [ 5.99, 50.32 ], [ 6.01, 50.31 ], [ 6.01, 50.29 ], [ 6.01, 50.27 ], [ 6.01, 50.22 ], [ 6.03, 50.2 ], [ 6.03, 50.19 ], [ 6.03, 50.17 ], [ 6.04, 50.17 ], [ 6.08, 50.16 ], [ 6.1, 50.17 ], [ 6.11, 50.17 ], [ 6.12, 50.14 ], [ 6.13, 50.14 ], [ 6.14, 50.14 ], [ 6.14, 50.13 ], [ 6.13, 50.11 ], [ 6.13, 50.1 ], [ 6.13, 50.09 ], [ 6.12, 50.09 ], [ 6.13, 50.07 ], [ 6.12, 50.07 ], [ 6.12, 50.06 ], [ 6.13, 50.05 ], [ 6.14, 50.04 ], [ 6.14, 50.03 ], [ 6.15, 50.03 ], [ 6.14, 50.02 ], [ 6.15, 50.0 ], [ 6.16, 49.99 ], [ 6.17, 49.98 ], [ 6.17, 49.97 ], [ 6.18, 49.96 ], [ 6.19, 49.96 ], [ 6.19, 49.97 ], [ 6.21, 49.97 ], [ 6.23, 49.94 ], [ 6.23, 49.92 ], [ 6.24, 49.9 ], [ 6.27, 49.88 ], [ 6.29, 49.88 ], [ 6.31, 49.87 ], [ 6.32, 49.87 ], [ 6.32, 49.86 ], [ 6.32, 49.85 ], [ 6.33, 49.84 ], [ 6.34, 49.84 ], [ 6.34, 49.85 ], [ 6.36, 49.85 ], [ 6.38, 49.85 ], [ 6.4, 49.83 ], [ 6.41, 49.82 ], [ 6.44, 49.81 ], [ 6.46, 49.82 ], [ 6.48, 49.82 ], [ 6.49, 49.82 ], [ 6.5, 49.81 ], [ 6.51, 49.81 ], [ 6.52, 49.82 ], [ 6.53, 49.81 ], [ 6.52, 49.8 ], [ 6.52, 49.79 ], [ 6.52, 49.78 ], [ 6.52, 49.77 ], [ 6.51, 49.76 ], [ 6.51, 49.75 ], [ 6.51, 49.74 ], [ 6.52, 49.73 ], [ 6.51, 49.73 ], [ 6.5, 49.73 ], [ 6.5, 49.72 ], [ 6.5, 49.71 ], [ 6.49, 49.7 ], [ 6.47, 49.69 ], [ 6.45, 49.68 ], [ 6.43, 49.67 ], [ 6.44, 49.66 ], [ 6.42, 49.62 ], [ 6.41, 49.62 ], [ 6.39, 49.6 ], [ 6.38, 49.59 ], [ 6.37, 49.58 ], [ 6.37, 49.57 ], [ 6.38, 49.56 ], [ 6.38, 49.55 ], [ 6.36, 49.53 ], [ 6.37, 49.51 ], [ 6.36, 49.49 ], [ 6.36, 49.47 ], [ 6.37, 49.47 ], [ 6.39, 49.46 ], [ 6.42, 49.47 ], [ 6.44, 49.47 ], [ 6.45, 49.46 ], [ 6.47, 49.46 ], [ 6.5, 49.45 ], [ 6.51, 49.44 ], [ 6.54, 49.43 ], [ 6.55, 49.42 ], [ 6.55, 49.41 ], [ 6.55, 49.4 ], [ 6.58, 49.38 ], [ 6.59, 49.37 ], [ 6.59, 49.36 ], [ 6.58, 49.36 ], [ 6.57, 49.35 ], [ 6.58, 49.34 ], [ 6.62, 49.31 ], [ 6.65, 49.29 ], [ 6.66, 49.28 ], [ 6.67, 49.26 ], [ 6.67, 49.24 ], [ 6.67, 49.23 ], [ 6.69, 49.23 ], [ 6.7, 49.22 ], [ 6.72, 49.22 ], [ 6.73, 49.22 ], [ 6.73, 49.21 ], [ 6.72, 49.2 ], [ 6.72, 49.19 ], [ 6.73, 49.18 ], [ 6.76, 49.17 ], [ 6.8, 49.17 ], [ 6.82, 49.16 ], [ 6.83, 49.16 ], [ 6.84, 49.19 ], [ 6.83, 49.2 ], [ 6.83, 49.21 ], [ 6.85, 49.22 ], [ 6.89, 49.22 ], [ 6.91, 49.22 ], [ 6.92, 49.22 ], [ 6.93, 49.22 ], [ 6.96, 49.21 ], [ 7.0, 49.19 ], [ 7.03, 49.17 ], [ 7.03, 49.15 ], [ 7.04, 49.13 ], [ 7.05, 49.12 ], [ 7.06, 49.12 ], [ 7.08, 49.14 ], [ 7.08, 49.15 ], [ 7.11, 49.15 ], [ 7.12, 49.17 ], [ 7.14, 49.18 ], [ 7.12, 49.18 ], [ 7.09, 49.18 ], [ 7.09, 49.19 ], [ 7.09, 49.2 ], [ 7.1, 49.23 ], [ 7.11, 49.25 ], [ 7.1, 49.25 ], [ 7.09, 49.25 ], [ 7.08, 49.25 ], [ 7.08, 49.26 ], [ 7.09, 49.27 ], [ 7.08, 49.28 ], [ 7.08, 49.3 ], [ 7.11, 49.31 ], [ 7.13, 49.31 ], [ 7.17, 49.3 ], [ 7.19, 49.31 ], [ 7.21, 49.31 ], [ 7.23, 49.31 ], [ 7.26, 49.32 ], [ 7.24, 49.34 ], [ 7.23, 49.34 ], [ 7.23, 49.35 ], [ 7.24, 49.36 ], [ 7.23, 49.37 ], [ 7.23, 49.38 ], [ 7.26, 49.4 ], [ 7.27, 49.4 ], [ 7.29, 49.4 ], [ 7.3, 49.41 ], [ 7.27, 49.43 ], [ 7.25, 49.43 ], [ 7.26, 49.44 ], [ 7.26, 49.45 ], [ 7.25, 49.46 ], [ 7.23, 49.47 ], [ 7.22, 49.48 ], [ 7.22, 49.49 ], [ 7.24, 49.51 ], [ 7.26, 49.51 ], [ 7.27, 49.51 ], [ 7.3, 49.52 ], [ 7.3, 49.53 ], [ 7.31, 49.53 ], [ 7.32, 49.53 ], [ 7.35, 49.53 ], [ 7.36, 49.54 ], [ 7.38, 49.54 ], [ 7.39, 49.55 ], [ 7.39, 49.56 ], [ 7.38, 49.56 ], [ 7.37, 49.58 ], [ 7.37, 49.59 ], [ 7.36, 49.59 ], [ 7.37, 49.6 ], [ 7.39, 49.61 ], [ 7.41, 49.6 ], [ 7.44, 49.6 ], [ 7.46, 49.59 ], [ 7.47, 49.6 ], [ 7.48, 49.6 ], [ 7.49, 49.61 ], [ 7.49, 49.62 ], [ 7.48, 49.63 ], [ 7.47, 49.64 ], [ 7.46, 49.64 ], [ 7.47, 49.65 ], [ 7.48, 49.65 ], [ 7.49, 49.64 ], [ 7.52, 49.62 ], [ 7.55, 49.62 ], [ 7.57, 49.62 ], [ 7.59, 49.62 ], [ 7.6, 49.62 ], [ 7.59, 49.63 ], [ 7.6, 49.64 ], [ 7.59, 49.67 ], [ 7.62, 49.67 ], [ 7.63, 49.66 ], [ 7.64, 49.66 ], [ 7.64, 49.67 ], [ 7.64, 49.68 ], [ 7.66, 49.69 ], [ 7.67, 49.69 ], [ 7.68, 49.68 ], [ 7.69, 49.71 ], [ 7.69, 49.72 ], [ 7.69, 49.73 ], [ 7.69, 49.74 ], [ 7.7, 49.76 ], [ 7.7, 49.77 ], [ 7.72, 49.78 ], [ 7.73, 49.78 ], [ 7.74, 49.78 ], [ 7.74, 49.79 ], [ 7.76, 49.79 ], [ 7.78, 49.78 ], [ 7.8, 49.79 ], [ 7.81, 49.79 ], [ 7.81, 49.8 ], [ 7.8, 49.8 ], [ 7.8, 49.81 ], [ 7.83, 49.81 ], [ 7.85, 49.81 ], [ 7.86, 49.79 ], [ 7.87, 49.79 ], [ 7.88, 49.79 ], [ 7.88, 49.8 ], [ 7.9, 49.81 ], [ 7.91, 49.81 ], [ 7.9, 49.82 ], [ 7.89, 49.82 ], [ 7.89, 49.83 ], [ 7.9, 49.84 ], [ 7.9, 49.85 ], [ 7.89, 49.86 ], [ 7.89, 49.87 ], [ 7.9, 49.87 ], [ 7.92, 49.88 ], [ 7.92, 49.89 ], [ 7.92, 49.9 ], [ 7.91, 49.92 ], [ 7.9, 49.93 ], [ 7.9, 49.94 ], [ 7.9, 49.95 ], [ 7.89, 49.97 ], [ 7.88, 49.97 ], [ 7.87, 49.98 ], [ 7.87, 49.99 ], [ 7.86, 50.0 ] ], [ [ 7.37, 49.58 ], [ 7.36, 49.57 ], [ 7.35, 49.58 ], [ 7.37, 49.58 ] ], [ [ 7.44, 49.77 ], [ 7.42, 49.75 ], [ 7.41, 49.75 ], [ 7.39, 49.74 ], [ 7.37, 49.72 ], [ 7.35, 49.72 ], [ 7.35, 49.71 ], [ 7.37, 49.7 ], [ 7.39, 49.68 ], [ 7.38, 49.68 ], [ 7.36, 49.68 ], [ 7.34, 49.7 ], [ 7.32, 49.71 ], [ 7.31, 49.71 ], [ 7.3, 49.7 ], [ 7.29, 49.69 ], [ 7.28, 49.69 ], [ 7.29, 49.68 ], [ 7.27, 49.66 ], [ 7.25, 49.65 ], [ 7.23, 49.64 ], [ 7.23, 49.63 ], [ 7.23, 49.62 ], [ 7.23, 49.61 ], [ 7.22, 49.6 ], [ 7.21, 49.6 ], [ 7.21, 49.59 ], [ 7.22, 49.58 ], [ 7.23, 49.57 ], [ 7.23, 49.56 ], [ 7.22, 49.55 ], [ 7.2, 49.53 ], [ 7.18, 49.52 ], [ 7.17, 49.52 ], [ 7.16, 49.54 ], [ 7.15, 49.54 ], [ 7.13, 49.54 ], [ 7.12, 49.53 ], [ 7.09, 49.54 ], [ 7.07, 49.53 ], [ 7.04, 49.52 ], [ 7.02, 49.52 ], [ 7.03, 49.53 ], [ 7.0, 49.55 ], [ 7.0, 49.56 ], [ 7.02, 49.57 ], [ 7.03, 49.58 ], [ 7.01, 49.6 ], [ 7.01, 49.61 ], [ 7.03, 49.62 ], [ 7.03, 49.63 ], [ 7.03, 49.64 ], [ 7.06, 49.65 ], [ 7.06, 49.66 ], [ 7.06, 49.67 ], [ 7.08, 49.68 ], [ 7.1, 49.7 ], [ 7.11, 49.7 ], [ 7.12, 49.7 ], [ 7.15, 49.72 ], [ 7.19, 49.74 ], [ 7.23, 49.76 ], [ 7.27, 49.78 ], [ 7.27, 49.79 ], [ 7.28, 49.79 ], [ 7.28, 49.8 ], [ 7.3, 49.79 ], [ 7.31, 49.8 ], [ 7.34, 49.81 ], [ 7.35, 49.81 ], [ 7.37, 49.82 ], [ 7.37, 49.83 ], [ 7.37, 49.85 ], [ 7.38, 49.86 ], [ 7.39, 49.85 ], [ 7.4, 49.84 ], [ 7.4, 49.82 ], [ 7.41, 49.81 ], [ 7.43, 49.79 ], [ 7.44, 49.78 ], [ 7.44, 49.77 ] ] ] ] } }
]
}
