{
"type": "FeatureCollection",
"name": "PRU_WES_1914",
"crs": { "type": "name", "properties": { "name": "urn:ogc:def:crs:OGC:1.3:CRS84" } },
"features": [
{ "type": "Feature", "properties": { "name": "Westfalen" }, "geometry": { "type": "MultiPolygon", "coordinates": [ [ [ [ 8.29, 50.88 ], [ 8.31, 50.87 ], [ 8.31, 50.86 ], [ 8.37, 50.87 ], [ 8.4, 50.89 ], [ 8.43, 50.91 ], [ 8.45, 50.92 ], [ 8.46, 50.92 ], [ 8.46, 50.94 ], [ 8.47, 50.96 ], [ 8.47, 50.97 ], [ 8.48, 50.98 ], [ 8.54, 51.02 ], [ 8.52, 51.04 ], [ 8.52, 51.05 ], [ 8.53, 51.06 ], [ 8.53, 51.07 ], [ 8.52, 51.08 ], [ 8.53, 51.09 ], [ 8.53, 51.1 ], [ 8.55, 51.1 ], [ 8.56, 51.1 ], [ 8.62, 51.1 ], [ 8.65, 51.09 ], [ 8.67, 51.09 ], [ 8.69, 51.1 ], [ 8.72, 51.11 ], [ 8.73, 51.11 ], [ 8.73, 51.12 ], [ 8.71, 51.12 ], [ 8.7, 51.13 ], [ 8.7, 51.14 ], [ 8.75, 51.17 ], [ 8.75, 51.18 ], [ 8.76, 51.2 ], [ 8.76, 51.21 ], [ 8.75, 51.22 ], [ 8.74, 51.23 ], [ 8.73, 51.25 ], [ 8.74, 51.26 ], [ 8.71, 51.27 ], [ 8.69, 51.27 ], [ 8.66, 51.27 ], [ 8.64, 51.27 ], [ 8.63, 51.26 ], [ 8.62, 51.25 ], [ 8.61, 51.25 ], [ 8.59, 51.25 ], [ 8.57, 51.27 ], [ 8.57, 51.28 ], [ 8.58, 51.3 ], [ 8.59, 51.3 ], [ 8.6, 51.31 ], [ 8.62, 51.33 ], [ 8.65, 51.34 ], [ 8.66, 51.36 ], [ 8.68, 51.37 ], [ 8.73, 51.38 ], [ 8.74, 51.37 ], [ 8.75, 51.37 ], [ 8.79, 51.39 ], [ 8.82, 51.39 ], [ 8.84, 51.38 ], [ 8.86, 51.38 ], [ 8.87, 51.38 ], [ 8.9, 51.39 ], [ 8.92, 51.39 ], [ 8.94, 51.39 ], [ 8.95, 51.4 ], [ 8.95, 51.41 ], [ 8.95, 51.42 ], [ 8.96, 51.43 ], [ 8.94, 51.43 ], [ 8.93, 51.43 ], [ 8.92, 51.46 ], [ 8.91, 51.47 ], [ 8.9, 51.48 ], [ 8.93, 51.49 ], [ 8.97, 51.5 ], [ 8.98, 51.5 ], [ 9.02, 51.51 ], [ 9.05, 51.5 ], [ 9.06, 51.5 ], [ 9.08, 51.5 ], [ 9.09, 51.49 ], [ 9.08, 51.47 ], [ 9.09, 51.45 ], [ 9.1, 51.45 ], [ 9.14, 51.45 ], [ 9.15, 51.44 ], [ 9.16, 51.44 ], [ 9.17, 51.46 ], [ 9.19, 51.46 ], [ 9.21, 51.46 ], [ 9.22, 51.46 ], [ 9.22, 51.47 ], [ 9.22, 51.49 ], [ 9.25, 51.5 ], [ 9.31, 51.52 ], [ 9.31, 51.54 ], [ 9.34, 51.56 ], [ 9.35, 51.58 ], [ 9.37, 51.59 ], [ 9.37, 51.6 ], [ 9.34, 51.62 ], [ 9.39, 51.63 ], [ 9.43, 51.63 ], [ 9.44, 51.64 ], [ 9.45, 51.65 ], [ 9.43, 51.66 ], [ 9.4, 51.65 ], [ 9.39, 51.65 ], [ 9.38, 51.67 ], [ 9.38, 51.68 ], [ 9.39, 51.69 ], [ 9.39, 51.7 ], [ 9.38, 51.72 ], [ 9.38, 51.74 ], [ 9.4, 51.77 ], [ 9.42, 51.78 ], [ 9.44, 51.79 ], [ 9.43, 51.81 ], [ 9.43, 51.83 ], [ 9.46, 51.85 ], [ 9.47, 51.86 ], [ 9.46, 51.86 ], [ 9.45, 51.86 ], [ 9.41, 51.86 ], [ 9.37, 51.86 ], [ 9.34, 51.86 ], [ 9.33, 51.85 ], [ 9.31, 51.85 ], [ 9.26, 51.86 ], [ 9.22, 51.86 ], [ 9.22, 51.85 ], [ 9.2, 51.85 ], [ 9.17, 51.86 ], [ 9.16, 51.87 ], [ 9.13, 51.87 ], [ 9.13, 51.9 ], [ 9.11, 51.91 ], [ 9.1, 51.89 ], [ 9.06, 51.88 ], [ 9.05, 51.87 ], [ 9.04, 51.87 ], [ 9.03, 51.88 ], [ 9.01, 51.87 ], [ 9.02, 51.86 ], [ 9.0, 51.85 ], [ 8.98, 51.83 ], [ 8.95, 51.84 ], [ 8.94, 51.83 ], [ 8.94, 51.81 ], [ 8.92, 51.81 ], [ 8.91, 51.81 ], [ 8.88, 51.8 ], [ 8.87, 51.8 ], [ 8.84, 51.8 ], [ 8.8, 51.8 ], [ 8.78, 51.81 ], [ 8.77, 51.84 ], [ 8.75, 51.85 ], [ 8.75, 51.87 ], [ 8.74, 51.88 ], [ 8.72, 51.9 ], [ 8.71, 51.9 ], [ 8.69, 51.92 ], [ 8.65, 51.92 ], [ 8.63, 51.93 ], [ 8.65, 51.95 ], [ 8.65, 51.97 ], [ 8.66, 51.98 ], [ 8.66, 52.0 ], [ 8.66, 52.01 ], [ 8.66, 52.02 ], [ 8.65, 52.03 ], [ 8.66, 52.03 ], [ 8.66, 52.04 ], [ 8.66, 52.05 ], [ 8.66, 52.06 ], [ 8.67, 52.08 ], [ 8.7, 52.09 ], [ 8.72, 52.09 ], [ 8.73, 52.09 ], [ 8.73, 52.1 ], [ 8.73, 52.11 ], [ 8.75, 52.11 ], [ 8.77, 52.11 ], [ 8.78, 52.11 ], [ 8.8, 52.11 ], [ 8.81, 52.12 ], [ 8.83, 52.1 ], [ 8.84, 52.1 ], [ 8.86, 52.1 ], [ 8.88, 52.11 ], [ 8.88, 52.12 ], [ 8.89, 52.12 ], [ 8.9, 52.15 ], [ 8.91, 52.16 ], [ 8.92, 52.16 ], [ 8.94, 52.17 ], [ 8.95, 52.17 ], [ 8.98, 52.17 ], [ 8.99, 52.18 ], [ 9.0, 52.19 ], [ 9.01, 52.19 ], [ 9.02, 52.19 ], [ 9.03, 52.19 ], [ 9.04, 52.19 ], [ 9.04, 52.2 ], [ 9.04, 52.22 ], [ 9.06, 52.23 ], [ 9.03, 52.25 ], [ 8.97, 52.26 ], [ 8.98, 52.27 ], [ 8.97, 52.27 ], [ 8.97, 52.28 ], [ 8.99, 52.29 ], [ 9.0, 52.3 ], [ 9.0, 52.31 ], [ 8.99, 52.33 ], [ 9.0, 52.34 ], [ 9.03, 52.34 ], [ 9.05, 52.34 ], [ 9.06, 52.34 ], [ 9.08, 52.35 ], [ 9.09, 52.36 ], [ 9.09, 52.37 ], [ 9.1, 52.39 ], [ 9.12, 52.4 ], [ 9.11, 52.42 ], [ 9.1, 52.44 ], [ 9.09, 52.44 ], [ 9.1, 52.45 ], [ 9.12, 52.47 ], [ 9.14, 52.48 ], [ 9.12, 52.49 ], [ 9.11, 52.48 ], [ 9.09, 52.49 ], [ 9.07, 52.49 ], [ 9.05, 52.49 ], [ 9.04, 52.48 ], [ 9.03, 52.47 ], [ 9.02, 52.47 ], [ 9.02, 52.46 ], [ 8.99, 52.45 ], [ 8.98, 52.44 ], [ 8.98, 52.43 ], [ 8.95, 52.42 ], [ 8.93, 52.4 ], [ 8.9, 52.4 ], [ 8.85, 52.39 ], [ 8.8, 52.4 ], [ 8.77, 52.4 ], [ 8.76, 52.39 ], [ 8.73, 52.4 ], [ 8.71, 52.39 ], [ 8.71, 52.4 ], [ 8.71, 52.42 ], [ 8.71, 52.43 ], [ 8.71, 52.44 ], [ 8.71, 52.47 ], [ 8.72, 52.47 ], [ 8.71, 52.48 ], [ 8.7, 52.49 ], [ 8.7, 52.5 ], [ 8.69, 52.51 ], [ 8.67, 52.52 ], [ 8.66, 52.53 ], [ 8.65, 52.53 ], [ 8.57, 52.51 ], [ 8.55, 52.51 ], [ 8.51, 52.51 ], [ 8.48, 52.5 ], [ 8.47, 52.5 ], [ 8.46, 52.48 ], [ 8.45, 52.46 ], [ 8.44, 52.45 ], [ 8.43, 52.45 ], [ 8.39, 52.45 ], [ 8.38, 52.44 ], [ 8.34, 52.45 ], [ 8.32, 52.45 ], [ 8.31, 52.46 ], [ 8.3, 52.46 ], [ 8.3, 52.44 ], [ 8.3, 52.43 ], [ 8.32, 52.43 ], [ 8.32, 52.4 ], [ 8.36, 52.39 ], [ 8.4, 52.38 ], [ 8.44, 52.36 ], [ 8.45, 52.35 ], [ 8.46, 52.32 ], [ 8.47, 52.29 ], [ 8.47, 52.28 ], [ 8.47, 52.26 ], [ 8.47, 52.24 ], [ 8.46, 52.22 ], [ 8.46, 52.2 ], [ 8.49, 52.19 ], [ 8.5, 52.19 ], [ 8.51, 52.19 ], [ 8.5, 52.17 ], [ 8.48, 52.16 ], [ 8.44, 52.15 ], [ 8.41, 52.14 ], [ 8.41, 52.12 ], [ 8.39, 52.11 ], [ 8.38, 52.11 ], [ 8.36, 52.12 ], [ 8.34, 52.12 ], [ 8.31, 52.12 ], [ 8.29, 52.13 ], [ 8.27, 52.13 ], [ 8.26, 52.12 ], [ 8.24, 52.11 ], [ 8.22, 52.1 ], [ 8.2, 52.09 ], [ 8.2, 52.08 ], [ 8.19, 52.07 ], [ 8.16, 52.07 ], [ 8.14, 52.07 ], [ 8.11, 52.06 ], [ 8.1, 52.06 ], [ 8.08, 52.07 ], [ 8.06, 52.06 ], [ 8.03, 52.06 ], [ 8.01, 52.05 ], [ 7.99, 52.04 ], [ 7.98, 52.04 ], [ 7.96, 52.04 ], [ 7.92, 52.06 ], [ 7.9, 52.08 ], [ 7.96, 52.1 ], [ 7.97, 52.11 ], [ 8.0, 52.11 ], [ 8.0, 52.12 ], [ 8.0, 52.15 ], [ 8.02, 52.16 ], [ 8.02, 52.17 ], [ 8.01, 52.17 ], [ 8.0, 52.17 ], [ 7.99, 52.17 ], [ 7.96, 52.18 ], [ 7.95, 52.18 ], [ 7.93, 52.18 ], [ 7.92, 52.19 ], [ 7.91, 52.2 ], [ 7.91, 52.21 ], [ 7.92, 52.25 ], [ 7.93, 52.26 ], [ 7.95, 52.27 ], [ 7.94, 52.28 ], [ 7.94, 52.29 ], [ 7.94, 52.3 ], [ 7.98, 52.3 ], [ 7.99, 52.3 ], [ 7.99, 52.31 ], [ 7.97, 52.33 ], [ 7.95, 52.35 ], [ 7.91, 52.37 ], [ 7.89, 52.38 ], [ 7.87, 52.37 ], [ 7.83, 52.37 ], [ 7.81, 52.37 ], [ 7.77, 52.38 ], [ 7.72, 52.4 ], [ 7.69, 52.45 ], [ 7.65, 52.46 ], [ 7.64, 52.47 ], [ 7.61, 52.48 ], [ 7.59, 52.46 ], [ 7.58, 52.43 ], [ 7.6, 52.42 ], [ 7.6, 52.41 ], [ 7.56, 52.37 ], [ 7.53, 52.37 ], [ 7.48, 52.35 ], [ 7.44, 52.33 ], [ 7.43, 52.32 ], [ 7.42, 52.31 ], [ 7.4, 52.31 ], [ 7.36, 52.29 ], [ 7.35, 52.28 ], [ 7.33, 52.28 ], [ 7.32, 52.28 ], [ 7.3, 52.26 ], [ 7.25, 52.26 ], [ 7.17, 52.27 ], [ 7.12, 52.26 ], [ 7.1, 52.24 ], [ 7.07, 52.24 ], [ 7.04, 52.22 ], [ 7.0, 52.22 ], [ 6.99, 52.22 ], [ 6.97, 52.18 ], [ 6.95, 52.17 ], [ 6.91, 52.16 ], [ 6.89, 52.15 ], [ 6.87, 52.12 ], [ 6.85, 52.12 ], [ 6.8, 52.12 ], [ 6.77, 52.12 ], [ 6.76, 52.11 ], [ 6.76, 52.09 ], [ 6.74, 52.07 ], [ 6.7, 52.06 ], [ 6.69, 52.05 ], [ 6.7, 52.04 ], [ 6.74, 52.04 ], [ 6.79, 52.01 ], [ 6.83, 51.99 ], [ 6.83, 51.97 ], [ 6.83, 51.96 ], [ 6.8, 51.95 ], [ 6.79, 51.93 ], [ 6.75, 51.91 ], [ 6.73, 51.9 ], [ 6.7, 51.91 ], [ 6.69, 51.91 ], [ 6.64, 51.9 ], [ 6.57, 51.89 ], [ 6.53, 51.88 ], [ 6.49, 51.86 ], [ 6.48, 51.86 ], [ 6.47, 51.86 ], [ 6.44, 51.86 ], [ 6.43, 51.86 ], [ 6.41, 51.86 ], [ 6.4, 51.86 ], [ 6.39, 51.86 ], [ 6.4, 51.85 ], [ 6.41, 51.84 ], [ 6.43, 51.84 ], [ 6.46, 51.83 ], [ 6.49, 51.82 ], [ 6.54, 51.81 ], [ 6.55, 51.8 ], [ 6.56, 51.8 ], [ 6.59, 51.78 ], [ 6.62, 51.76 ], [ 6.64, 51.75 ], [ 6.64, 51.74 ], [ 6.65, 51.74 ], [ 6.67, 51.74 ], [ 6.68, 51.75 ], [ 6.7, 51.76 ], [ 6.74, 51.76 ], [ 6.75, 51.77 ], [ 6.77, 51.78 ], [ 6.78, 51.78 ], [ 6.79, 51.77 ], [ 6.8, 51.76 ], [ 6.81, 51.75 ], [ 6.83, 51.75 ], [ 6.85, 51.75 ], [ 6.86, 51.75 ], [ 6.87, 51.75 ], [ 6.88, 51.74 ], [ 6.88, 51.71 ], [ 6.88, 51.69 ], [ 6.89, 51.68 ], [ 6.92, 51.67 ], [ 6.94, 51.66 ], [ 6.93, 51.64 ], [ 6.9, 51.64 ], [ 6.88, 51.64 ], [ 6.88, 51.63 ], [ 6.86, 51.62 ], [ 6.87, 51.6 ], [ 6.86, 51.59 ], [ 6.86, 51.58 ], [ 6.89, 51.56 ], [ 6.89, 51.55 ], [ 6.89, 51.54 ], [ 6.88, 51.52 ], [ 6.88, 51.51 ], [ 6.86, 51.5 ], [ 6.91, 51.5 ], [ 6.94, 51.51 ], [ 6.97, 51.52 ], [ 6.99, 51.52 ], [ 7.0, 51.52 ], [ 7.01, 51.53 ], [ 7.02, 51.53 ], [ 7.03, 51.52 ], [ 7.06, 51.51 ], [ 7.09, 51.51 ], [ 7.11, 51.5 ], [ 7.12, 51.5 ], [ 7.13, 51.5 ], [ 7.13, 51.48 ], [ 7.13, 51.46 ], [ 7.15, 51.45 ], [ 7.13, 51.44 ], [ 7.12, 51.43 ], [ 7.13, 51.41 ], [ 7.15, 51.4 ], [ 7.14, 51.38 ], [ 7.15, 51.38 ], [ 7.16, 51.37 ], [ 7.16, 51.35 ], [ 7.17, 51.34 ], [ 7.18, 51.33 ], [ 7.19, 51.33 ], [ 7.19, 51.32 ], [ 7.2, 51.31 ], [ 7.2, 51.3 ], [ 7.2, 51.29 ], [ 7.22, 51.29 ], [ 7.25, 51.28 ], [ 7.26, 51.28 ], [ 7.26, 51.27 ], [ 7.26, 51.26 ], [ 7.27, 51.26 ], [ 7.28, 51.26 ], [ 7.29, 51.26 ], [ 7.32, 51.25 ], [ 7.34, 51.25 ], [ 7.35, 51.25 ], [ 7.36, 51.25 ], [ 7.38, 51.24 ], [ 7.39, 51.24 ], [ 7.39, 51.25 ], [ 7.41, 51.26 ], [ 7.44, 51.25 ], [ 7.45, 51.25 ], [ 7.45, 51.24 ], [ 7.46, 51.23 ], [ 7.47, 51.22 ], [ 7.45, 51.2 ], [ 7.45, 51.19 ], [ 7.46, 51.18 ], [ 7.47, 51.17 ], [ 7.48, 51.16 ], [ 7.49, 51.16 ], [ 7.51, 51.14 ], [ 7.53, 51.13 ], [ 7.53, 51.12 ], [ 7.52, 51.11 ], [ 7.53, 51.11 ], [ 7.53, 51.1 ], [ 7.54, 51.1 ], [ 7.55, 51.11 ], [ 7.56, 51.11 ], [ 7.6, 51.11 ], [ 7.62, 51.11 ], [ 7.63, 51.11 ], [ 7.63, 51.09 ], [ 7.65, 51.08 ], [ 7.66, 51.08 ], [ 7.68, 51.08 ], [ 7.71, 51.09 ], [ 7.73, 51.08 ], [ 7.74, 51.07 ], [ 7.76, 51.05 ], [ 7.76, 51.03 ], [ 7.76, 51.01 ], [ 7.76, 51.0 ], [ 7.78, 50.99 ], [ 7.8, 50.98 ], [ 7.81, 50.98 ], [ 7.81, 50.96 ], [ 7.81, 50.95 ], [ 7.82, 50.94 ], [ 7.84, 50.93 ], [ 7.85, 50.93 ], [ 7.83, 50.91 ], [ 7.83, 50.9 ], [ 7.83, 50.89 ], [ 7.84, 50.88 ], [ 7.87, 50.88 ], [ 7.88, 50.88 ], [ 7.89, 50.88 ], [ 7.9, 50.86 ], [ 7.91, 50.85 ], [ 7.92, 50.85 ], [ 7.94, 50.85 ], [ 7.97, 50.84 ], [ 7.97, 50.83 ], [ 7.98, 50.82 ], [ 7.97, 50.8 ], [ 7.98, 50.78 ], [ 7.99, 50.76 ], [ 8.04, 50.74 ], [ 8.04, 50.72 ], [ 8.04, 50.71 ], [ 8.05, 50.7 ], [ 8.06, 50.7 ], [ 8.08, 50.71 ], [ 8.11, 50.7 ], [ 8.12, 50.69 ], [ 8.13, 50.69 ], [ 8.15, 50.7 ], [ 8.16, 50.74 ], [ 8.16, 50.75 ], [ 8.14, 50.77 ], [ 8.14, 50.78 ], [ 8.14, 50.79 ], [ 8.16, 50.8 ], [ 8.18, 50.83 ], [ 8.22, 50.85 ], [ 8.25, 50.87 ], [ 8.27, 50.88 ], [ 8.29, 50.88 ] ], [ [ 8.4, 51.72 ], [ 8.4, 51.71 ], [ 8.4, 51.7 ], [ 8.41, 51.7 ], [ 8.4, 51.69 ], [ 8.39, 51.68 ], [ 8.38, 51.68 ], [ 8.37, 51.69 ], [ 8.37, 51.7 ], [ 8.38, 51.7 ], [ 8.38, 51.72 ], [ 8.4, 51.72 ] ], [ [ 8.3, 51.69 ], [ 8.32, 51.7 ], [ 8.32, 51.68 ], [ 8.32, 51.67 ], [ 8.3, 51.67 ], [ 8.3, 51.68 ], [ 8.3, 51.69 ] ], [ [ 8.95, 51.8 ], [ 8.96, 51.81 ], [ 8.98, 51.81 ], [ 8.99, 51.8 ], [ 9.01, 51.8 ], [ 9.01, 51.79 ], [ 8.98, 51.79 ], [ 8.97, 51.78 ], [ 8.95, 51.8 ] ] ], [ [ [ 9.27, 51.93 ], [ 9.28, 51.94 ], [ 9.27, 51.95 ], [ 9.28, 51.96 ], [ 9.28, 51.97 ], [ 9.27, 51.97 ], [ 9.21, 51.97 ], [ 9.2, 51.96 ], [ 9.18, 51.96 ], [ 9.18, 51.95 ], [ 9.2, 51.94 ], [ 9.19, 51.92 ], [ 9.2, 51.91 ], [ 9.22, 51.91 ], [ 9.24, 51.91 ], [ 9.25, 51.92 ], [ 9.27, 51.93 ] ] ] ] } }
]
}
