{
"type": "FeatureCollection",
"name": "PRU_HOH_1914",
"crs": { "type": "name", "properties": { "name": "urn:ogc:def:crs:OGC:1.3:CRS84" } },
"features": [
{ "type": "Feature", "properties": { "name": "Hohenzollern" }, "geometry": { "type": "MultiPolygon", "coordinates": [ [ [ [ 9.14, 48.37 ], [ 9.15, 48.37 ], [ 9.16, 48.37 ], [ 9.18, 48.36 ], [ 9.18, 48.35 ], [ 9.17, 48.35 ], [ 9.17, 48.34 ], [ 9.18, 48.34 ], [ 9.19, 48.34 ], [ 9.21, 48.33 ], [ 9.22, 48.33 ], [ 9.24, 48.34 ], [ 9.25, 48.35 ], [ 9.26, 48.36 ], [ 9.27, 48.36 ], [ 9.29, 48.35 ], [ 9.29, 48.34 ], [ 9.3, 48.33 ], [ 9.31, 48.33 ], [ 9.31, 48.32 ], [ 9.31, 48.31 ], [ 9.32, 48.31 ], [ 9.32, 48.3 ], [ 9.33, 48.3 ], [ 9.33, 48.29 ], [ 9.32, 48.29 ], [ 9.3, 48.28 ], [ 9.3, 48.27 ], [ 9.31, 48.26 ], [ 9.32, 48.26 ], [ 9.33, 48.25 ], [ 9.34, 48.25 ], [ 9.35, 48.24 ], [ 9.35, 48.23 ], [ 9.34, 48.23 ], [ 9.34, 48.22 ], [ 9.33, 48.22 ], [ 9.32, 48.22 ], [ 9.31, 48.22 ], [ 9.32, 48.21 ], [ 9.32, 48.2 ], [ 9.32, 48.19 ], [ 9.32, 48.18 ], [ 9.31, 48.17 ], [ 9.3, 48.16 ], [ 9.29, 48.16 ], [ 9.28, 48.16 ], [ 9.27, 48.15 ], [ 9.28, 48.14 ], [ 9.29, 48.14 ], [ 9.3, 48.14 ], [ 9.31, 48.13 ], [ 9.32, 48.13 ], [ 9.32, 48.12 ], [ 9.33, 48.11 ], [ 9.33, 48.1 ], [ 9.32, 48.09 ], [ 9.29, 48.09 ], [ 9.3, 48.08 ], [ 9.3, 48.06 ], [ 9.28, 48.06 ], [ 9.28, 48.04 ], [ 9.29, 48.04 ], [ 9.31, 48.03 ], [ 9.31, 48.02 ], [ 9.32, 48.01 ], [ 9.33, 48.02 ], [ 9.34, 48.02 ], [ 9.35, 48.01 ], [ 9.34, 48.01 ], [ 9.35, 48.0 ], [ 9.36, 48.0 ], [ 9.38, 47.99 ], [ 9.37, 47.98 ], [ 9.36, 47.98 ], [ 9.35, 47.98 ], [ 9.34, 47.97 ], [ 9.35, 47.97 ], [ 9.35, 47.96 ], [ 9.37, 47.96 ], [ 9.38, 47.96 ], [ 9.39, 47.96 ], [ 9.39, 47.97 ], [ 9.39, 47.98 ], [ 9.4, 47.98 ], [ 9.41, 47.98 ], [ 9.42, 47.99 ], [ 9.43, 47.99 ], [ 9.44, 47.99 ], [ 9.45, 47.98 ], [ 9.46, 47.97 ], [ 9.46, 47.96 ], [ 9.45, 47.96 ], [ 9.44, 47.96 ], [ 9.43, 47.96 ], [ 9.41, 47.95 ], [ 9.41, 47.94 ], [ 9.4, 47.94 ], [ 9.39, 47.94 ], [ 9.39, 47.93 ], [ 9.38, 47.93 ], [ 9.37, 47.94 ], [ 9.37, 47.93 ], [ 9.37, 47.92 ], [ 9.36, 47.92 ], [ 9.35, 47.92 ], [ 9.34, 47.92 ], [ 9.33, 47.93 ], [ 9.31, 47.93 ], [ 9.29, 47.93 ], [ 9.29, 47.94 ], [ 9.29, 47.95 ], [ 9.28, 47.95 ], [ 9.28, 47.96 ], [ 9.28, 47.97 ], [ 9.26, 47.97 ], [ 9.26, 47.98 ], [ 9.25, 47.98 ], [ 9.25, 47.97 ], [ 9.25, 47.96 ], [ 9.25, 47.95 ], [ 9.24, 47.94 ], [ 9.23, 47.94 ], [ 9.22, 47.93 ], [ 9.22, 47.92 ], [ 9.21, 47.91 ], [ 9.2, 47.91 ], [ 9.19, 47.91 ], [ 9.19, 47.9 ], [ 9.18, 47.89 ], [ 9.17, 47.88 ], [ 9.16, 47.88 ], [ 9.15, 47.87 ], [ 9.16, 47.86 ], [ 9.17, 47.85 ], [ 9.18, 47.84 ], [ 9.16, 47.84 ], [ 9.15, 47.83 ], [ 9.15, 47.84 ], [ 9.14, 47.84 ], [ 9.13, 47.85 ], [ 9.12, 47.85 ], [ 9.11, 47.85 ], [ 9.11, 47.86 ], [ 9.1, 47.87 ], [ 9.09, 47.87 ], [ 9.07, 47.87 ], [ 9.06, 47.88 ], [ 9.06, 47.89 ], [ 9.07, 47.89 ], [ 9.07, 47.9 ], [ 9.07, 47.91 ], [ 9.1, 47.91 ], [ 9.11, 47.91 ], [ 9.11, 47.9 ], [ 9.12, 47.9 ], [ 9.13, 47.89 ], [ 9.15, 47.9 ], [ 9.15, 47.91 ], [ 9.14, 47.91 ], [ 9.14, 47.92 ], [ 9.15, 47.93 ], [ 9.15, 47.94 ], [ 9.14, 47.95 ], [ 9.15, 47.96 ], [ 9.15, 47.98 ], [ 9.15, 47.99 ], [ 9.16, 47.99 ], [ 9.17, 48.0 ], [ 9.18, 48.0 ], [ 9.19, 47.99 ], [ 9.2, 47.98 ], [ 9.21, 47.97 ], [ 9.22, 47.98 ], [ 9.22, 47.99 ], [ 9.22, 48.0 ], [ 9.22, 48.01 ], [ 9.22, 48.02 ], [ 9.21, 48.02 ], [ 9.21, 48.03 ], [ 9.19, 48.03 ], [ 9.18, 48.03 ], [ 9.16, 48.03 ], [ 9.15, 48.04 ], [ 9.14, 48.05 ], [ 9.13, 48.04 ], [ 9.12, 48.05 ], [ 9.13, 48.06 ], [ 9.14, 48.08 ], [ 9.14, 48.09 ], [ 9.12, 48.1 ], [ 9.13, 48.1 ], [ 9.13, 48.11 ], [ 9.13, 48.12 ], [ 9.12, 48.12 ], [ 9.12, 48.13 ], [ 9.11, 48.13 ], [ 9.09, 48.13 ], [ 9.08, 48.13 ], [ 9.06, 48.13 ], [ 9.04, 48.14 ], [ 9.03, 48.14 ], [ 9.02, 48.15 ], [ 9.04, 48.16 ], [ 9.06, 48.17 ], [ 9.07, 48.18 ], [ 9.08, 48.19 ], [ 9.07, 48.2 ], [ 9.07, 48.21 ], [ 9.08, 48.21 ], [ 9.09, 48.21 ], [ 9.09, 48.2 ], [ 9.11, 48.2 ], [ 9.11, 48.18 ], [ 9.11, 48.17 ], [ 9.12, 48.16 ], [ 9.13, 48.15 ], [ 9.14, 48.16 ], [ 9.14, 48.17 ], [ 9.15, 48.18 ], [ 9.14, 48.18 ], [ 9.14, 48.19 ], [ 9.14, 48.2 ], [ 9.12, 48.21 ], [ 9.12, 48.22 ], [ 9.12, 48.23 ], [ 9.12, 48.24 ], [ 9.11, 48.24 ], [ 9.11, 48.25 ], [ 9.1, 48.25 ], [ 9.09, 48.25 ], [ 9.08, 48.26 ], [ 9.07, 48.26 ], [ 9.06, 48.27 ], [ 9.05, 48.28 ], [ 9.04, 48.29 ], [ 9.04, 48.3 ], [ 9.03, 48.3 ], [ 9.02, 48.3 ], [ 9.0, 48.3 ], [ 8.99, 48.31 ], [ 8.98, 48.31 ], [ 8.98, 48.3 ], [ 8.97, 48.29 ], [ 8.96, 48.29 ], [ 8.97, 48.28 ], [ 8.95, 48.27 ], [ 8.95, 48.28 ], [ 8.93, 48.28 ], [ 8.92, 48.28 ], [ 8.91, 48.28 ], [ 8.9, 48.29 ], [ 8.89, 48.3 ], [ 8.87, 48.31 ], [ 8.87, 48.32 ], [ 8.85, 48.32 ], [ 8.84, 48.31 ], [ 8.82, 48.31 ], [ 8.81, 48.31 ], [ 8.81, 48.32 ], [ 8.79, 48.31 ], [ 8.78, 48.32 ], [ 8.77, 48.32 ], [ 8.76, 48.32 ], [ 8.75, 48.32 ], [ 8.73, 48.3 ], [ 8.73, 48.31 ], [ 8.72, 48.31 ], [ 8.71, 48.32 ], [ 8.7, 48.32 ], [ 8.72, 48.33 ], [ 8.73, 48.33 ], [ 8.74, 48.34 ], [ 8.75, 48.34 ], [ 8.75, 48.35 ], [ 8.74, 48.36 ], [ 8.74, 48.37 ], [ 8.73, 48.37 ], [ 8.71, 48.37 ], [ 8.7, 48.38 ], [ 8.68, 48.37 ], [ 8.67, 48.38 ], [ 8.66, 48.38 ], [ 8.66, 48.39 ], [ 8.64, 48.38 ], [ 8.63, 48.37 ], [ 8.62, 48.37 ], [ 8.6, 48.37 ], [ 8.6, 48.38 ], [ 8.6, 48.39 ], [ 8.61, 48.39 ], [ 8.6, 48.4 ], [ 8.59, 48.4 ], [ 8.58, 48.4 ], [ 8.58, 48.41 ], [ 8.58, 48.42 ], [ 8.57, 48.42 ], [ 8.56, 48.43 ], [ 8.55, 48.43 ], [ 8.55, 48.44 ], [ 8.57, 48.44 ], [ 8.58, 48.44 ], [ 8.58, 48.43 ], [ 8.59, 48.43 ], [ 8.6, 48.43 ], [ 8.61, 48.42 ], [ 8.62, 48.43 ], [ 8.64, 48.43 ], [ 8.65, 48.42 ], [ 8.66, 48.42 ], [ 8.67, 48.42 ], [ 8.68, 48.41 ], [ 8.69, 48.41 ], [ 8.7, 48.41 ], [ 8.71, 48.41 ], [ 8.73, 48.42 ], [ 8.74, 48.42 ], [ 8.74, 48.41 ], [ 8.74, 48.4 ], [ 8.74, 48.38 ], [ 8.76, 48.38 ], [ 8.76, 48.39 ], [ 8.77, 48.41 ], [ 8.79, 48.41 ], [ 8.8, 48.41 ], [ 8.81, 48.4 ], [ 8.83, 48.4 ], [ 8.84, 48.4 ], [ 8.86, 48.41 ], [ 8.87, 48.41 ], [ 8.88, 48.41 ], [ 8.87, 48.4 ], [ 8.88, 48.39 ], [ 8.89, 48.39 ], [ 8.9, 48.39 ], [ 8.91, 48.39 ], [ 8.92, 48.39 ], [ 8.94, 48.38 ], [ 8.95, 48.38 ], [ 8.96, 48.38 ], [ 8.97, 48.38 ], [ 8.99, 48.38 ], [ 9.0, 48.38 ], [ 9.01, 48.37 ], [ 9.02, 48.37 ], [ 9.04, 48.37 ], [ 9.05, 48.37 ], [ 9.06, 48.37 ], [ 9.07, 48.36 ], [ 9.08, 48.36 ], [ 9.09, 48.36 ], [ 9.1, 48.36 ], [ 9.11, 48.37 ], [ 9.12, 48.37 ], [ 9.13, 48.37 ], [ 9.14, 48.37 ] ], [ [ 9.4, 48.16 ], [ 9.4, 48.14 ], [ 9.4, 48.13 ], [ 9.4, 48.12 ], [ 9.39, 48.11 ], [ 9.38, 48.12 ], [ 9.38, 48.13 ], [ 9.37, 48.14 ], [ 9.36, 48.15 ], [ 9.34, 48.14 ], [ 9.34, 48.13 ], [ 9.33, 48.13 ], [ 9.32, 48.14 ], [ 9.31, 48.15 ], [ 9.32, 48.16 ], [ 9.34, 48.16 ], [ 9.34, 48.15 ], [ 9.35, 48.15 ], [ 9.36, 48.16 ], [ 9.38, 48.16 ], [ 9.39, 48.17 ], [ 9.4, 48.16 ] ], [ [ 9.11, 48.08 ], [ 9.09, 48.07 ], [ 9.08, 48.08 ], [ 9.08, 48.09 ], [ 9.1, 48.09 ], [ 9.1, 48.1 ], [ 9.11, 48.1 ], [ 9.12, 48.09 ], [ 9.11, 48.08 ] ], [ [ 9.07, 48.0 ], [ 9.05, 48.0 ], [ 9.04, 48.0 ], [ 9.03, 48.0 ], [ 9.02, 48.0 ], [ 9.02, 48.02 ], [ 9.04, 48.02 ], [ 9.05, 48.02 ], [ 9.06, 48.02 ], [ 9.07, 48.02 ], [ 9.07, 48.01 ], [ 9.07, 48.0 ] ], [ [ 9.15, 48.0 ], [ 9.13, 48.0 ], [ 9.13, 48.01 ], [ 9.14, 48.02 ], [ 9.15, 48.02 ], [ 9.15, 48.0 ] ], [ [ 8.74, 48.14 ], [ 8.72, 48.14 ], [ 8.72, 48.15 ], [ 8.73, 48.16 ], [ 8.74, 48.16 ], [ 8.75, 48.16 ], [ 8.76, 48.15 ], [ 8.75, 48.14 ], [ 8.74, 48.14 ] ], [ [ 9.75, 47.61 ], [ 9.74, 47.6 ], [ 9.71, 47.6 ], [ 9.7, 47.6 ], [ 9.7, 47.62 ], [ 9.71, 47.63 ], [ 9.73, 47.63 ], [ 9.75, 47.64 ], [ 9.75, 47.63 ], [ 9.76, 47.62 ], [ 9.75, 47.61 ] ], [ [ 8.94, 48.1 ], [ 8.94, 48.09 ], [ 8.95, 48.08 ], [ 8.95, 48.07 ], [ 8.95, 48.06 ], [ 8.95, 48.05 ], [ 8.96, 48.05 ], [ 8.97, 48.05 ], [ 8.99, 48.05 ], [ 8.99, 48.04 ], [ 9.0, 48.03 ], [ 8.98, 48.03 ], [ 8.97, 48.03 ], [ 8.96, 48.03 ], [ 8.95, 48.04 ], [ 8.94, 48.04 ], [ 8.94, 48.05 ], [ 8.93, 48.05 ], [ 8.92, 48.06 ], [ 8.92, 48.07 ], [ 8.92, 48.08 ], [ 8.91, 48.08 ], [ 8.9, 48.1 ], [ 8.92, 48.1 ], [ 8.93, 48.1 ], [ 8.94, 48.1 ] ], [ [ 9.25, 47.9 ], [ 9.24, 47.9 ], [ 9.23, 47.91 ], [ 9.24, 47.91 ], [ 9.25, 47.9 ] ], [ [ 9.2, 47.88 ], [ 9.19, 47.88 ], [ 9.18, 47.88 ], [ 9.2, 47.89 ], [ 9.2, 47.88 ] ] ], [ [ [ 9.45, 47.97 ], [ 9.44, 47.97 ], [ 9.43, 47.97 ], [ 9.44, 47.96 ], [ 9.45, 47.97 ] ] ], [ [ [ 9.19, 48.25 ], [ 9.2, 48.25 ], [ 9.22, 48.25 ], [ 9.22, 48.26 ], [ 9.23, 48.26 ], [ 9.25, 48.26 ], [ 9.26, 48.27 ], [ 9.27, 48.27 ], [ 9.27, 48.28 ], [ 9.26, 48.29 ], [ 9.24, 48.29 ], [ 9.23, 48.3 ], [ 9.22, 48.3 ], [ 9.2, 48.31 ], [ 9.19, 48.3 ], [ 9.17, 48.31 ], [ 9.17, 48.3 ], [ 9.18, 48.3 ], [ 9.19, 48.28 ], [ 9.19, 48.27 ], [ 9.19, 48.26 ], [ 9.19, 48.25 ] ] ] ] } }
]
}
