{
"type": "FeatureCollection",
"name": "PRU_OST_1914",
"crs": { "type": "name", "properties": { "name": "urn:ogc:def:crs:OGC:1.3:CRS84" } },
"features": [
{ "type": "Feature", "properties": { "name": "Ostpreußen" }, "geometry": { "type": "MultiPolygon", "coordinates": [ [ [ [ 19.75, 54.43 ], [ 19.76, 54.42 ], [ 19.76, 54.41 ], [ 19.75, 54.41 ], [ 19.74, 54.41 ], [ 19.73, 54.4 ], [ 19.72, 54.39 ], [ 19.72, 54.38 ], [ 19.71, 54.38 ], [ 19.7, 54.38 ], [ 19.69, 54.37 ], [ 19.67, 54.36 ], [ 19.66, 54.35 ], [ 19.65, 54.35 ], [ 19.63, 54.34 ], [ 19.64, 54.33 ], [ 19.63, 54.3 ], [ 19.65, 54.29 ], [ 19.65, 54.26 ], [ 19.62, 54.25 ], [ 19.61, 54.25 ], [ 19.6, 54.23 ], [ 19.62, 54.23 ], [ 19.61, 54.2 ], [ 19.58, 54.21 ], [ 19.58, 54.2 ], [ 19.59, 54.17 ], [ 19.61, 54.17 ], [ 19.63, 54.17 ], [ 19.64, 54.16 ], [ 19.65, 54.15 ], [ 19.61, 54.14 ], [ 19.6, 54.15 ], [ 19.56, 54.14 ], [ 19.57, 54.13 ], [ 19.59, 54.12 ], [ 19.59, 54.11 ], [ 19.59, 54.09 ], [ 19.52, 54.09 ], [ 19.48, 54.09 ], [ 19.46, 54.07 ], [ 19.45, 54.04 ], [ 19.43, 54.02 ], [ 19.43, 54.01 ], [ 19.39, 53.99 ], [ 19.38, 53.98 ], [ 19.37, 53.96 ], [ 19.37, 53.94 ], [ 19.37, 53.91 ], [ 19.35, 53.91 ], [ 19.34, 53.9 ], [ 19.36, 53.88 ], [ 19.35, 53.87 ], [ 19.33, 53.87 ], [ 19.32, 53.86 ], [ 19.32, 53.85 ], [ 19.34, 53.85 ], [ 19.32, 53.82 ], [ 19.34, 53.81 ], [ 19.36, 53.81 ], [ 19.38, 53.81 ], [ 19.45, 53.8 ], [ 19.46, 53.79 ], [ 19.5, 53.77 ], [ 19.53, 53.74 ], [ 19.54, 53.71 ], [ 19.57, 53.69 ], [ 19.59, 53.69 ], [ 19.61, 53.67 ], [ 19.63, 53.68 ], [ 19.65, 53.68 ], [ 19.65, 53.69 ], [ 19.65, 53.7 ], [ 19.65, 53.72 ], [ 19.69, 53.71 ], [ 19.7, 53.71 ], [ 19.71, 53.7 ], [ 19.72, 53.7 ], [ 19.74, 53.69 ], [ 19.77, 53.68 ], [ 19.79, 53.69 ], [ 19.81, 53.67 ], [ 19.75, 53.62 ], [ 19.82, 53.61 ], [ 19.82, 53.59 ], [ 19.89, 53.56 ], [ 19.9, 53.56 ], [ 19.89, 53.54 ], [ 19.87, 53.53 ], [ 19.86, 53.51 ], [ 19.88, 53.5 ], [ 19.92, 53.48 ], [ 19.99, 53.41 ], [ 19.99, 53.38 ], [ 19.96, 53.38 ], [ 19.96, 53.34 ], [ 19.93, 53.34 ], [ 19.91, 53.34 ], [ 19.89, 53.33 ], [ 19.91, 53.3 ], [ 19.94, 53.25 ], [ 19.92, 53.25 ], [ 19.92, 53.23 ], [ 19.99, 53.2 ], [ 20.01, 53.21 ], [ 20.03, 53.21 ], [ 20.09, 53.2 ], [ 20.13, 53.18 ], [ 20.15, 53.16 ], [ 20.17, 53.15 ], [ 20.23, 53.15 ], [ 20.29, 53.13 ], [ 20.34, 53.15 ], [ 20.38, 53.18 ], [ 20.42, 53.21 ], [ 20.44, 53.23 ], [ 20.47, 53.25 ], [ 20.53, 53.34 ], [ 20.54, 53.35 ], [ 20.58, 53.34 ], [ 20.65, 53.32 ], [ 20.68, 53.32 ], [ 20.71, 53.33 ], [ 20.73, 53.33 ], [ 20.77, 53.31 ], [ 20.8, 53.31 ], [ 20.84, 53.3 ], [ 20.87, 53.28 ], [ 20.88, 53.27 ], [ 21.02, 53.31 ], [ 21.05, 53.33 ], [ 21.13, 53.36 ], [ 21.15, 53.38 ], [ 21.25, 53.42 ], [ 21.33, 53.44 ], [ 21.43, 53.46 ], [ 21.47, 53.47 ], [ 21.53, 53.48 ], [ 21.6, 53.48 ], [ 21.65, 53.48 ], [ 21.67, 53.49 ], [ 21.69, 53.49 ], [ 21.72, 53.49 ], [ 21.79, 53.48 ], [ 21.85, 53.46 ], [ 21.89, 53.46 ], [ 21.92, 53.5 ], [ 21.94, 53.51 ], [ 21.97, 53.51 ], [ 21.99, 53.52 ], [ 22.01, 53.52 ], [ 22.02, 53.5 ], [ 22.04, 53.5 ], [ 22.06, 53.53 ], [ 22.09, 53.54 ], [ 22.11, 53.54 ], [ 22.23, 53.58 ], [ 22.29, 53.62 ], [ 22.34, 53.64 ], [ 22.37, 53.66 ], [ 22.4, 53.67 ], [ 22.43, 53.69 ], [ 22.47, 53.7 ], [ 22.48, 53.7 ], [ 22.5, 53.7 ], [ 22.51, 53.7 ], [ 22.53, 53.7 ], [ 22.59, 53.73 ], [ 22.6, 53.72 ], [ 22.61, 53.72 ], [ 22.62, 53.74 ], [ 22.7, 53.76 ], [ 22.73, 53.8 ], [ 22.73, 53.82 ], [ 22.73, 53.83 ], [ 22.78, 53.86 ], [ 22.79, 53.88 ], [ 22.78, 53.92 ], [ 22.75, 53.94 ], [ 22.72, 53.95 ], [ 22.71, 53.97 ], [ 22.7, 53.97 ], [ 22.69, 54.0 ], [ 22.68, 54.01 ], [ 22.67, 54.03 ], [ 22.62, 54.05 ], [ 22.6, 54.05 ], [ 22.6, 54.06 ], [ 22.6, 54.07 ], [ 22.61, 54.08 ], [ 22.63, 54.09 ], [ 22.64, 54.1 ], [ 22.64, 54.11 ], [ 22.62, 54.11 ], [ 22.59, 54.14 ], [ 22.59, 54.18 ], [ 22.57, 54.2 ], [ 22.55, 54.21 ], [ 22.53, 54.23 ], [ 22.53, 54.25 ], [ 22.54, 54.27 ], [ 22.57, 54.27 ], [ 22.6, 54.26 ], [ 22.62, 54.26 ], [ 22.65, 54.29 ], [ 22.69, 54.28 ], [ 22.73, 54.28 ], [ 22.75, 54.29 ], [ 22.77, 54.31 ], [ 22.78, 54.33 ], [ 22.79, 54.33 ], [ 22.81, 54.34 ], [ 22.78, 54.38 ], [ 22.77, 54.39 ], [ 22.74, 54.45 ], [ 22.72, 54.45 ], [ 22.71, 54.45 ], [ 22.71, 54.46 ], [ 22.7, 54.51 ], [ 22.69, 54.52 ], [ 22.69, 54.53 ], [ 22.72, 54.56 ], [ 22.69, 54.58 ], [ 22.71, 54.6 ], [ 22.73, 54.6 ], [ 22.74, 54.62 ], [ 22.75, 54.63 ], [ 22.76, 54.65 ], [ 22.76, 54.66 ], [ 22.74, 54.67 ], [ 22.74, 54.68 ], [ 22.74, 54.7 ], [ 22.75, 54.71 ], [ 22.75, 54.73 ], [ 22.78, 54.74 ], [ 22.78, 54.75 ], [ 22.8, 54.76 ], [ 22.81, 54.75 ], [ 22.82, 54.76 ], [ 22.81, 54.76 ], [ 22.82, 54.77 ], [ 22.83, 54.76 ], [ 22.85, 54.77 ], [ 22.86, 54.78 ], [ 22.88, 54.79 ], [ 22.87, 54.79 ], [ 22.89, 54.82 ], [ 22.88, 54.84 ], [ 22.87, 54.84 ], [ 22.87, 54.85 ], [ 22.85, 54.86 ], [ 22.84, 54.87 ], [ 22.85, 54.89 ], [ 22.82, 54.91 ], [ 22.8, 54.9 ], [ 22.79, 54.91 ], [ 22.8, 54.91 ], [ 22.78, 54.93 ], [ 22.76, 54.92 ], [ 22.75, 54.93 ], [ 22.77, 54.94 ], [ 22.75, 54.94 ], [ 22.73, 54.95 ], [ 22.73, 54.96 ], [ 22.71, 54.97 ], [ 22.7, 54.97 ], [ 22.69, 54.98 ], [ 22.68, 54.99 ], [ 22.67, 54.99 ], [ 22.67, 54.97 ], [ 22.65, 54.97 ], [ 22.63, 55.0 ], [ 22.64, 55.01 ], [ 22.62, 55.02 ], [ 22.61, 55.04 ], [ 22.6, 55.07 ], [ 22.62, 55.09 ], [ 22.6, 55.1 ], [ 22.6, 55.12 ], [ 22.57, 55.13 ], [ 22.56, 55.14 ], [ 22.48, 55.14 ], [ 22.42, 55.14 ], [ 22.35, 55.15 ], [ 22.25, 55.16 ], [ 22.24, 55.16 ], [ 22.2, 55.16 ], [ 22.19, 55.18 ], [ 22.2, 55.19 ], [ 22.2, 55.2 ], [ 22.22, 55.21 ], [ 22.19, 55.23 ], [ 22.13, 55.23 ], [ 22.08, 55.23 ], [ 22.03, 55.25 ], [ 21.94, 55.27 ], [ 21.92, 55.28 ], [ 21.87, 55.29 ], [ 21.88, 55.3 ], [ 21.88, 55.31 ], [ 21.86, 55.33 ], [ 21.83, 55.33 ], [ 21.83, 55.32 ], [ 21.79, 55.32 ], [ 21.76, 55.31 ], [ 21.77, 55.3 ], [ 21.74, 55.29 ], [ 21.72, 55.3 ], [ 21.71, 55.33 ], [ 21.69, 55.35 ], [ 21.63, 55.37 ], [ 21.6, 55.4 ], [ 21.62, 55.42 ], [ 21.6, 55.44 ], [ 21.58, 55.45 ], [ 21.59, 55.46 ], [ 21.57, 55.47 ], [ 21.57, 55.49 ], [ 21.53, 55.51 ], [ 21.51, 55.53 ], [ 21.51, 55.57 ], [ 21.46, 55.61 ], [ 21.43, 55.67 ], [ 21.39, 55.72 ], [ 21.36, 55.74 ], [ 21.38, 55.75 ], [ 21.38, 55.79 ], [ 21.35, 55.8 ], [ 21.32, 55.83 ], [ 21.28, 55.85 ], [ 21.23, 55.88 ], [ 21.21, 55.86 ], [ 21.17, 55.88 ], [ 21.15, 55.87 ], [ 21.13, 55.89 ], [ 21.07, 55.89 ], [ 21.06, 55.89 ], [ 21.07, 55.88 ], [ 21.07, 55.82 ], [ 21.09, 55.75 ], [ 21.1, 55.74 ], [ 21.1, 55.73 ], [ 21.11, 55.73 ], [ 21.12, 55.72 ], [ 21.14, 55.7 ], [ 21.15, 55.68 ], [ 21.14, 55.69 ], [ 21.13, 55.7 ], [ 21.11, 55.72 ], [ 21.1, 55.72 ], [ 21.11, 55.69 ], [ 21.11, 55.68 ], [ 21.12, 55.62 ], [ 21.11, 55.58 ], [ 21.1, 55.51 ], [ 21.06, 55.43 ], [ 21.01, 55.34 ], [ 20.96, 55.28 ], [ 20.84, 55.18 ], [ 20.78, 55.14 ], [ 20.74, 55.1 ], [ 20.68, 55.06 ], [ 20.59, 55.01 ], [ 20.54, 54.98 ], [ 20.49, 54.96 ], [ 20.42, 54.95 ], [ 20.37, 54.94 ], [ 20.34, 54.94 ], [ 20.33, 54.94 ], [ 20.3, 54.95 ], [ 20.28, 54.97 ], [ 20.27, 54.97 ], [ 20.22, 54.96 ], [ 20.21, 54.96 ], [ 20.16, 54.95 ], [ 20.14, 54.95 ], [ 20.06, 54.95 ], [ 20.04, 54.95 ], [ 20.0, 54.96 ], [ 19.99, 54.96 ], [ 19.97, 54.95 ], [ 19.94, 54.92 ], [ 19.94, 54.89 ], [ 19.94, 54.86 ], [ 19.96, 54.85 ], [ 19.95, 54.83 ], [ 19.95, 54.82 ], [ 19.97, 54.81 ], [ 19.97, 54.77 ], [ 19.95, 54.73 ], [ 19.92, 54.69 ], [ 19.89, 54.65 ], [ 19.88, 54.65 ], [ 19.9, 54.64 ], [ 19.91, 54.64 ], [ 19.92, 54.65 ], [ 19.93, 54.68 ], [ 19.95, 54.7 ], [ 19.98, 54.73 ], [ 20.03, 54.73 ], [ 20.06, 54.72 ], [ 20.07, 54.69 ], [ 20.06, 54.67 ], [ 20.09, 54.66 ], [ 20.12, 54.66 ], [ 20.14, 54.68 ], [ 20.15, 54.68 ], [ 20.16, 54.68 ], [ 20.17, 54.69 ], [ 20.19, 54.7 ], [ 20.21, 54.69 ], [ 20.24, 54.69 ], [ 20.27, 54.69 ], [ 20.29, 54.69 ], [ 20.34, 54.68 ], [ 20.36, 54.68 ], [ 20.37, 54.69 ], [ 20.38, 54.69 ], [ 20.39, 54.68 ], [ 20.42, 54.68 ], [ 20.42, 54.67 ], [ 20.41, 54.67 ], [ 20.4, 54.67 ], [ 20.36, 54.65 ], [ 20.34, 54.65 ], [ 20.34, 54.66 ], [ 20.31, 54.65 ], [ 20.28, 54.63 ], [ 20.25, 54.61 ], [ 20.22, 54.61 ], [ 20.18, 54.6 ], [ 20.16, 54.59 ], [ 20.15, 54.58 ], [ 20.1, 54.56 ], [ 20.09, 54.55 ], [ 20.08, 54.55 ], [ 20.06, 54.55 ], [ 20.05, 54.57 ], [ 20.03, 54.57 ], [ 20.01, 54.58 ], [ 19.99, 54.57 ], [ 19.97, 54.53 ], [ 19.96, 54.52 ], [ 19.95, 54.5 ], [ 19.92, 54.49 ], [ 19.88, 54.48 ], [ 19.86, 54.48 ], [ 19.84, 54.47 ], [ 19.82, 54.46 ], [ 19.81, 54.45 ], [ 19.81, 54.44 ], [ 19.79, 54.43 ], [ 19.78, 54.43 ], [ 19.75, 54.43 ] ], [ [ 21.15, 55.68 ], [ 21.16, 55.67 ], [ 21.17, 55.64 ], [ 21.17, 55.63 ], [ 21.19, 55.59 ], [ 21.21, 55.57 ], [ 21.22, 55.53 ], [ 21.23, 55.52 ], [ 21.24, 55.52 ], [ 21.26, 55.49 ], [ 21.26, 55.48 ], [ 21.27, 55.47 ], [ 21.25, 55.45 ], [ 21.26, 55.42 ], [ 21.24, 55.39 ], [ 21.2, 55.35 ], [ 21.2, 55.34 ], [ 21.23, 55.36 ], [ 21.26, 55.37 ], [ 21.28, 55.37 ], [ 21.29, 55.35 ], [ 21.28, 55.34 ], [ 21.29, 55.33 ], [ 21.3, 55.33 ], [ 21.3, 55.31 ], [ 21.31, 55.31 ], [ 21.31, 55.28 ], [ 21.3, 55.28 ], [ 21.31, 55.27 ], [ 21.32, 55.27 ], [ 21.32, 55.25 ], [ 21.31, 55.24 ], [ 21.3, 55.22 ], [ 21.28, 55.2 ], [ 21.27, 55.2 ], [ 21.26, 55.19 ], [ 21.26, 55.2 ], [ 21.24, 55.2 ], [ 21.24, 55.19 ], [ 21.23, 55.18 ], [ 21.23, 55.19 ], [ 21.22, 55.21 ], [ 21.19, 55.2 ], [ 21.2, 55.16 ], [ 21.21, 55.14 ], [ 21.22, 55.12 ], [ 21.22, 55.11 ], [ 21.22, 55.07 ], [ 21.22, 55.04 ], [ 21.25, 54.98 ], [ 21.26, 54.98 ], [ 21.25, 54.95 ], [ 21.22, 54.92 ], [ 21.17, 54.92 ], [ 21.14, 54.9 ], [ 21.11, 54.91 ], [ 21.1, 54.9 ], [ 21.1, 54.89 ], [ 21.08, 54.89 ], [ 21.06, 54.9 ], [ 21.05, 54.9 ], [ 21.06, 54.89 ], [ 21.04, 54.89 ], [ 21.02, 54.89 ], [ 20.99, 54.89 ], [ 20.94, 54.9 ], [ 20.92, 54.89 ], [ 20.9, 54.91 ], [ 20.88, 54.9 ], [ 20.86, 54.9 ], [ 20.84, 54.92 ], [ 20.81, 54.93 ], [ 20.79, 54.95 ], [ 20.76, 54.94 ], [ 20.73, 54.93 ], [ 20.69, 54.93 ], [ 20.68, 54.94 ], [ 20.65, 54.94 ], [ 20.61, 54.94 ], [ 20.58, 54.94 ], [ 20.56, 54.94 ], [ 20.55, 54.95 ], [ 20.54, 54.96 ], [ 20.53, 54.97 ], [ 20.55, 54.98 ], [ 20.57, 54.98 ], [ 20.58, 54.99 ], [ 20.6, 55.0 ], [ 20.62, 55.01 ], [ 20.65, 55.03 ], [ 20.66, 55.03 ], [ 20.71, 55.06 ], [ 20.76, 55.1 ], [ 20.77, 55.11 ], [ 20.79, 55.12 ], [ 20.84, 55.13 ], [ 20.84, 55.14 ], [ 20.87, 55.15 ], [ 20.86, 55.16 ], [ 20.86, 55.17 ], [ 20.88, 55.19 ], [ 20.91, 55.21 ], [ 20.91, 55.22 ], [ 20.95, 55.24 ], [ 20.95, 55.25 ], [ 20.97, 55.26 ], [ 20.99, 55.26 ], [ 21.0, 55.27 ], [ 20.98, 55.28 ], [ 20.99, 55.28 ], [ 21.01, 55.29 ], [ 21.0, 55.3 ], [ 21.01, 55.3 ], [ 21.02, 55.32 ], [ 21.06, 55.33 ], [ 21.07, 55.33 ], [ 21.06, 55.34 ], [ 21.07, 55.35 ], [ 21.06, 55.35 ], [ 21.06, 55.37 ], [ 21.08, 55.37 ], [ 21.08, 55.38 ], [ 21.08, 55.39 ], [ 21.1, 55.4 ], [ 21.09, 55.41 ], [ 21.11, 55.42 ], [ 21.11, 55.43 ], [ 21.11, 55.44 ], [ 21.09, 55.44 ], [ 21.11, 55.48 ], [ 21.13, 55.49 ], [ 21.12, 55.5 ], [ 21.12, 55.51 ], [ 21.13, 55.51 ], [ 21.13, 55.52 ], [ 21.14, 55.56 ], [ 21.14, 55.6 ], [ 21.15, 55.61 ], [ 21.14, 55.65 ], [ 21.14, 55.66 ], [ 21.14, 55.67 ], [ 21.15, 55.68 ] ] ], [ [ [ 19.7, 54.48 ], [ 19.71, 54.49 ], [ 19.74, 54.5 ], [ 19.76, 54.52 ], [ 19.76, 54.53 ], [ 19.78, 54.53 ], [ 19.77, 54.54 ], [ 19.79, 54.54 ], [ 19.81, 54.56 ], [ 19.85, 54.59 ], [ 19.87, 54.61 ], [ 19.89, 54.63 ], [ 19.88, 54.64 ], [ 19.86, 54.61 ], [ 19.8, 54.56 ], [ 19.73, 54.52 ], [ 19.67, 54.48 ], [ 19.68, 54.47 ], [ 19.7, 54.48 ] ] ] ] } }
]
}
