{
"type": "FeatureCollection",
"name": "PRU_SAC_1914",
"crs": { "type": "name", "properties": { "name": "urn:ogc:def:crs:OGC:1.3:CRS84" } },
"features": [
{ "type": "Feature", "properties": { "name": "Sachsen" }, "geometry": { "type": "MultiPolygon", "coordinates": [ [ [ [ 12.29, 51.09 ], [ 12.29, 51.08 ], [ 12.31, 51.08 ], [ 12.31, 51.07 ], [ 12.31, 51.06 ], [ 12.3, 51.06 ], [ 12.3, 51.04 ], [ 12.29, 51.03 ], [ 12.29, 51.0 ], [ 12.27, 50.99 ], [ 12.26, 50.97 ], [ 12.25, 50.97 ], [ 12.24, 50.94 ], [ 12.23, 50.94 ], [ 12.22, 50.95 ], [ 12.22, 50.96 ], [ 12.21, 50.96 ], [ 12.2, 50.97 ], [ 12.19, 50.97 ], [ 12.17, 50.97 ], [ 12.15, 50.97 ], [ 12.14, 50.97 ], [ 12.1, 50.98 ], [ 12.09, 50.98 ], [ 12.08, 50.98 ], [ 12.05, 50.97 ], [ 12.03, 50.97 ], [ 12.03, 50.96 ], [ 12.03, 50.95 ], [ 12.02, 50.95 ], [ 12.01, 50.95 ], [ 12.0, 50.96 ], [ 11.99, 50.96 ], [ 11.98, 50.96 ], [ 11.96, 50.96 ], [ 11.96, 50.97 ], [ 11.95, 50.97 ], [ 11.95, 50.98 ], [ 11.96, 50.99 ], [ 11.97, 50.99 ], [ 11.97, 51.0 ], [ 11.95, 51.01 ], [ 11.94, 51.03 ], [ 11.93, 51.03 ], [ 11.92, 51.02 ], [ 11.91, 51.01 ], [ 11.9, 51.01 ], [ 11.88, 51.01 ], [ 11.87, 51.01 ], [ 11.86, 51.01 ], [ 11.87, 51.03 ], [ 11.85, 51.04 ], [ 11.84, 51.04 ], [ 11.84, 51.03 ], [ 11.84, 51.02 ], [ 11.83, 51.02 ], [ 11.82, 51.02 ], [ 11.81, 51.03 ], [ 11.81, 51.04 ], [ 11.81, 51.05 ], [ 11.82, 51.05 ], [ 11.85, 51.06 ], [ 11.85, 51.07 ], [ 11.85, 51.08 ], [ 11.84, 51.09 ], [ 11.82, 51.08 ], [ 11.81, 51.08 ], [ 11.8, 51.09 ], [ 11.83, 51.11 ], [ 11.83, 51.13 ], [ 11.83, 51.14 ], [ 11.82, 51.14 ], [ 11.78, 51.13 ], [ 11.76, 51.12 ], [ 11.75, 51.12 ], [ 11.73, 51.12 ], [ 11.72, 51.11 ], [ 11.73, 51.09 ], [ 11.71, 51.09 ], [ 11.7, 51.1 ], [ 11.68, 51.11 ], [ 11.67, 51.12 ], [ 11.64, 51.12 ], [ 11.59, 51.1 ], [ 11.57, 51.1 ], [ 11.56, 51.11 ], [ 11.55, 51.11 ], [ 11.47, 51.11 ], [ 11.46, 51.11 ], [ 11.49, 51.15 ], [ 11.49, 51.16 ], [ 11.48, 51.17 ], [ 11.47, 51.17 ], [ 11.47, 51.19 ], [ 11.4, 51.19 ], [ 11.37, 51.17 ], [ 11.35, 51.17 ], [ 11.34, 51.18 ], [ 11.33, 51.18 ], [ 11.29, 51.17 ], [ 11.27, 51.16 ], [ 11.26, 51.15 ], [ 11.25, 51.15 ], [ 11.23, 51.15 ], [ 11.21, 51.16 ], [ 11.18, 51.15 ], [ 11.17, 51.14 ], [ 11.17, 51.13 ], [ 11.14, 51.13 ], [ 11.09, 51.12 ], [ 11.08, 51.13 ], [ 11.04, 51.14 ], [ 11.0, 51.15 ], [ 11.0, 51.14 ], [ 10.99, 51.13 ], [ 10.99, 51.11 ], [ 10.98, 51.09 ], [ 10.98, 51.08 ], [ 11.0, 51.05 ], [ 11.01, 51.04 ], [ 11.02, 51.03 ], [ 11.04, 51.04 ], [ 11.05, 51.04 ], [ 11.07, 51.01 ], [ 11.08, 51.0 ], [ 11.09, 50.98 ], [ 11.12, 50.98 ], [ 11.13, 50.96 ], [ 11.13, 50.95 ], [ 11.13, 50.94 ], [ 11.13, 50.93 ], [ 11.11, 50.92 ], [ 11.1, 50.92 ], [ 11.11, 50.91 ], [ 11.11, 50.89 ], [ 11.07, 50.88 ], [ 11.02, 50.87 ], [ 11.0, 50.86 ], [ 11.0, 50.87 ], [ 11.0, 50.89 ], [ 11.04, 50.9 ], [ 11.03, 50.9 ], [ 11.01, 50.9 ], [ 10.99, 50.9 ], [ 10.99, 50.91 ], [ 10.99, 50.92 ], [ 11.0, 50.92 ], [ 11.02, 50.92 ], [ 11.03, 50.93 ], [ 11.02, 50.93 ], [ 11.02, 50.94 ], [ 10.99, 50.93 ], [ 10.99, 50.94 ], [ 10.98, 50.94 ], [ 10.97, 50.94 ], [ 10.95, 50.94 ], [ 10.94, 50.94 ], [ 10.91, 50.93 ], [ 10.88, 50.94 ], [ 10.88, 50.96 ], [ 10.83, 50.95 ], [ 10.82, 50.96 ], [ 10.83, 50.99 ], [ 10.8, 50.98 ], [ 10.8, 50.99 ], [ 10.8, 51.0 ], [ 10.83, 51.01 ], [ 10.89, 51.01 ], [ 10.87, 51.03 ], [ 10.87, 51.06 ], [ 10.86, 51.06 ], [ 10.84, 51.06 ], [ 10.84, 51.07 ], [ 10.84, 51.08 ], [ 10.88, 51.1 ], [ 10.88, 51.11 ], [ 10.87, 51.13 ], [ 10.84, 51.13 ], [ 10.82, 51.12 ], [ 10.81, 51.11 ], [ 10.82, 51.1 ], [ 10.81, 51.09 ], [ 10.79, 51.09 ], [ 10.77, 51.09 ], [ 10.76, 51.11 ], [ 10.75, 51.11 ], [ 10.74, 51.11 ], [ 10.69, 51.09 ], [ 10.68, 51.09 ], [ 10.67, 51.08 ], [ 10.66, 51.06 ], [ 10.63, 51.06 ], [ 10.61, 51.05 ], [ 10.6, 51.05 ], [ 10.57, 51.06 ], [ 10.57, 51.07 ], [ 10.53, 51.06 ], [ 10.52, 51.07 ], [ 10.5, 51.08 ], [ 10.46, 51.07 ], [ 10.46, 51.05 ], [ 10.45, 51.05 ], [ 10.41, 51.07 ], [ 10.4, 51.08 ], [ 10.4, 51.09 ], [ 10.39, 51.1 ], [ 10.38, 51.11 ], [ 10.37, 51.11 ], [ 10.37, 51.12 ], [ 10.36, 51.13 ], [ 10.35, 51.13 ], [ 10.33, 51.15 ], [ 10.32, 51.15 ], [ 10.32, 51.13 ], [ 10.32, 51.12 ], [ 10.31, 51.12 ], [ 10.29, 51.11 ], [ 10.23, 51.1 ], [ 10.2, 51.1 ], [ 10.17, 51.1 ], [ 10.18, 51.11 ], [ 10.18, 51.12 ], [ 10.17, 51.12 ], [ 10.16, 51.12 ], [ 10.13, 51.14 ], [ 10.14, 51.15 ], [ 10.16, 51.15 ], [ 10.17, 51.15 ], [ 10.18, 51.14 ], [ 10.19, 51.13 ], [ 10.2, 51.12 ], [ 10.21, 51.12 ], [ 10.21, 51.14 ], [ 10.21, 51.15 ], [ 10.21, 51.16 ], [ 10.22, 51.17 ], [ 10.24, 51.19 ], [ 10.21, 51.19 ], [ 10.19, 51.21 ], [ 10.17, 51.22 ], [ 10.16, 51.21 ], [ 10.15, 51.21 ], [ 10.15, 51.22 ], [ 10.11, 51.22 ], [ 10.08, 51.23 ], [ 10.08, 51.24 ], [ 10.08, 51.25 ], [ 10.06, 51.26 ], [ 10.07, 51.28 ], [ 10.08, 51.29 ], [ 10.09, 51.29 ], [ 10.08, 51.3 ], [ 10.04, 51.31 ], [ 10.03, 51.31 ], [ 10.01, 51.29 ], [ 9.99, 51.29 ], [ 9.98, 51.29 ], [ 9.98, 51.3 ], [ 9.97, 51.3 ], [ 9.95, 51.31 ], [ 9.95, 51.32 ], [ 9.94, 51.32 ], [ 9.93, 51.32 ], [ 9.91, 51.33 ], [ 9.91, 51.34 ], [ 9.91, 51.35 ], [ 9.92, 51.36 ], [ 9.93, 51.37 ], [ 9.94, 51.38 ], [ 9.93, 51.39 ], [ 9.97, 51.4 ], [ 10.01, 51.41 ], [ 10.01, 51.42 ], [ 10.02, 51.42 ], [ 10.03, 51.42 ], [ 10.04, 51.43 ], [ 10.05, 51.44 ], [ 10.14, 51.44 ], [ 10.15, 51.44 ], [ 10.18, 51.45 ], [ 10.18, 51.47 ], [ 10.18, 51.48 ], [ 10.19, 51.48 ], [ 10.2, 51.49 ], [ 10.23, 51.48 ], [ 10.26, 51.49 ], [ 10.29, 51.49 ], [ 10.31, 51.51 ], [ 10.33, 51.52 ], [ 10.34, 51.52 ], [ 10.37, 51.54 ], [ 10.37, 51.56 ], [ 10.38, 51.57 ], [ 10.38, 51.58 ], [ 10.38, 51.59 ], [ 10.43, 51.59 ], [ 10.46, 51.58 ], [ 10.48, 51.57 ], [ 10.48, 51.55 ], [ 10.52, 51.56 ], [ 10.53, 51.57 ], [ 10.53, 51.59 ], [ 10.52, 51.59 ], [ 10.51, 51.6 ], [ 10.51, 51.61 ], [ 10.54, 51.62 ], [ 10.57, 51.62 ], [ 10.59, 51.61 ], [ 10.58, 51.6 ], [ 10.58, 51.59 ], [ 10.59, 51.58 ], [ 10.61, 51.58 ], [ 10.64, 51.57 ], [ 10.65, 51.56 ], [ 10.66, 51.57 ], [ 10.64, 51.59 ], [ 10.63, 51.6 ], [ 10.64, 51.61 ], [ 10.66, 51.61 ], [ 10.68, 51.61 ], [ 10.68, 51.6 ], [ 10.7, 51.58 ], [ 10.73, 51.56 ], [ 10.75, 51.55 ], [ 10.77, 51.54 ], [ 10.78, 51.52 ], [ 10.79, 51.52 ], [ 10.8, 51.52 ], [ 10.81, 51.52 ], [ 10.82, 51.52 ], [ 10.83, 51.5 ], [ 10.84, 51.49 ], [ 10.89, 51.48 ], [ 10.95, 51.46 ], [ 10.98, 51.47 ], [ 10.97, 51.48 ], [ 10.97, 51.49 ], [ 10.95, 51.49 ], [ 10.94, 51.5 ], [ 10.9, 51.52 ], [ 10.9, 51.53 ], [ 10.89, 51.53 ], [ 10.87, 51.54 ], [ 10.86, 51.54 ], [ 10.85, 51.55 ], [ 10.85, 51.56 ], [ 10.87, 51.58 ], [ 10.87, 51.59 ], [ 10.88, 51.6 ], [ 10.88, 51.61 ], [ 10.91, 51.62 ], [ 10.93, 51.63 ], [ 11.01, 51.62 ], [ 11.07, 51.61 ], [ 11.1, 51.6 ], [ 11.14, 51.61 ], [ 11.18, 51.62 ], [ 11.2, 51.62 ], [ 11.23, 51.61 ], [ 11.24, 51.61 ], [ 11.23, 51.62 ], [ 11.23, 51.64 ], [ 11.23, 51.66 ], [ 11.21, 51.67 ], [ 11.21, 51.68 ], [ 11.26, 51.7 ], [ 11.28, 51.72 ], [ 11.31, 51.73 ], [ 11.31, 51.74 ], [ 11.32, 51.74 ], [ 11.34, 51.73 ], [ 11.35, 51.73 ], [ 11.36, 51.74 ], [ 11.37, 51.76 ], [ 11.39, 51.76 ], [ 11.41, 51.78 ], [ 11.4, 51.79 ], [ 11.4, 51.8 ], [ 11.37, 51.8 ], [ 11.31, 51.8 ], [ 11.26, 51.8 ], [ 11.25, 51.8 ], [ 11.24, 51.78 ], [ 11.22, 51.76 ], [ 11.18, 51.76 ], [ 11.16, 51.75 ], [ 11.13, 51.74 ], [ 11.12, 51.74 ], [ 11.1, 51.72 ], [ 11.08, 51.71 ], [ 11.07, 51.71 ], [ 11.05, 51.7 ], [ 11.04, 51.68 ], [ 11.02, 51.68 ], [ 11.0, 51.68 ], [ 10.97, 51.7 ], [ 10.97, 51.71 ], [ 10.98, 51.72 ], [ 11.0, 51.73 ], [ 11.02, 51.76 ], [ 11.04, 51.77 ], [ 11.04, 51.78 ], [ 11.01, 51.78 ], [ 11.0, 51.79 ], [ 11.01, 51.8 ], [ 11.02, 51.81 ], [ 11.04, 51.82 ], [ 11.04, 51.83 ], [ 11.02, 51.83 ], [ 11.0, 51.83 ], [ 10.97, 51.83 ], [ 10.94, 51.82 ], [ 10.94, 51.83 ], [ 10.93, 51.83 ], [ 10.92, 51.83 ], [ 10.9, 51.84 ], [ 10.89, 51.84 ], [ 10.89, 51.85 ], [ 10.89, 51.86 ], [ 10.87, 51.86 ], [ 10.87, 51.85 ], [ 10.85, 51.85 ], [ 10.84, 51.83 ], [ 10.84, 51.82 ], [ 10.84, 51.81 ], [ 10.83, 51.8 ], [ 10.83, 51.79 ], [ 10.79, 51.79 ], [ 10.75, 51.77 ], [ 10.76, 51.76 ], [ 10.74, 51.76 ], [ 10.73, 51.76 ], [ 10.7, 51.77 ], [ 10.69, 51.77 ], [ 10.68, 51.76 ], [ 10.66, 51.77 ], [ 10.63, 51.78 ], [ 10.62, 51.77 ], [ 10.6, 51.78 ], [ 10.59, 51.79 ], [ 10.58, 51.8 ], [ 10.58, 51.81 ], [ 10.59, 51.83 ], [ 10.59, 51.84 ], [ 10.6, 51.86 ], [ 10.63, 51.87 ], [ 10.64, 51.89 ], [ 10.63, 51.91 ], [ 10.61, 51.92 ], [ 10.61, 51.94 ], [ 10.63, 51.95 ], [ 10.65, 51.95 ], [ 10.64, 51.96 ], [ 10.63, 51.96 ], [ 10.6, 51.98 ], [ 10.58, 51.99 ], [ 10.56, 52.0 ], [ 10.55, 52.01 ], [ 10.55, 52.03 ], [ 10.56, 52.05 ], [ 10.58, 52.05 ], [ 10.59, 52.06 ], [ 10.6, 52.06 ], [ 10.61, 52.06 ], [ 10.61, 52.05 ], [ 10.62, 52.04 ], [ 10.65, 52.04 ], [ 10.66, 52.04 ], [ 10.69, 52.04 ], [ 10.73, 52.05 ], [ 10.74, 52.06 ], [ 10.73, 52.07 ], [ 10.73, 52.08 ], [ 10.74, 52.08 ], [ 10.77, 52.07 ], [ 10.77, 52.06 ], [ 10.76, 52.04 ], [ 10.75, 52.02 ], [ 10.71, 52.01 ], [ 10.71, 52.0 ], [ 10.72, 52.0 ], [ 10.75, 52.0 ], [ 10.8, 52.0 ], [ 10.82, 52.02 ], [ 10.8, 52.04 ], [ 10.85, 52.05 ], [ 10.85, 52.04 ], [ 10.89, 52.05 ], [ 10.94, 52.05 ], [ 10.95, 52.05 ], [ 10.94, 52.03 ], [ 10.95, 52.02 ], [ 10.96, 52.02 ], [ 10.97, 52.03 ], [ 10.97, 52.05 ], [ 10.96, 52.06 ], [ 10.97, 52.08 ], [ 10.96, 52.09 ], [ 10.96, 52.1 ], [ 10.97, 52.1 ], [ 11.02, 52.12 ], [ 11.04, 52.13 ], [ 11.06, 52.15 ], [ 11.06, 52.16 ], [ 11.05, 52.17 ], [ 11.03, 52.17 ], [ 11.03, 52.18 ], [ 11.02, 52.19 ], [ 11.03, 52.2 ], [ 11.05, 52.21 ], [ 11.08, 52.22 ], [ 11.08, 52.23 ], [ 11.07, 52.24 ], [ 11.06, 52.24 ], [ 11.05, 52.26 ], [ 11.02, 52.28 ], [ 11.03, 52.29 ], [ 11.02, 52.31 ], [ 10.99, 52.34 ], [ 11.05, 52.35 ], [ 11.07, 52.36 ], [ 11.07, 52.37 ], [ 11.03, 52.39 ], [ 11.02, 52.4 ], [ 10.97, 52.42 ], [ 10.94, 52.46 ], [ 10.94, 52.47 ], [ 10.95, 52.48 ], [ 10.96, 52.5 ], [ 10.99, 52.5 ], [ 11.0, 52.5 ], [ 10.97, 52.53 ], [ 10.95, 52.55 ], [ 10.94, 52.57 ], [ 10.95, 52.58 ], [ 10.97, 52.59 ], [ 10.98, 52.61 ], [ 10.97, 52.62 ], [ 10.95, 52.61 ], [ 10.93, 52.61 ], [ 10.85, 52.69 ], [ 10.84, 52.71 ], [ 10.82, 52.72 ], [ 10.8, 52.71 ], [ 10.78, 52.73 ], [ 10.78, 52.75 ], [ 10.76, 52.77 ], [ 10.75, 52.79 ], [ 10.76, 52.82 ], [ 10.76, 52.83 ], [ 10.76, 52.84 ], [ 10.78, 52.84 ], [ 10.81, 52.85 ], [ 10.83, 52.84 ], [ 10.84, 52.85 ], [ 10.86, 52.85 ], [ 10.88, 52.84 ], [ 10.93, 52.86 ], [ 10.96, 52.87 ], [ 10.99, 52.88 ], [ 10.99, 52.91 ], [ 11.02, 52.91 ], [ 11.09, 52.91 ], [ 11.1, 52.9 ], [ 11.12, 52.89 ], [ 11.15, 52.9 ], [ 11.21, 52.9 ], [ 11.23, 52.89 ], [ 11.25, 52.88 ], [ 11.26, 52.88 ], [ 11.27, 52.88 ], [ 11.28, 52.89 ], [ 11.29, 52.88 ], [ 11.3, 52.88 ], [ 11.31, 52.88 ], [ 11.35, 52.89 ], [ 11.38, 52.9 ], [ 11.4, 52.91 ], [ 11.43, 52.92 ], [ 11.47, 52.94 ], [ 11.5, 52.94 ], [ 11.49, 52.96 ], [ 11.49, 52.98 ], [ 11.52, 53.0 ], [ 11.54, 53.0 ], [ 11.58, 53.03 ], [ 11.57, 53.03 ], [ 11.61, 53.04 ], [ 11.62, 53.03 ], [ 11.61, 53.02 ], [ 11.61, 53.01 ], [ 11.62, 53.0 ], [ 11.64, 53.0 ], [ 11.66, 53.0 ], [ 11.67, 53.0 ], [ 11.67, 52.98 ], [ 11.68, 52.97 ], [ 11.7, 52.98 ], [ 11.74, 52.98 ], [ 11.75, 52.97 ], [ 11.78, 52.95 ], [ 11.81, 52.95 ], [ 11.83, 52.95 ], [ 11.83, 52.94 ], [ 11.82, 52.93 ], [ 11.81, 52.92 ], [ 11.82, 52.91 ], [ 11.83, 52.91 ], [ 11.86, 52.9 ], [ 11.88, 52.89 ], [ 11.93, 52.88 ], [ 11.96, 52.87 ], [ 11.97, 52.87 ], [ 11.98, 52.87 ], [ 11.99, 52.88 ], [ 12.02, 52.89 ], [ 12.04, 52.89 ], [ 12.04, 52.88 ], [ 12.03, 52.85 ], [ 12.04, 52.84 ], [ 12.05, 52.84 ], [ 12.06, 52.83 ], [ 12.06, 52.82 ], [ 12.07, 52.82 ], [ 12.09, 52.81 ], [ 12.11, 52.8 ], [ 12.13, 52.78 ], [ 12.15, 52.78 ], [ 12.17, 52.8 ], [ 12.18, 52.8 ], [ 12.21, 52.79 ], [ 12.21, 52.77 ], [ 12.22, 52.75 ], [ 12.2, 52.72 ], [ 12.21, 52.7 ], [ 12.24, 52.67 ], [ 12.28, 52.67 ], [ 12.31, 52.67 ], [ 12.32, 52.66 ], [ 12.31, 52.64 ], [ 12.32, 52.62 ], [ 12.32, 52.59 ], [ 12.32, 52.57 ], [ 12.31, 52.56 ], [ 12.3, 52.54 ], [ 12.31, 52.52 ], [ 12.34, 52.51 ], [ 12.36, 52.51 ], [ 12.4, 52.51 ], [ 12.43, 52.5 ], [ 12.45, 52.49 ], [ 12.45, 52.48 ], [ 12.44, 52.46 ], [ 12.4, 52.46 ], [ 12.36, 52.44 ], [ 12.36, 52.43 ], [ 12.38, 52.43 ], [ 12.38, 52.41 ], [ 12.39, 52.4 ], [ 12.41, 52.39 ], [ 12.44, 52.39 ], [ 12.46, 52.4 ], [ 12.48, 52.4 ], [ 12.47, 52.38 ], [ 12.46, 52.37 ], [ 12.46, 52.35 ], [ 12.46, 52.34 ], [ 12.47, 52.33 ], [ 12.49, 52.33 ], [ 12.5, 52.32 ], [ 12.5, 52.3 ], [ 12.49, 52.28 ], [ 12.5, 52.27 ], [ 12.5, 52.26 ], [ 12.47, 52.26 ], [ 12.46, 52.26 ], [ 12.46, 52.25 ], [ 12.47, 52.24 ], [ 12.51, 52.23 ], [ 12.52, 52.2 ], [ 12.51, 52.2 ], [ 12.5, 52.2 ], [ 12.49, 52.2 ], [ 12.49, 52.19 ], [ 12.49, 52.18 ], [ 12.47, 52.18 ], [ 12.44, 52.18 ], [ 12.42, 52.16 ], [ 12.4, 52.16 ], [ 12.38, 52.15 ], [ 12.35, 52.15 ], [ 12.32, 52.15 ], [ 12.29, 52.16 ], [ 12.26, 52.14 ], [ 12.26, 52.13 ], [ 12.27, 52.11 ], [ 12.27, 52.1 ], [ 12.24, 52.1 ], [ 12.21, 52.1 ], [ 12.2, 52.09 ], [ 12.14, 52.07 ], [ 12.09, 52.08 ], [ 12.07, 52.06 ], [ 12.05, 52.06 ], [ 12.04, 52.05 ], [ 12.05, 52.05 ], [ 12.04, 52.04 ], [ 12.02, 52.04 ], [ 12.02, 52.03 ], [ 12.04, 52.02 ], [ 12.07, 52.01 ], [ 12.08, 52.01 ], [ 12.07, 51.99 ], [ 12.06, 51.99 ], [ 12.05, 51.98 ], [ 12.04, 51.98 ], [ 12.03, 51.97 ], [ 12.02, 51.97 ], [ 12.01, 51.97 ], [ 12.0, 51.95 ], [ 12.0, 51.94 ], [ 11.96, 51.92 ], [ 11.97, 51.92 ], [ 11.98, 51.9 ], [ 12.02, 51.88 ], [ 12.03, 51.86 ], [ 12.06, 51.86 ], [ 12.12, 51.87 ], [ 12.15, 51.86 ], [ 12.14, 51.82 ], [ 12.14, 51.81 ], [ 12.12, 51.8 ], [ 12.11, 51.82 ], [ 12.06, 51.83 ], [ 12.05, 51.82 ], [ 12.04, 51.81 ], [ 12.02, 51.82 ], [ 12.01, 51.82 ], [ 12.0, 51.81 ], [ 11.98, 51.79 ], [ 11.96, 51.79 ], [ 11.94, 51.79 ], [ 11.94, 51.8 ], [ 11.96, 51.81 ], [ 11.95, 51.82 ], [ 11.96, 51.83 ], [ 11.96, 51.85 ], [ 11.96, 51.86 ], [ 11.93, 51.87 ], [ 11.92, 51.87 ], [ 11.9, 51.86 ], [ 11.91, 51.85 ], [ 11.88, 51.84 ], [ 11.87, 51.82 ], [ 11.85, 51.83 ], [ 11.85, 51.84 ], [ 11.84, 51.85 ], [ 11.83, 51.85 ], [ 11.83, 51.86 ], [ 11.83, 51.87 ], [ 11.81, 51.87 ], [ 11.8, 51.87 ], [ 11.78, 51.88 ], [ 11.72, 51.87 ], [ 11.72, 51.85 ], [ 11.7, 51.84 ], [ 11.69, 51.84 ], [ 11.67, 51.83 ], [ 11.67, 51.85 ], [ 11.64, 51.86 ], [ 11.6, 51.85 ], [ 11.59, 51.84 ], [ 11.58, 51.84 ], [ 11.56, 51.85 ], [ 11.56, 51.87 ], [ 11.53, 51.88 ], [ 11.52, 51.88 ], [ 11.5, 51.87 ], [ 11.48, 51.83 ], [ 11.49, 51.81 ], [ 11.5, 51.79 ], [ 11.51, 51.79 ], [ 11.52, 51.79 ], [ 11.53, 51.79 ], [ 11.52, 51.77 ], [ 11.52, 51.76 ], [ 11.54, 51.75 ], [ 11.56, 51.74 ], [ 11.55, 51.73 ], [ 11.51, 51.74 ], [ 11.49, 51.72 ], [ 11.52, 51.7 ], [ 11.53, 51.68 ], [ 11.55, 51.68 ], [ 11.55, 51.67 ], [ 11.57, 51.67 ], [ 11.58, 51.66 ], [ 11.59, 51.66 ], [ 11.61, 51.66 ], [ 11.61, 51.68 ], [ 11.62, 51.69 ], [ 11.63, 51.69 ], [ 11.62, 51.73 ], [ 11.68, 51.71 ], [ 11.72, 51.73 ], [ 11.7, 51.74 ], [ 11.72, 51.75 ], [ 11.74, 51.74 ], [ 11.75, 51.74 ], [ 11.76, 51.75 ], [ 11.77, 51.75 ], [ 11.77, 51.73 ], [ 11.78, 51.72 ], [ 11.8, 51.72 ], [ 11.8, 51.7 ], [ 11.81, 51.69 ], [ 11.82, 51.68 ], [ 11.85, 51.68 ], [ 11.87, 51.67 ], [ 11.89, 51.66 ], [ 11.91, 51.65 ], [ 11.92, 51.66 ], [ 11.94, 51.66 ], [ 11.94, 51.65 ], [ 11.94, 51.64 ], [ 12.0, 51.64 ], [ 12.05, 51.64 ], [ 12.09, 51.64 ], [ 12.1, 51.64 ], [ 12.14, 51.66 ], [ 12.16, 51.68 ], [ 12.18, 51.67 ], [ 12.19, 51.67 ], [ 12.18, 51.69 ], [ 12.17, 51.69 ], [ 12.18, 51.71 ], [ 12.2, 51.71 ], [ 12.21, 51.71 ], [ 12.22, 51.69 ], [ 12.26, 51.67 ], [ 12.31, 51.66 ], [ 12.34, 51.66 ], [ 12.36, 51.68 ], [ 12.4, 51.68 ], [ 12.4, 51.7 ], [ 12.38, 51.7 ], [ 12.32, 51.69 ], [ 12.34, 51.7 ], [ 12.36, 51.72 ], [ 12.35, 51.75 ], [ 12.35, 51.78 ], [ 12.38, 51.79 ], [ 12.39, 51.79 ], [ 12.41, 51.78 ], [ 12.42, 51.78 ], [ 12.42, 51.79 ], [ 12.43, 51.79 ], [ 12.44, 51.79 ], [ 12.45, 51.79 ], [ 12.48, 51.8 ], [ 12.5, 51.8 ], [ 12.53, 51.82 ], [ 12.51, 51.84 ], [ 12.5, 51.84 ], [ 12.51, 51.85 ], [ 12.52, 51.86 ], [ 12.53, 51.87 ], [ 12.54, 51.87 ], [ 12.55, 51.88 ], [ 12.56, 51.9 ], [ 12.58, 51.93 ], [ 12.59, 51.96 ], [ 12.61, 51.97 ], [ 12.61, 51.98 ], [ 12.61, 51.99 ], [ 12.62, 51.99 ], [ 12.65, 51.99 ], [ 12.67, 52.0 ], [ 12.69, 51.98 ], [ 12.7, 51.98 ], [ 12.74, 51.99 ], [ 12.75, 51.99 ], [ 12.76, 52.02 ], [ 12.81, 52.03 ], [ 12.83, 52.04 ], [ 12.84, 52.03 ], [ 12.85, 52.03 ], [ 12.87, 52.02 ], [ 12.9, 52.01 ], [ 12.93, 51.98 ], [ 12.9, 51.98 ], [ 12.9, 51.97 ], [ 12.91, 51.96 ], [ 12.98, 51.96 ], [ 13.0, 51.94 ], [ 13.05, 51.94 ], [ 13.06, 51.93 ], [ 13.06, 51.92 ], [ 13.04, 51.92 ], [ 13.04, 51.91 ], [ 13.04, 51.9 ], [ 13.07, 51.9 ], [ 13.08, 51.9 ], [ 13.09, 51.87 ], [ 13.1, 51.87 ], [ 13.12, 51.88 ], [ 13.13, 51.88 ], [ 13.14, 51.87 ], [ 13.15, 51.87 ], [ 13.16, 51.87 ], [ 13.17, 51.87 ], [ 13.17, 51.88 ], [ 13.18, 51.89 ], [ 13.19, 51.88 ], [ 13.21, 51.88 ], [ 13.22, 51.88 ], [ 13.23, 51.86 ], [ 13.23, 51.84 ], [ 13.27, 51.83 ], [ 13.33, 51.83 ], [ 13.36, 51.83 ], [ 13.41, 51.82 ], [ 13.42, 51.82 ], [ 13.45, 51.84 ], [ 13.48, 51.84 ], [ 13.53, 51.83 ], [ 13.56, 51.84 ], [ 13.57, 51.84 ], [ 13.58, 51.84 ], [ 13.62, 51.84 ], [ 13.64, 51.85 ], [ 13.65, 51.85 ], [ 13.68, 51.84 ], [ 13.64, 51.82 ], [ 13.62, 51.81 ], [ 13.61, 51.81 ], [ 13.6, 51.8 ], [ 13.6, 51.79 ], [ 13.58, 51.76 ], [ 13.56, 51.74 ], [ 13.52, 51.71 ], [ 13.5, 51.69 ], [ 13.48, 51.68 ], [ 13.47, 51.68 ], [ 13.43, 51.68 ], [ 13.38, 51.67 ], [ 13.34, 51.66 ], [ 13.35, 51.64 ], [ 13.36, 51.63 ], [ 13.37, 51.61 ], [ 13.37, 51.6 ], [ 13.38, 51.6 ], [ 13.39, 51.6 ], [ 13.4, 51.59 ], [ 13.42, 51.59 ], [ 13.44, 51.58 ], [ 13.45, 51.56 ], [ 13.48, 51.55 ], [ 13.51, 51.55 ], [ 13.52, 51.55 ], [ 13.54, 51.55 ], [ 13.57, 51.55 ], [ 13.58, 51.55 ], [ 13.6, 51.55 ], [ 13.61, 51.55 ], [ 13.64, 51.56 ], [ 13.66, 51.55 ], [ 13.67, 51.55 ], [ 13.66, 51.54 ], [ 13.68, 51.52 ], [ 13.73, 51.52 ], [ 13.76, 51.54 ], [ 13.78, 51.54 ], [ 13.81, 51.5 ], [ 13.8, 51.47 ], [ 13.79, 51.46 ], [ 13.76, 51.46 ], [ 13.73, 51.46 ], [ 13.72, 51.45 ], [ 13.73, 51.43 ], [ 13.72, 51.4 ], [ 13.73, 51.39 ], [ 13.76, 51.38 ], [ 13.78, 51.37 ], [ 13.79, 51.37 ], [ 13.79, 51.36 ], [ 13.78, 51.36 ], [ 13.74, 51.36 ], [ 13.7, 51.37 ], [ 13.67, 51.37 ], [ 13.65, 51.36 ], [ 13.62, 51.37 ], [ 13.61, 51.37 ], [ 13.6, 51.38 ], [ 13.57, 51.38 ], [ 13.56, 51.37 ], [ 13.55, 51.37 ], [ 13.53, 51.38 ], [ 13.53, 51.4 ], [ 13.52, 51.4 ], [ 13.48, 51.41 ], [ 13.47, 51.41 ], [ 13.48, 51.42 ], [ 13.47, 51.43 ], [ 13.43, 51.42 ], [ 13.41, 51.45 ], [ 13.39, 51.44 ], [ 13.39, 51.43 ], [ 13.39, 51.42 ], [ 13.38, 51.42 ], [ 13.35, 51.43 ], [ 13.34, 51.43 ], [ 13.3, 51.41 ], [ 13.28, 51.4 ], [ 13.27, 51.39 ], [ 13.25, 51.39 ], [ 13.23, 51.38 ], [ 13.21, 51.37 ], [ 13.18, 51.37 ], [ 13.15, 51.37 ], [ 13.15, 51.38 ], [ 13.17, 51.38 ], [ 13.17, 51.39 ], [ 13.16, 51.41 ], [ 13.14, 51.42 ], [ 13.11, 51.42 ], [ 13.1, 51.41 ], [ 13.08, 51.42 ], [ 13.07, 51.43 ], [ 13.04, 51.43 ], [ 12.99, 51.43 ], [ 12.94, 51.42 ], [ 12.92, 51.42 ], [ 12.91, 51.42 ], [ 12.88, 51.44 ], [ 12.83, 51.45 ], [ 12.8, 51.46 ], [ 12.78, 51.46 ], [ 12.75, 51.45 ], [ 12.72, 51.45 ], [ 12.68, 51.44 ], [ 12.67, 51.44 ], [ 12.66, 51.42 ], [ 12.65, 51.4 ], [ 12.63, 51.4 ], [ 12.59, 51.38 ], [ 12.57, 51.39 ], [ 12.53, 51.41 ], [ 12.5, 51.42 ], [ 12.5, 51.43 ], [ 12.47, 51.44 ], [ 12.45, 51.43 ], [ 12.44, 51.43 ], [ 12.43, 51.43 ], [ 12.4, 51.43 ], [ 12.37, 51.42 ], [ 12.33, 51.42 ], [ 12.32, 51.42 ], [ 12.32, 51.4 ], [ 12.31, 51.4 ], [ 12.27, 51.41 ], [ 12.27, 51.4 ], [ 12.26, 51.4 ], [ 12.26, 51.39 ], [ 12.28, 51.39 ], [ 12.26, 51.37 ], [ 12.25, 51.37 ], [ 12.24, 51.38 ], [ 12.23, 51.38 ], [ 12.2, 51.36 ], [ 12.2, 51.35 ], [ 12.21, 51.33 ], [ 12.21, 51.32 ], [ 12.22, 51.32 ], [ 12.23, 51.32 ], [ 12.22, 51.31 ], [ 12.2, 51.31 ], [ 12.18, 51.3 ], [ 12.18, 51.29 ], [ 12.22, 51.28 ], [ 12.23, 51.28 ], [ 12.24, 51.27 ], [ 12.26, 51.26 ], [ 12.26, 51.25 ], [ 12.26, 51.24 ], [ 12.27, 51.24 ], [ 12.28, 51.22 ], [ 12.26, 51.21 ], [ 12.25, 51.2 ], [ 12.24, 51.19 ], [ 12.22, 51.17 ], [ 12.21, 51.15 ], [ 12.21, 51.14 ], [ 12.24, 51.13 ], [ 12.24, 51.12 ], [ 12.23, 51.12 ], [ 12.23, 51.11 ], [ 12.24, 51.1 ], [ 12.25, 51.1 ], [ 12.28, 51.1 ], [ 12.29, 51.09 ] ], [ [ 9.91, 51.33 ], [ 9.9, 51.32 ], [ 9.89, 51.32 ], [ 9.89, 51.33 ], [ 9.91, 51.33 ] ], [ [ 12.3, 51.72 ], [ 12.28, 51.71 ], [ 12.28, 51.73 ], [ 12.28, 51.75 ], [ 12.27, 51.76 ], [ 12.27, 51.77 ], [ 12.3, 51.79 ], [ 12.3, 51.77 ], [ 12.31, 51.75 ], [ 12.31, 51.73 ], [ 12.3, 51.73 ], [ 12.3, 51.72 ] ], [ [ 12.13, 51.7 ], [ 12.12, 51.69 ], [ 12.1, 51.69 ], [ 12.09, 51.69 ], [ 12.09, 51.7 ], [ 12.12, 51.7 ], [ 12.13, 51.7 ] ], [ [ 11.93, 51.73 ], [ 11.91, 51.73 ], [ 11.89, 51.73 ], [ 11.9, 51.74 ], [ 11.91, 51.75 ], [ 11.93, 51.74 ], [ 11.93, 51.73 ] ], [ [ 12.11, 51.71 ], [ 12.09, 51.71 ], [ 12.08, 51.71 ], [ 12.08, 51.72 ], [ 12.09, 51.72 ], [ 12.1, 51.72 ], [ 12.11, 51.72 ], [ 12.11, 51.71 ] ], [ [ 10.98, 51.81 ], [ 10.97, 51.81 ], [ 10.96, 51.81 ], [ 10.96, 51.82 ], [ 10.97, 51.82 ], [ 10.98, 51.82 ], [ 10.99, 51.82 ], [ 10.99, 51.81 ], [ 10.98, 51.81 ] ], [ [ 10.88, 52.35 ], [ 10.87, 52.36 ], [ 10.86, 52.37 ], [ 10.84, 52.37 ], [ 10.83, 52.39 ], [ 10.85, 52.4 ], [ 10.88, 52.41 ], [ 10.91, 52.4 ], [ 10.9, 52.39 ], [ 10.88, 52.39 ], [ 10.88, 52.37 ], [ 10.88, 52.35 ] ], [ [ 10.8, 52.4 ], [ 10.78, 52.41 ], [ 10.77, 52.41 ], [ 10.77, 52.42 ], [ 10.78, 52.44 ], [ 10.8, 52.46 ], [ 10.81, 52.46 ], [ 10.83, 52.46 ], [ 10.82, 52.44 ], [ 10.81, 52.42 ], [ 10.8, 52.4 ] ], [ [ 11.74, 50.41 ], [ 11.73, 50.4 ], [ 11.71, 50.4 ], [ 11.69, 50.42 ], [ 11.72, 50.42 ], [ 11.73, 50.42 ], [ 11.74, 50.41 ] ], [ [ 11.79, 50.42 ], [ 11.77, 50.41 ], [ 11.76, 50.41 ], [ 11.75, 50.43 ], [ 11.76, 50.43 ], [ 11.78, 50.44 ], [ 11.79, 50.42 ] ], [ [ 11.88, 50.44 ], [ 11.88, 50.43 ], [ 11.84, 50.44 ], [ 11.84, 50.46 ], [ 11.86, 50.46 ], [ 11.88, 50.46 ], [ 11.88, 50.44 ] ], [ [ 11.81, 50.45 ], [ 11.8, 50.44 ], [ 11.79, 50.46 ], [ 11.8, 50.46 ], [ 11.82, 50.47 ], [ 11.83, 50.45 ], [ 11.81, 50.45 ] ], [ [ 11.61, 50.69 ], [ 11.62, 50.7 ], [ 11.66, 50.68 ], [ 11.67, 50.67 ], [ 11.65, 50.66 ], [ 11.65, 50.64 ], [ 11.65, 50.63 ], [ 11.68, 50.63 ], [ 11.69, 50.63 ], [ 11.69, 50.6 ], [ 11.69, 50.59 ], [ 11.69, 50.58 ], [ 11.71, 50.57 ], [ 11.7, 50.56 ], [ 11.68, 50.56 ], [ 11.67, 50.55 ], [ 11.63, 50.55 ], [ 11.62, 50.56 ], [ 11.61, 50.58 ], [ 11.59, 50.57 ], [ 11.58, 50.57 ], [ 11.56, 50.58 ], [ 11.53, 50.58 ], [ 11.52, 50.59 ], [ 11.52, 50.6 ], [ 11.51, 50.61 ], [ 11.51, 50.62 ], [ 11.51, 50.63 ], [ 11.51, 50.64 ], [ 11.51, 50.65 ], [ 11.5, 50.66 ], [ 11.5, 50.67 ], [ 11.49, 50.69 ], [ 11.49, 50.7 ], [ 11.51, 50.71 ], [ 11.54, 50.71 ], [ 11.55, 50.7 ], [ 11.59, 50.69 ], [ 11.61, 50.69 ] ], [ [ 10.63, 50.67 ], [ 10.64, 50.65 ], [ 10.65, 50.64 ], [ 10.69, 50.64 ], [ 10.7, 50.64 ], [ 10.7, 50.65 ], [ 10.71, 50.66 ], [ 10.71, 50.67 ], [ 10.73, 50.66 ], [ 10.74, 50.66 ], [ 10.75, 50.66 ], [ 10.77, 50.66 ], [ 10.78, 50.65 ], [ 10.79, 50.65 ], [ 10.83, 50.65 ], [ 10.84, 50.65 ], [ 10.85, 50.64 ], [ 10.87, 50.63 ], [ 10.88, 50.61 ], [ 10.88, 50.59 ], [ 10.89, 50.57 ], [ 10.88, 50.53 ], [ 10.86, 50.5 ], [ 10.83, 50.5 ], [ 10.82, 50.48 ], [ 10.83, 50.47 ], [ 10.82, 50.47 ], [ 10.78, 50.46 ], [ 10.77, 50.46 ], [ 10.76, 50.46 ], [ 10.72, 50.47 ], [ 10.7, 50.46 ], [ 10.69, 50.46 ], [ 10.68, 50.48 ], [ 10.66, 50.48 ], [ 10.64, 50.49 ], [ 10.63, 50.5 ], [ 10.65, 50.51 ], [ 10.66, 50.53 ], [ 10.66, 50.54 ], [ 10.66, 50.56 ], [ 10.65, 50.57 ], [ 10.64, 50.57 ], [ 10.63, 50.58 ], [ 10.61, 50.59 ], [ 10.59, 50.59 ], [ 10.58, 50.58 ], [ 10.57, 50.56 ], [ 10.55, 50.56 ], [ 10.53, 50.56 ], [ 10.51, 50.56 ], [ 10.48, 50.58 ], [ 10.47, 50.6 ], [ 10.47, 50.64 ], [ 10.46, 50.67 ], [ 10.48, 50.67 ], [ 10.5, 50.67 ], [ 10.53, 50.67 ], [ 10.54, 50.67 ], [ 10.55, 50.67 ], [ 10.57, 50.67 ], [ 10.59, 50.67 ], [ 10.6, 50.67 ], [ 10.61, 50.66 ], [ 10.62, 50.66 ], [ 10.63, 50.67 ] ], [ [ 11.47, 50.66 ], [ 11.48, 50.65 ], [ 11.49, 50.63 ], [ 11.47, 50.61 ], [ 11.46, 50.61 ], [ 11.44, 50.61 ], [ 11.43, 50.62 ], [ 11.42, 50.63 ], [ 11.42, 50.65 ], [ 11.43, 50.65 ], [ 11.45, 50.66 ], [ 11.46, 50.66 ], [ 11.47, 50.66 ] ], [ [ 10.68, 51.7 ], [ 10.71, 51.69 ], [ 10.73, 51.68 ], [ 10.76, 51.68 ], [ 10.78, 51.67 ], [ 10.78, 51.65 ], [ 10.78, 51.64 ], [ 10.77, 51.65 ], [ 10.76, 51.65 ], [ 10.72, 51.65 ], [ 10.7, 51.64 ], [ 10.68, 51.66 ], [ 10.67, 51.68 ], [ 10.67, 51.7 ], [ 10.68, 51.7 ] ], [ [ 10.85, 50.83 ], [ 10.8, 50.84 ], [ 10.8, 50.85 ], [ 10.79, 50.86 ], [ 10.79, 50.87 ], [ 10.81, 50.89 ], [ 10.82, 50.91 ], [ 10.82, 50.92 ], [ 10.83, 50.93 ], [ 10.88, 50.91 ], [ 10.87, 50.88 ], [ 10.88, 50.87 ], [ 10.88, 50.86 ], [ 10.85, 50.83 ] ] ], [ [ [ 12.28, 51.07 ], [ 12.27, 51.08 ], [ 12.26, 51.07 ], [ 12.25, 51.06 ], [ 12.27, 51.06 ], [ 12.28, 51.06 ], [ 12.28, 51.07 ] ] ], [ [ [ 11.04, 51.29 ], [ 11.05, 51.29 ], [ 11.06, 51.3 ], [ 11.06, 51.31 ], [ 11.08, 51.32 ], [ 11.09, 51.32 ], [ 11.13, 51.31 ], [ 11.14, 51.31 ], [ 11.16, 51.3 ], [ 11.17, 51.3 ], [ 11.19, 51.32 ], [ 11.21, 51.32 ], [ 11.21, 51.33 ], [ 11.21, 51.34 ], [ 11.22, 51.34 ], [ 11.24, 51.35 ], [ 11.25, 51.35 ], [ 11.25, 51.36 ], [ 11.25, 51.38 ], [ 11.24, 51.4 ], [ 11.22, 51.41 ], [ 11.19, 51.4 ], [ 11.15, 51.4 ], [ 11.14, 51.4 ], [ 11.12, 51.42 ], [ 11.05, 51.42 ], [ 11.03, 51.41 ], [ 11.02, 51.41 ], [ 10.99, 51.41 ], [ 10.96, 51.41 ], [ 10.92, 51.4 ], [ 10.87, 51.39 ], [ 10.84, 51.41 ], [ 10.83, 51.41 ], [ 10.82, 51.41 ], [ 10.8, 51.41 ], [ 10.77, 51.4 ], [ 10.76, 51.39 ], [ 10.75, 51.38 ], [ 10.74, 51.39 ], [ 10.73, 51.39 ], [ 10.7, 51.39 ], [ 10.69, 51.39 ], [ 10.69, 51.38 ], [ 10.69, 51.37 ], [ 10.71, 51.36 ], [ 10.7, 51.34 ], [ 10.69, 51.34 ], [ 10.65, 51.36 ], [ 10.64, 51.38 ], [ 10.62, 51.38 ], [ 10.6, 51.36 ], [ 10.58, 51.38 ], [ 10.57, 51.38 ], [ 10.55, 51.37 ], [ 10.53, 51.37 ], [ 10.53, 51.36 ], [ 10.5, 51.35 ], [ 10.5, 51.34 ], [ 10.5, 51.32 ], [ 10.48, 51.32 ], [ 10.51, 51.3 ], [ 10.51, 51.29 ], [ 10.54, 51.29 ], [ 10.55, 51.29 ], [ 10.55, 51.27 ], [ 10.55, 51.26 ], [ 10.54, 51.26 ], [ 10.54, 51.25 ], [ 10.56, 51.24 ], [ 10.57, 51.2 ], [ 10.58, 51.19 ], [ 10.6, 51.2 ], [ 10.63, 51.2 ], [ 10.65, 51.21 ], [ 10.66, 51.21 ], [ 10.67, 51.21 ], [ 10.68, 51.21 ], [ 10.68, 51.22 ], [ 10.69, 51.22 ], [ 10.71, 51.21 ], [ 10.72, 51.2 ], [ 10.75, 51.21 ], [ 10.76, 51.21 ], [ 10.77, 51.23 ], [ 10.78, 51.23 ], [ 10.79, 51.22 ], [ 10.8, 51.21 ], [ 10.81, 51.21 ], [ 10.85, 51.21 ], [ 10.87, 51.21 ], [ 10.89, 51.21 ], [ 10.9, 51.2 ], [ 10.91, 51.19 ], [ 10.96, 51.2 ], [ 10.97, 51.21 ], [ 10.98, 51.21 ], [ 10.97, 51.23 ], [ 10.96, 51.24 ], [ 10.94, 51.24 ], [ 10.94, 51.25 ], [ 10.94, 51.26 ], [ 10.96, 51.26 ], [ 10.97, 51.26 ], [ 10.99, 51.26 ], [ 11.0, 51.26 ], [ 11.02, 51.26 ], [ 11.02, 51.27 ], [ 11.02, 51.28 ], [ 11.01, 51.28 ], [ 11.0, 51.29 ], [ 10.98, 51.31 ], [ 10.97, 51.32 ], [ 10.98, 51.32 ], [ 10.99, 51.32 ], [ 11.01, 51.31 ], [ 11.04, 51.29 ] ] ], [ [ [ 11.36, 51.32 ], [ 11.38, 51.32 ], [ 11.4, 51.34 ], [ 11.41, 51.34 ], [ 11.42, 51.34 ], [ 11.43, 51.34 ], [ 11.44, 51.34 ], [ 11.45, 51.35 ], [ 11.45, 51.36 ], [ 11.47, 51.38 ], [ 11.49, 51.39 ], [ 11.49, 51.4 ], [ 11.47, 51.44 ], [ 11.44, 51.44 ], [ 11.41, 51.44 ], [ 11.4, 51.42 ], [ 11.39, 51.42 ], [ 11.37, 51.44 ], [ 11.36, 51.45 ], [ 11.34, 51.45 ], [ 11.33, 51.42 ], [ 11.35, 51.41 ], [ 11.36, 51.39 ], [ 11.37, 51.38 ], [ 11.36, 51.37 ], [ 11.34, 51.35 ], [ 11.33, 51.34 ], [ 11.34, 51.33 ], [ 11.36, 51.32 ] ] ], [ [ [ 11.32, 51.61 ], [ 11.34, 51.62 ], [ 11.36, 51.64 ], [ 11.36, 51.65 ], [ 11.35, 51.65 ], [ 11.32, 51.65 ], [ 11.3, 51.63 ], [ 11.28, 51.63 ], [ 11.26, 51.62 ], [ 11.26, 51.61 ], [ 11.27, 51.61 ], [ 11.32, 51.61 ] ] ], [ [ [ 11.31, 52.33 ], [ 11.31, 52.34 ], [ 11.31, 52.35 ], [ 11.3, 52.35 ], [ 11.3, 52.36 ], [ 11.32, 52.37 ], [ 11.35, 52.34 ], [ 11.35, 52.33 ], [ 11.36, 52.33 ], [ 11.37, 52.34 ], [ 11.39, 52.35 ], [ 11.39, 52.37 ], [ 11.42, 52.37 ], [ 11.42, 52.36 ], [ 11.44, 52.36 ], [ 11.45, 52.37 ], [ 11.46, 52.37 ], [ 11.45, 52.38 ], [ 11.39, 52.39 ], [ 11.37, 52.41 ], [ 11.38, 52.41 ], [ 11.39, 52.42 ], [ 11.39, 52.43 ], [ 11.38, 52.43 ], [ 11.36, 52.43 ], [ 11.34, 52.44 ], [ 11.33, 52.45 ], [ 11.32, 52.45 ], [ 11.3, 52.47 ], [ 11.29, 52.47 ], [ 11.27, 52.46 ], [ 11.25, 52.46 ], [ 11.24, 52.43 ], [ 11.24, 52.42 ], [ 11.25, 52.38 ], [ 11.27, 52.37 ], [ 11.27, 52.35 ], [ 11.31, 52.33 ] ], [ [ 11.37, 52.37 ], [ 11.35, 52.36 ], [ 11.34, 52.37 ], [ 11.34, 52.38 ], [ 11.36, 52.39 ], [ 11.37, 52.37 ] ] ], [ [ [ 11.86, 52.02 ], [ 11.88, 52.01 ], [ 11.9, 52.01 ], [ 11.91, 52.01 ], [ 11.91, 52.02 ], [ 11.9, 52.03 ], [ 11.91, 52.03 ], [ 11.91, 52.04 ], [ 11.89, 52.04 ], [ 11.86, 52.03 ], [ 11.86, 52.02 ] ] ], [ [ [ 11.76, 51.98 ], [ 11.74, 51.98 ], [ 11.74, 51.97 ], [ 11.71, 51.97 ], [ 11.69, 51.96 ], [ 11.68, 51.95 ], [ 11.68, 51.94 ], [ 11.7, 51.93 ], [ 11.72, 51.95 ], [ 11.74, 51.94 ], [ 11.75, 51.95 ], [ 11.8, 51.95 ], [ 11.8, 51.96 ], [ 11.79, 51.97 ], [ 11.77, 51.96 ], [ 11.76, 51.98 ] ] ], [ [ [ 11.89, 51.99 ], [ 11.91, 51.98 ], [ 11.92, 51.98 ], [ 11.93, 51.99 ], [ 11.94, 51.99 ], [ 11.95, 52.0 ], [ 11.94, 52.0 ], [ 11.93, 52.0 ], [ 11.9, 52.0 ], [ 11.89, 51.99 ] ] ], [ [ [ 11.29, 52.0 ], [ 11.27, 52.0 ], [ 11.23, 51.99 ], [ 11.22, 51.99 ], [ 11.22, 51.96 ], [ 11.23, 51.96 ], [ 11.27, 51.96 ], [ 11.3, 51.96 ], [ 11.3, 51.98 ], [ 11.29, 51.99 ], [ 11.29, 52.0 ] ] ], [ [ [ 11.88, 52.05 ], [ 11.88, 52.06 ], [ 11.87, 52.06 ], [ 11.84, 52.05 ], [ 11.84, 52.04 ], [ 11.85, 52.04 ], [ 11.88, 52.05 ] ] ] ] } }
]
}
