{
"type": "FeatureCollection",
"name": "PRU_POM_1914",
"crs": { "type": "name", "properties": { "name": "urn:ogc:def:crs:OGC:1.3:CRS84" } },
"features": [
{ "type": "Feature", "properties": { "name": "Pommern" }, "geometry": { "type": "MultiPolygon", "coordinates": [ [ [ [ 13.14, 54.6 ], [ 13.11, 54.59 ], [ 13.1, 54.58 ], [ 13.11, 54.57 ], [ 13.1, 54.55 ], [ 13.07, 54.49 ], [ 13.06, 54.46 ], [ 13.06, 54.45 ], [ 13.07, 54.46 ], [ 13.08, 54.49 ], [ 13.09, 54.51 ], [ 13.1, 54.52 ], [ 13.11, 54.53 ], [ 13.12, 54.54 ], [ 13.11, 54.56 ], [ 13.12, 54.57 ], [ 13.14, 54.59 ], [ 13.14, 54.57 ], [ 13.15, 54.57 ], [ 13.15, 54.58 ], [ 13.15, 54.59 ], [ 13.14, 54.6 ] ] ], [ [ [ 13.55, 54.31 ], [ 13.56, 54.32 ], [ 13.54, 54.31 ], [ 13.55, 54.31 ] ] ], [ [ [ 13.54, 54.31 ], [ 13.52, 54.31 ], [ 13.53, 54.3 ], [ 13.54, 54.31 ] ] ], [ [ [ 12.98, 53.88 ], [ 12.94, 53.87 ], [ 12.92, 53.87 ], [ 12.89, 53.86 ], [ 12.9, 53.85 ], [ 12.86, 53.82 ], [ 12.84, 53.8 ], [ 12.83, 53.8 ], [ 12.79, 53.77 ], [ 12.81, 53.74 ], [ 12.82, 53.73 ], [ 12.83, 53.73 ], [ 12.86, 53.73 ], [ 12.88, 53.72 ], [ 12.9, 53.73 ], [ 12.94, 53.74 ], [ 12.98, 53.73 ], [ 13.0, 53.74 ], [ 13.0, 53.75 ], [ 13.04, 53.75 ], [ 13.06, 53.76 ], [ 13.1, 53.76 ], [ 13.1, 53.75 ], [ 13.12, 53.73 ], [ 13.12, 53.7 ], [ 13.08, 53.69 ], [ 13.08, 53.68 ], [ 13.08, 53.67 ], [ 13.08, 53.66 ], [ 13.09, 53.66 ], [ 13.1, 53.63 ], [ 13.13, 53.63 ], [ 13.15, 53.64 ], [ 13.18, 53.64 ], [ 13.2, 53.63 ], [ 13.22, 53.62 ], [ 13.24, 53.61 ], [ 13.24, 53.62 ], [ 13.26, 53.66 ], [ 13.34, 53.68 ], [ 13.38, 53.69 ], [ 13.4, 53.7 ], [ 13.41, 53.7 ], [ 13.44, 53.75 ], [ 13.48, 53.75 ], [ 13.52, 53.74 ], [ 13.54, 53.71 ], [ 13.55, 53.7 ], [ 13.59, 53.7 ], [ 13.64, 53.7 ], [ 13.68, 53.69 ], [ 13.7, 53.69 ], [ 13.71, 53.7 ], [ 13.77, 53.69 ], [ 13.86, 53.68 ], [ 13.86, 53.67 ], [ 13.83, 53.64 ], [ 13.75, 53.61 ], [ 13.75, 53.6 ], [ 13.77, 53.59 ], [ 13.79, 53.59 ], [ 13.81, 53.59 ], [ 13.82, 53.59 ], [ 13.8, 53.56 ], [ 13.83, 53.57 ], [ 13.88, 53.58 ], [ 13.9, 53.56 ], [ 13.87, 53.51 ], [ 13.88, 53.5 ], [ 13.89, 53.51 ], [ 13.95, 53.5 ], [ 13.97, 53.48 ], [ 14.0, 53.47 ], [ 14.03, 53.47 ], [ 14.04, 53.49 ], [ 14.09, 53.52 ], [ 14.14, 53.52 ], [ 14.17, 53.52 ], [ 14.18, 53.49 ], [ 14.18, 53.48 ], [ 14.22, 53.44 ], [ 14.24, 53.4 ], [ 14.24, 53.39 ], [ 14.23, 53.37 ], [ 14.15, 53.32 ], [ 14.1, 53.29 ], [ 14.09, 53.26 ], [ 14.08, 53.22 ], [ 14.1, 53.18 ], [ 14.11, 53.17 ], [ 14.12, 53.16 ], [ 14.2, 53.14 ], [ 14.25, 53.13 ], [ 14.26, 53.13 ], [ 14.27, 53.15 ], [ 14.29, 53.15 ], [ 14.29, 53.17 ], [ 14.29, 53.18 ], [ 14.3, 53.19 ], [ 14.31, 53.18 ], [ 14.31, 53.17 ], [ 14.35, 53.14 ], [ 14.36, 53.14 ], [ 14.35, 53.11 ], [ 14.34, 53.08 ], [ 14.36, 53.05 ], [ 14.36, 53.04 ], [ 14.38, 53.04 ], [ 14.41, 53.04 ], [ 14.42, 53.02 ], [ 14.43, 53.0 ], [ 14.45, 52.99 ], [ 14.5, 52.99 ], [ 14.5, 52.98 ], [ 14.55, 52.98 ], [ 14.57, 52.98 ], [ 14.62, 52.98 ], [ 14.65, 52.99 ], [ 14.68, 53.01 ], [ 14.73, 53.03 ], [ 14.76, 53.03 ], [ 14.75, 53.02 ], [ 14.75, 53.01 ], [ 14.76, 53.01 ], [ 14.77, 53.01 ], [ 14.79, 53.01 ], [ 14.82, 53.0 ], [ 14.83, 53.0 ], [ 14.84, 53.01 ], [ 14.83, 53.02 ], [ 14.81, 53.02 ], [ 14.81, 53.04 ], [ 14.85, 53.07 ], [ 14.85, 53.09 ], [ 14.88, 53.09 ], [ 14.9, 53.1 ], [ 14.95, 53.1 ], [ 14.96, 53.09 ], [ 14.97, 53.08 ], [ 14.97, 53.09 ], [ 15.01, 53.09 ], [ 15.01, 53.07 ], [ 15.02, 53.05 ], [ 15.05, 53.06 ], [ 15.07, 53.05 ], [ 15.08, 53.04 ], [ 15.14, 53.03 ], [ 15.15, 53.06 ], [ 15.19, 53.08 ], [ 15.21, 53.07 ], [ 15.22, 53.06 ], [ 15.27, 53.06 ], [ 15.3, 53.07 ], [ 15.32, 53.07 ], [ 15.35, 53.07 ], [ 15.36, 53.07 ], [ 15.37, 53.07 ], [ 15.39, 53.08 ], [ 15.4, 53.09 ], [ 15.36, 53.11 ], [ 15.34, 53.14 ], [ 15.37, 53.2 ], [ 15.34, 53.22 ], [ 15.36, 53.25 ], [ 15.42, 53.24 ], [ 15.44, 53.24 ], [ 15.49, 53.24 ], [ 15.51, 53.26 ], [ 15.54, 53.27 ], [ 15.54, 53.3 ], [ 15.54, 53.32 ], [ 15.55, 53.32 ], [ 15.57, 53.32 ], [ 15.58, 53.32 ], [ 15.59, 53.32 ], [ 15.61, 53.33 ], [ 15.66, 53.34 ], [ 15.69, 53.31 ], [ 15.75, 53.32 ], [ 15.77, 53.31 ], [ 15.79, 53.27 ], [ 15.84, 53.22 ], [ 15.88, 53.24 ], [ 15.9, 53.22 ], [ 15.94, 53.22 ], [ 15.98, 53.22 ], [ 16.03, 53.27 ], [ 16.06, 53.29 ], [ 16.07, 53.29 ], [ 16.07, 53.31 ], [ 16.04, 53.31 ], [ 16.01, 53.32 ], [ 16.0, 53.34 ], [ 16.0, 53.35 ], [ 15.99, 53.37 ], [ 16.01, 53.4 ], [ 16.03, 53.4 ], [ 16.06, 53.37 ], [ 16.1, 53.38 ], [ 16.14, 53.37 ], [ 16.22, 53.39 ], [ 16.32, 53.4 ], [ 16.38, 53.43 ], [ 16.33, 53.48 ], [ 16.26, 53.51 ], [ 16.31, 53.54 ], [ 16.33, 53.54 ], [ 16.35, 53.54 ], [ 16.36, 53.53 ], [ 16.41, 53.53 ], [ 16.51, 53.55 ], [ 16.55, 53.53 ], [ 16.65, 53.5 ], [ 16.66, 53.46 ], [ 16.72, 53.44 ], [ 16.71, 53.41 ], [ 16.75, 53.39 ], [ 16.77, 53.43 ], [ 16.8, 53.44 ], [ 16.82, 53.46 ], [ 16.83, 53.46 ], [ 16.86, 53.44 ], [ 16.89, 53.44 ], [ 16.89, 53.45 ], [ 16.91, 53.46 ], [ 16.91, 53.47 ], [ 16.92, 53.47 ], [ 16.93, 53.47 ], [ 16.93, 53.48 ], [ 16.94, 53.49 ], [ 16.95, 53.49 ], [ 16.94, 53.5 ], [ 16.95, 53.51 ], [ 16.95, 53.52 ], [ 16.95, 53.54 ], [ 16.95, 53.56 ], [ 16.92, 53.6 ], [ 16.9, 53.63 ], [ 16.89, 53.67 ], [ 16.88, 53.69 ], [ 16.88, 53.72 ], [ 16.86, 53.75 ], [ 16.84, 53.78 ], [ 16.82, 53.8 ], [ 16.83, 53.82 ], [ 16.83, 53.84 ], [ 16.85, 53.87 ], [ 16.83, 53.89 ], [ 16.81, 53.88 ], [ 16.79, 53.87 ], [ 16.77, 53.88 ], [ 16.75, 53.9 ], [ 16.77, 53.91 ], [ 16.79, 53.9 ], [ 16.8, 53.92 ], [ 16.82, 53.92 ], [ 16.85, 53.93 ], [ 16.88, 53.94 ], [ 16.92, 53.92 ], [ 16.96, 53.91 ], [ 16.99, 53.91 ], [ 16.99, 53.92 ], [ 17.01, 53.92 ], [ 17.03, 53.94 ], [ 17.02, 53.95 ], [ 17.02, 53.97 ], [ 17.05, 53.97 ], [ 17.08, 53.97 ], [ 17.11, 53.97 ], [ 17.11, 53.99 ], [ 17.12, 54.0 ], [ 17.14, 54.0 ], [ 17.15, 54.0 ], [ 17.18, 54.01 ], [ 17.21, 54.02 ], [ 17.22, 54.03 ], [ 17.22, 54.04 ], [ 17.23, 54.04 ], [ 17.26, 54.04 ], [ 17.29, 54.05 ], [ 17.33, 54.05 ], [ 17.35, 54.06 ], [ 17.37, 54.08 ], [ 17.44, 54.07 ], [ 17.48, 54.05 ], [ 17.52, 54.04 ], [ 17.55, 54.04 ], [ 17.58, 54.03 ], [ 17.63, 54.03 ], [ 17.65, 54.03 ], [ 17.66, 54.05 ], [ 17.67, 54.07 ], [ 17.68, 54.08 ], [ 17.69, 54.09 ], [ 17.69, 54.11 ], [ 17.69, 54.12 ], [ 17.68, 54.14 ], [ 17.66, 54.16 ], [ 17.66, 54.17 ], [ 17.65, 54.18 ], [ 17.62, 54.18 ], [ 17.61, 54.19 ], [ 17.6, 54.21 ], [ 17.58, 54.23 ], [ 17.59, 54.25 ], [ 17.61, 54.26 ], [ 17.63, 54.25 ], [ 17.64, 54.25 ], [ 17.67, 54.27 ], [ 17.7, 54.3 ], [ 17.7, 54.32 ], [ 17.73, 54.32 ], [ 17.75, 54.33 ], [ 17.75, 54.34 ], [ 17.75, 54.35 ], [ 17.76, 54.36 ], [ 17.77, 54.36 ], [ 17.81, 54.39 ], [ 17.8, 54.39 ], [ 17.81, 54.41 ], [ 17.84, 54.41 ], [ 17.86, 54.41 ], [ 17.88, 54.41 ], [ 17.85, 54.45 ], [ 17.84, 54.46 ], [ 17.83, 54.46 ], [ 17.81, 54.47 ], [ 17.82, 54.47 ], [ 17.81, 54.48 ], [ 17.82, 54.49 ], [ 17.84, 54.49 ], [ 17.85, 54.49 ], [ 17.85, 54.48 ], [ 17.86, 54.47 ], [ 17.87, 54.48 ], [ 17.89, 54.48 ], [ 17.89, 54.49 ], [ 17.92, 54.49 ], [ 17.94, 54.5 ], [ 17.94, 54.49 ], [ 17.95, 54.5 ], [ 17.97, 54.5 ], [ 17.97, 54.48 ], [ 17.96, 54.48 ], [ 17.95, 54.47 ], [ 17.98, 54.47 ], [ 17.99, 54.49 ], [ 18.0, 54.5 ], [ 18.01, 54.5 ], [ 18.0, 54.51 ], [ 18.01, 54.52 ], [ 18.01, 54.53 ], [ 18.02, 54.53 ], [ 18.04, 54.53 ], [ 18.05, 54.54 ], [ 18.03, 54.56 ], [ 18.02, 54.56 ], [ 18.03, 54.57 ], [ 18.02, 54.58 ], [ 18.02, 54.61 ], [ 18.05, 54.61 ], [ 18.06, 54.61 ], [ 18.05, 54.63 ], [ 18.07, 54.63 ], [ 18.08, 54.65 ], [ 18.09, 54.67 ], [ 18.08, 54.68 ], [ 18.07, 54.69 ], [ 18.06, 54.7 ], [ 18.05, 54.7 ], [ 18.04, 54.72 ], [ 18.01, 54.74 ], [ 18.01, 54.75 ], [ 17.98, 54.76 ], [ 17.97, 54.77 ], [ 17.98, 54.79 ], [ 18.0, 54.79 ], [ 18.0, 54.78 ], [ 18.01, 54.78 ], [ 18.03, 54.78 ], [ 18.05, 54.81 ], [ 18.06, 54.84 ], [ 18.02, 54.83 ], [ 17.97, 54.82 ], [ 17.88, 54.81 ], [ 17.75, 54.79 ], [ 17.65, 54.77 ], [ 17.56, 54.75 ], [ 17.42, 54.75 ], [ 17.29, 54.73 ], [ 17.18, 54.7 ], [ 17.07, 54.67 ], [ 17.02, 54.64 ], [ 16.99, 54.62 ], [ 16.98, 54.62 ], [ 16.96, 54.61 ], [ 16.87, 54.58 ], [ 16.83, 54.58 ], [ 16.81, 54.57 ], [ 16.78, 54.57 ], [ 16.76, 54.56 ], [ 16.72, 54.56 ], [ 16.63, 54.56 ], [ 16.62, 54.56 ], [ 16.6, 54.55 ], [ 16.56, 54.54 ], [ 16.54, 54.54 ], [ 16.51, 54.52 ], [ 16.46, 54.5 ], [ 16.42, 54.47 ], [ 16.37, 54.43 ], [ 16.31, 54.38 ], [ 16.23, 54.32 ], [ 16.16, 54.29 ], [ 16.09, 54.27 ], [ 16.04, 54.25 ], [ 15.94, 54.24 ], [ 15.86, 54.24 ], [ 15.77, 54.21 ], [ 15.76, 54.21 ], [ 15.68, 54.2 ], [ 15.67, 54.2 ], [ 15.55, 54.18 ], [ 15.52, 54.17 ], [ 15.5, 54.16 ], [ 15.45, 54.16 ], [ 15.43, 54.16 ], [ 15.39, 54.15 ], [ 15.32, 54.15 ], [ 15.26, 54.14 ], [ 15.18, 54.12 ], [ 15.03, 54.09 ], [ 14.96, 54.07 ], [ 14.89, 54.05 ], [ 14.77, 54.03 ], [ 14.73, 54.02 ], [ 14.74, 54.02 ], [ 14.75, 54.02 ], [ 14.76, 54.02 ], [ 14.79, 54.03 ], [ 14.8, 54.03 ], [ 14.8, 54.02 ], [ 14.8, 54.01 ], [ 14.79, 54.0 ], [ 14.77, 54.0 ], [ 14.76, 53.95 ], [ 14.76, 53.93 ], [ 14.75, 53.92 ], [ 14.75, 53.93 ], [ 14.74, 53.94 ], [ 14.73, 53.93 ], [ 14.7, 53.92 ], [ 14.66, 53.89 ], [ 14.63, 53.86 ], [ 14.61, 53.82 ], [ 14.62, 53.81 ], [ 14.61, 53.79 ], [ 14.62, 53.77 ], [ 14.61, 53.76 ], [ 14.6, 53.76 ], [ 14.59, 53.76 ], [ 14.57, 53.75 ], [ 14.57, 53.76 ], [ 14.56, 53.76 ], [ 14.55, 53.73 ], [ 14.54, 53.7 ], [ 14.55, 53.7 ], [ 14.54, 53.68 ], [ 14.55, 53.67 ], [ 14.56, 53.66 ], [ 14.57, 53.66 ], [ 14.57, 53.65 ], [ 14.59, 53.66 ], [ 14.61, 53.65 ], [ 14.62, 53.65 ], [ 14.62, 53.64 ], [ 14.61, 53.64 ], [ 14.61, 53.63 ], [ 14.59, 53.62 ], [ 14.59, 53.61 ], [ 14.59, 53.6 ], [ 14.6, 53.6 ], [ 14.6, 53.59 ], [ 14.6, 53.58 ], [ 14.6, 53.57 ], [ 14.6, 53.56 ], [ 14.62, 53.55 ], [ 14.63, 53.54 ], [ 14.64, 53.53 ], [ 14.65, 53.53 ], [ 14.66, 53.53 ], [ 14.67, 53.53 ], [ 14.67, 53.52 ], [ 14.67, 53.51 ], [ 14.68, 53.51 ], [ 14.69, 53.51 ], [ 14.7, 53.5 ], [ 14.69, 53.49 ], [ 14.69, 53.48 ], [ 14.69, 53.47 ], [ 14.7, 53.47 ], [ 14.71, 53.46 ], [ 14.71, 53.45 ], [ 14.7, 53.44 ], [ 14.67, 53.43 ], [ 14.65, 53.42 ], [ 14.65, 53.41 ], [ 14.66, 53.4 ], [ 14.65, 53.4 ], [ 14.64, 53.39 ], [ 14.63, 53.4 ], [ 14.62, 53.41 ], [ 14.63, 53.42 ], [ 14.62, 53.42 ], [ 14.61, 53.42 ], [ 14.6, 53.42 ], [ 14.6, 53.44 ], [ 14.6, 53.45 ], [ 14.61, 53.45 ], [ 14.62, 53.46 ], [ 14.63, 53.47 ], [ 14.64, 53.48 ], [ 14.64, 53.49 ], [ 14.64, 53.51 ], [ 14.63, 53.52 ], [ 14.62, 53.53 ], [ 14.61, 53.54 ], [ 14.59, 53.54 ], [ 14.58, 53.54 ], [ 14.58, 53.55 ], [ 14.57, 53.56 ], [ 14.57, 53.57 ], [ 14.57, 53.58 ], [ 14.56, 53.58 ], [ 14.56, 53.59 ], [ 14.56, 53.61 ], [ 14.55, 53.64 ], [ 14.53, 53.65 ], [ 14.51, 53.66 ], [ 14.47, 53.67 ], [ 14.42, 53.68 ], [ 14.4, 53.68 ], [ 14.38, 53.69 ], [ 14.34, 53.71 ], [ 14.32, 53.74 ], [ 14.3, 53.74 ], [ 14.29, 53.74 ], [ 14.31, 53.73 ], [ 14.29, 53.73 ], [ 14.28, 53.72 ], [ 14.29, 53.72 ], [ 14.3, 53.71 ], [ 14.3, 53.7 ], [ 14.27, 53.69 ], [ 14.25, 53.69 ], [ 14.23, 53.7 ], [ 14.22, 53.7 ], [ 14.22, 53.71 ], [ 14.23, 53.71 ], [ 14.24, 53.71 ], [ 14.25, 53.72 ], [ 14.26, 53.72 ], [ 14.27, 53.74 ], [ 14.27, 53.75 ], [ 14.26, 53.75 ], [ 14.26, 53.76 ], [ 14.24, 53.76 ], [ 14.23, 53.76 ], [ 14.22, 53.75 ], [ 14.2, 53.74 ], [ 14.19, 53.74 ], [ 14.17, 53.74 ], [ 14.16, 53.74 ], [ 14.15, 53.74 ], [ 14.14, 53.74 ], [ 14.13, 53.74 ], [ 14.11, 53.74 ], [ 14.08, 53.74 ], [ 14.08, 53.75 ], [ 14.07, 53.76 ], [ 14.06, 53.76 ], [ 14.05, 53.76 ], [ 14.04, 53.76 ], [ 14.03, 53.76 ], [ 14.01, 53.76 ], [ 13.97, 53.77 ], [ 13.95, 53.78 ], [ 13.94, 53.79 ], [ 13.92, 53.8 ], [ 13.91, 53.8 ], [ 13.88, 53.82 ], [ 13.88, 53.83 ], [ 13.85, 53.84 ], [ 13.82, 53.84 ], [ 13.81, 53.85 ], [ 13.85, 53.88 ], [ 13.86, 53.88 ], [ 13.88, 53.9 ], [ 13.91, 53.91 ], [ 13.92, 53.92 ], [ 13.91, 53.93 ], [ 13.88, 53.95 ], [ 13.87, 53.95 ], [ 13.86, 53.95 ], [ 13.86, 53.96 ], [ 13.84, 53.98 ], [ 13.83, 53.98 ], [ 13.82, 53.99 ], [ 13.8, 53.99 ], [ 13.78, 54.01 ], [ 13.76, 54.01 ], [ 13.76, 54.02 ], [ 13.75, 54.02 ], [ 13.74, 54.03 ], [ 13.75, 54.03 ], [ 13.76, 54.04 ], [ 13.77, 54.04 ], [ 13.8, 54.07 ], [ 13.8, 54.09 ], [ 13.8, 54.1 ], [ 13.79, 54.1 ], [ 13.78, 54.11 ], [ 13.75, 54.13 ], [ 13.74, 54.14 ], [ 13.73, 54.14 ], [ 13.72, 54.15 ], [ 13.71, 54.15 ], [ 13.7, 54.15 ], [ 13.71, 54.16 ], [ 13.71, 54.17 ], [ 13.7, 54.17 ], [ 13.69, 54.17 ], [ 13.69, 54.16 ], [ 13.67, 54.16 ], [ 13.64, 54.14 ], [ 13.63, 54.14 ], [ 13.61, 54.13 ], [ 13.56, 54.13 ], [ 13.54, 54.13 ], [ 13.52, 54.13 ], [ 13.49, 54.12 ], [ 13.48, 54.11 ], [ 13.49, 54.11 ], [ 13.5, 54.09 ], [ 13.5, 54.08 ], [ 13.48, 54.09 ], [ 13.46, 54.09 ], [ 13.45, 54.11 ], [ 13.44, 54.12 ], [ 13.43, 54.13 ], [ 13.42, 54.14 ], [ 13.4, 54.14 ], [ 13.39, 54.15 ], [ 13.4, 54.16 ], [ 13.42, 54.16 ], [ 13.42, 54.17 ], [ 13.4, 54.18 ], [ 13.4, 54.17 ], [ 13.39, 54.17 ], [ 13.38, 54.17 ], [ 13.37, 54.17 ], [ 13.36, 54.16 ], [ 13.35, 54.16 ], [ 13.34, 54.16 ], [ 13.33, 54.16 ], [ 13.34, 54.17 ], [ 13.33, 54.18 ], [ 13.31, 54.2 ], [ 13.3, 54.22 ], [ 13.29, 54.23 ], [ 13.28, 54.23 ], [ 13.26, 54.24 ], [ 13.22, 54.24 ], [ 13.21, 54.25 ], [ 13.19, 54.25 ], [ 13.19, 54.26 ], [ 13.18, 54.26 ], [ 13.17, 54.27 ], [ 13.16, 54.27 ], [ 13.15, 54.26 ], [ 13.13, 54.26 ], [ 13.12, 54.26 ], [ 13.11, 54.28 ], [ 13.1, 54.3 ], [ 13.08, 54.31 ], [ 13.08, 54.33 ], [ 13.08, 54.34 ], [ 13.08, 54.35 ], [ 13.09, 54.35 ], [ 13.1, 54.36 ], [ 13.09, 54.37 ], [ 13.08, 54.37 ], [ 13.06, 54.37 ], [ 13.05, 54.37 ], [ 13.04, 54.38 ], [ 13.02, 54.39 ], [ 13.02, 54.41 ], [ 13.03, 54.43 ], [ 13.01, 54.43 ], [ 12.99, 54.42 ], [ 12.97, 54.42 ], [ 12.94, 54.41 ], [ 12.91, 54.4 ], [ 12.89, 54.39 ], [ 12.88, 54.36 ], [ 12.84, 54.35 ], [ 12.82, 54.34 ], [ 12.81, 54.34 ], [ 12.79, 54.34 ], [ 12.81, 54.35 ], [ 12.8, 54.37 ], [ 12.78, 54.37 ], [ 12.78, 54.39 ], [ 12.77, 54.39 ], [ 12.76, 54.37 ], [ 12.73, 54.37 ], [ 12.71, 54.37 ], [ 12.71, 54.38 ], [ 12.71, 54.39 ], [ 12.7, 54.39 ], [ 12.72, 54.4 ], [ 12.71, 54.4 ], [ 12.7, 54.41 ], [ 12.66, 54.4 ], [ 12.66, 54.39 ], [ 12.67, 54.38 ], [ 12.66, 54.38 ], [ 12.64, 54.38 ], [ 12.62, 54.37 ], [ 12.6, 54.36 ], [ 12.59, 54.35 ], [ 12.58, 54.35 ], [ 12.57, 54.35 ], [ 12.57, 54.36 ], [ 12.58, 54.36 ], [ 12.58, 54.37 ], [ 12.55, 54.37 ], [ 12.53, 54.36 ], [ 12.54, 54.36 ], [ 12.55, 54.35 ], [ 12.54, 54.35 ], [ 12.54, 54.33 ], [ 12.53, 54.33 ], [ 12.51, 54.33 ], [ 12.49, 54.32 ], [ 12.47, 54.33 ], [ 12.47, 54.32 ], [ 12.47, 54.31 ], [ 12.48, 54.3 ], [ 12.47, 54.3 ], [ 12.47, 54.29 ], [ 12.46, 54.29 ], [ 12.44, 54.29 ], [ 12.42, 54.29 ], [ 12.42, 54.28 ], [ 12.4, 54.27 ], [ 12.4, 54.26 ], [ 12.42, 54.25 ], [ 12.44, 54.25 ], [ 12.48, 54.24 ], [ 12.51, 54.23 ], [ 12.52, 54.23 ], [ 12.53, 54.22 ], [ 12.54, 54.21 ], [ 12.55, 54.2 ], [ 12.57, 54.17 ], [ 12.58, 54.16 ], [ 12.6, 54.15 ], [ 12.62, 54.13 ], [ 12.65, 54.12 ], [ 12.7, 54.11 ], [ 12.72, 54.1 ], [ 12.75, 54.07 ], [ 12.76, 54.06 ], [ 12.76, 54.04 ], [ 12.79, 54.01 ], [ 12.81, 54.0 ], [ 12.86, 53.97 ], [ 12.91, 53.96 ], [ 12.92, 53.96 ], [ 12.9, 53.93 ], [ 12.92, 53.92 ], [ 12.96, 53.92 ], [ 12.96, 53.91 ], [ 12.97, 53.91 ], [ 12.99, 53.9 ], [ 13.0, 53.88 ], [ 12.98, 53.88 ] ], [ [ 13.18, 54.26 ], [ 13.15, 54.25 ], [ 13.16, 54.26 ], [ 13.17, 54.26 ], [ 13.18, 54.26 ] ], [ [ 12.7, 54.39 ], [ 12.7, 54.38 ], [ 12.69, 54.38 ], [ 12.68, 54.39 ], [ 12.7, 54.39 ] ] ], [ [ [ 12.45, 54.38 ], [ 12.46, 54.39 ], [ 12.47, 54.39 ], [ 12.48, 54.38 ], [ 12.5, 54.37 ], [ 12.51, 54.37 ], [ 12.52, 54.37 ], [ 12.53, 54.38 ], [ 12.54, 54.38 ], [ 12.55, 54.39 ], [ 12.56, 54.39 ], [ 12.58, 54.38 ], [ 12.59, 54.38 ], [ 12.59, 54.39 ], [ 12.58, 54.39 ], [ 12.58, 54.4 ], [ 12.59, 54.4 ], [ 12.6, 54.4 ], [ 12.61, 54.41 ], [ 12.62, 54.41 ], [ 12.63, 54.42 ], [ 12.64, 54.41 ], [ 12.65, 54.41 ], [ 12.66, 54.4 ], [ 12.67, 54.4 ], [ 12.67, 54.41 ], [ 12.68, 54.42 ], [ 12.69, 54.43 ], [ 12.7, 54.42 ], [ 12.71, 54.42 ], [ 12.72, 54.43 ], [ 12.73, 54.42 ], [ 12.73, 54.41 ], [ 12.76, 54.41 ], [ 12.77, 54.41 ], [ 12.78, 54.41 ], [ 12.8, 54.41 ], [ 12.81, 54.41 ], [ 12.82, 54.42 ], [ 12.84, 54.42 ], [ 12.86, 54.41 ], [ 12.88, 54.41 ], [ 12.89, 54.41 ], [ 12.9, 54.42 ], [ 12.92, 54.42 ], [ 12.93, 54.42 ], [ 12.92, 54.43 ], [ 12.9, 54.44 ], [ 12.67, 54.44 ], [ 12.64, 54.44 ], [ 12.61, 54.45 ], [ 12.57, 54.45 ], [ 12.55, 54.45 ], [ 12.54, 54.45 ], [ 12.53, 54.46 ], [ 12.52, 54.47 ], [ 12.51, 54.47 ], [ 12.49, 54.46 ], [ 12.48, 54.44 ], [ 12.48, 54.43 ], [ 12.46, 54.4 ], [ 12.42, 54.38 ], [ 12.42, 54.37 ], [ 12.45, 54.38 ] ] ], [ [ [ 13.4, 54.67 ], [ 13.38, 54.68 ], [ 13.34, 54.67 ], [ 13.31, 54.67 ], [ 13.27, 54.66 ], [ 13.23, 54.64 ], [ 13.22, 54.63 ], [ 13.22, 54.61 ], [ 13.22, 54.6 ], [ 13.22, 54.59 ], [ 13.2, 54.58 ], [ 13.18, 54.57 ], [ 13.17, 54.56 ], [ 13.17, 54.55 ], [ 13.18, 54.56 ], [ 13.19, 54.57 ], [ 13.21, 54.58 ], [ 13.23, 54.59 ], [ 13.23, 54.61 ], [ 13.24, 54.63 ], [ 13.27, 54.64 ], [ 13.28, 54.63 ], [ 13.28, 54.61 ], [ 13.28, 54.6 ], [ 13.26, 54.59 ], [ 13.25, 54.56 ], [ 13.25, 54.55 ], [ 13.27, 54.56 ], [ 13.28, 54.56 ], [ 13.29, 54.56 ], [ 13.31, 54.56 ], [ 13.33, 54.57 ], [ 13.33, 54.58 ], [ 13.33, 54.59 ], [ 13.34, 54.59 ], [ 13.36, 54.6 ], [ 13.36, 54.61 ], [ 13.37, 54.6 ], [ 13.38, 54.59 ], [ 13.38, 54.58 ], [ 13.39, 54.57 ], [ 13.4, 54.57 ], [ 13.42, 54.56 ], [ 13.44, 54.55 ], [ 13.47, 54.55 ], [ 13.48, 54.54 ], [ 13.48, 54.55 ], [ 13.5, 54.56 ], [ 13.51, 54.56 ], [ 13.51, 54.55 ], [ 13.5, 54.55 ], [ 13.5, 54.54 ], [ 13.51, 54.53 ], [ 13.51, 54.52 ], [ 13.51, 54.5 ], [ 13.51, 54.49 ], [ 13.5, 54.48 ], [ 13.5, 54.47 ], [ 13.49, 54.47 ], [ 13.46, 54.47 ], [ 13.45, 54.47 ], [ 13.44, 54.47 ], [ 13.44, 54.48 ], [ 13.42, 54.48 ], [ 13.41, 54.5 ], [ 13.41, 54.51 ], [ 13.41, 54.52 ], [ 13.38, 54.54 ], [ 13.38, 54.55 ], [ 13.37, 54.55 ], [ 13.36, 54.55 ], [ 13.36, 54.56 ], [ 13.37, 54.57 ], [ 13.35, 54.57 ], [ 13.33, 54.56 ], [ 13.3, 54.55 ], [ 13.31, 54.54 ], [ 13.31, 54.52 ], [ 13.31, 54.51 ], [ 13.3, 54.51 ], [ 13.29, 54.51 ], [ 13.3, 54.52 ], [ 13.29, 54.53 ], [ 13.27, 54.53 ], [ 13.26, 54.54 ], [ 13.25, 54.54 ], [ 13.23, 54.54 ], [ 13.18, 54.54 ], [ 13.15, 54.54 ], [ 13.16, 54.53 ], [ 13.16, 54.51 ], [ 13.17, 54.5 ], [ 13.18, 54.5 ], [ 13.2, 54.5 ], [ 13.21, 54.5 ], [ 13.23, 54.5 ], [ 13.23, 54.49 ], [ 13.23, 54.48 ], [ 13.24, 54.47 ], [ 13.25, 54.48 ], [ 13.26, 54.47 ], [ 13.24, 54.46 ], [ 13.23, 54.45 ], [ 13.22, 54.45 ], [ 13.21, 54.45 ], [ 13.2, 54.44 ], [ 13.19, 54.44 ], [ 13.18, 54.45 ], [ 13.18, 54.44 ], [ 13.17, 54.44 ], [ 13.16, 54.43 ], [ 13.15, 54.42 ], [ 13.16, 54.41 ], [ 13.17, 54.42 ], [ 13.18, 54.41 ], [ 13.19, 54.41 ], [ 13.19, 54.42 ], [ 13.19, 54.43 ], [ 13.21, 54.42 ], [ 13.21, 54.41 ], [ 13.22, 54.4 ], [ 13.24, 54.4 ], [ 13.23, 54.39 ], [ 13.24, 54.39 ], [ 13.24, 54.38 ], [ 13.25, 54.38 ], [ 13.26, 54.38 ], [ 13.26, 54.37 ], [ 13.25, 54.37 ], [ 13.23, 54.36 ], [ 13.22, 54.36 ], [ 13.19, 54.36 ], [ 13.17, 54.36 ], [ 13.16, 54.36 ], [ 13.15, 54.36 ], [ 13.13, 54.37 ], [ 13.11, 54.34 ], [ 13.11, 54.33 ], [ 13.11, 54.32 ], [ 13.12, 54.32 ], [ 13.13, 54.31 ], [ 13.14, 54.31 ], [ 13.14, 54.3 ], [ 13.15, 54.3 ], [ 13.16, 54.3 ], [ 13.17, 54.3 ], [ 13.18, 54.3 ], [ 13.18, 54.29 ], [ 13.17, 54.29 ], [ 13.16, 54.29 ], [ 13.15, 54.29 ], [ 13.14, 54.29 ], [ 13.14, 54.28 ], [ 13.14, 54.27 ], [ 13.15, 54.27 ], [ 13.16, 54.28 ], [ 13.18, 54.28 ], [ 13.19, 54.28 ], [ 13.19, 54.29 ], [ 13.2, 54.28 ], [ 13.19, 54.27 ], [ 13.2, 54.26 ], [ 13.24, 54.26 ], [ 13.26, 54.25 ], [ 13.28, 54.25 ], [ 13.29, 54.25 ], [ 13.31, 54.25 ], [ 13.31, 54.26 ], [ 13.33, 54.27 ], [ 13.34, 54.26 ], [ 13.32, 54.26 ], [ 13.32, 54.24 ], [ 13.36, 54.23 ], [ 13.39, 54.22 ], [ 13.42, 54.23 ], [ 13.42, 54.24 ], [ 13.42, 54.25 ], [ 13.4, 54.25 ], [ 13.39, 54.25 ], [ 13.38, 54.25 ], [ 13.37, 54.25 ], [ 13.37, 54.24 ], [ 13.36, 54.24 ], [ 13.35, 54.24 ], [ 13.36, 54.26 ], [ 13.38, 54.27 ], [ 13.39, 54.26 ], [ 13.42, 54.3 ], [ 13.46, 54.31 ], [ 13.46, 54.32 ], [ 13.48, 54.32 ], [ 13.5, 54.33 ], [ 13.55, 54.33 ], [ 13.57, 54.34 ], [ 13.59, 54.34 ], [ 13.62, 54.32 ], [ 13.63, 54.33 ], [ 13.64, 54.33 ], [ 13.64, 54.34 ], [ 13.65, 54.34 ], [ 13.67, 54.34 ], [ 13.68, 54.34 ], [ 13.67, 54.33 ], [ 13.62, 54.31 ], [ 13.64, 54.31 ], [ 13.68, 54.32 ], [ 13.69, 54.32 ], [ 13.7, 54.32 ], [ 13.71, 54.31 ], [ 13.65, 54.29 ], [ 13.65, 54.28 ], [ 13.66, 54.28 ], [ 13.69, 54.29 ], [ 13.7, 54.29 ], [ 13.71, 54.28 ], [ 13.71, 54.27 ], [ 13.7, 54.27 ], [ 13.69, 54.28 ], [ 13.68, 54.27 ], [ 13.7, 54.26 ], [ 13.71, 54.26 ], [ 13.72, 54.26 ], [ 13.73, 54.27 ], [ 13.72, 54.27 ], [ 13.72, 54.29 ], [ 13.73, 54.31 ], [ 13.74, 54.32 ], [ 13.76, 54.33 ], [ 13.76, 54.34 ], [ 13.72, 54.35 ], [ 13.7, 54.37 ], [ 13.67, 54.39 ], [ 13.63, 54.39 ], [ 13.62, 54.39 ], [ 13.6, 54.4 ], [ 13.57, 54.44 ], [ 13.57, 54.47 ], [ 13.61, 54.49 ], [ 13.67, 54.52 ], [ 13.68, 54.54 ], [ 13.68, 54.55 ], [ 13.67, 54.56 ], [ 13.65, 54.57 ], [ 13.63, 54.58 ], [ 13.58, 54.58 ], [ 13.51, 54.57 ], [ 13.44, 54.56 ], [ 13.42, 54.57 ], [ 13.41, 54.58 ], [ 13.4, 54.59 ], [ 13.38, 54.6 ], [ 13.38, 54.62 ], [ 13.37, 54.62 ], [ 13.38, 54.63 ], [ 13.38, 54.64 ], [ 13.39, 54.64 ], [ 13.39, 54.65 ], [ 13.42, 54.65 ], [ 13.43, 54.66 ], [ 13.44, 54.67 ], [ 13.43, 54.68 ], [ 13.4, 54.67 ] ] ], [ [ [ 13.18, 54.48 ], [ 13.16, 54.48 ], [ 13.14, 54.46 ], [ 13.13, 54.45 ], [ 13.12, 54.44 ], [ 13.12, 54.43 ], [ 13.13, 54.43 ], [ 13.14, 54.44 ], [ 13.16, 54.44 ], [ 13.18, 54.45 ], [ 13.2, 54.46 ], [ 13.22, 54.46 ], [ 13.23, 54.46 ], [ 13.22, 54.47 ], [ 13.22, 54.48 ], [ 13.21, 54.48 ], [ 13.2, 54.48 ], [ 13.19, 54.48 ], [ 13.18, 54.48 ] ] ], [ [ [ 12.77, 53.72 ], [ 12.76, 53.71 ], [ 12.76, 53.7 ], [ 12.78, 53.69 ], [ 12.79, 53.68 ], [ 12.8, 53.66 ], [ 12.79, 53.65 ], [ 12.79, 53.64 ], [ 12.8, 53.62 ], [ 12.82, 53.6 ], [ 12.83, 53.6 ], [ 12.84, 53.6 ], [ 12.86, 53.62 ], [ 12.87, 53.66 ], [ 12.86, 53.67 ], [ 12.85, 53.67 ], [ 12.84, 53.68 ], [ 12.82, 53.69 ], [ 12.8, 53.71 ], [ 12.77, 53.72 ] ] ], [ [ [ 14.61, 53.99 ], [ 14.54, 53.97 ], [ 14.49, 53.96 ], [ 14.45, 53.94 ], [ 14.39, 53.91 ], [ 14.36, 53.91 ], [ 14.33, 53.91 ], [ 14.29, 53.92 ], [ 14.27, 53.9 ], [ 14.27, 53.89 ], [ 14.29, 53.88 ], [ 14.29, 53.86 ], [ 14.31, 53.87 ], [ 14.34, 53.87 ], [ 14.35, 53.86 ], [ 14.36, 53.86 ], [ 14.38, 53.86 ], [ 14.38, 53.87 ], [ 14.37, 53.87 ], [ 14.36, 53.88 ], [ 14.37, 53.88 ], [ 14.39, 53.89 ], [ 14.4, 53.89 ], [ 14.41, 53.89 ], [ 14.42, 53.89 ], [ 14.43, 53.9 ], [ 14.43, 53.89 ], [ 14.42, 53.87 ], [ 14.42, 53.86 ], [ 14.43, 53.86 ], [ 14.46, 53.86 ], [ 14.52, 53.86 ], [ 14.55, 53.85 ], [ 14.57, 53.85 ], [ 14.58, 53.83 ], [ 14.57, 53.82 ], [ 14.57, 53.81 ], [ 14.58, 53.81 ], [ 14.58, 53.8 ], [ 14.59, 53.8 ], [ 14.59, 53.82 ], [ 14.6, 53.82 ], [ 14.6, 53.83 ], [ 14.61, 53.84 ], [ 14.61, 53.86 ], [ 14.61, 53.87 ], [ 14.62, 53.87 ], [ 14.63, 53.88 ], [ 14.63, 53.89 ], [ 14.64, 53.9 ], [ 14.67, 53.92 ], [ 14.68, 53.93 ], [ 14.69, 53.93 ], [ 14.69, 53.94 ], [ 14.69, 53.95 ], [ 14.69, 53.96 ], [ 14.7, 53.98 ], [ 14.7, 53.99 ], [ 14.76, 54.01 ], [ 14.74, 54.01 ], [ 14.72, 54.01 ], [ 14.61, 53.99 ] ] ], [ [ [ 13.92, 54.08 ], [ 13.88, 54.11 ], [ 13.85, 54.13 ], [ 13.83, 54.15 ], [ 13.8, 54.17 ], [ 13.78, 54.17 ], [ 13.76, 54.16 ], [ 13.76, 54.15 ], [ 13.77, 54.14 ], [ 13.78, 54.13 ], [ 13.79, 54.13 ], [ 13.79, 54.12 ], [ 13.8, 54.11 ], [ 13.81, 54.11 ], [ 13.82, 54.1 ], [ 13.81, 54.06 ], [ 13.79, 54.05 ], [ 13.78, 54.03 ], [ 13.78, 54.02 ], [ 13.8, 54.02 ], [ 13.82, 54.04 ], [ 13.84, 54.04 ], [ 13.86, 54.05 ], [ 13.87, 54.04 ], [ 13.88, 54.04 ], [ 13.87, 54.03 ], [ 13.86, 54.01 ], [ 13.86, 54.0 ], [ 13.87, 54.01 ], [ 13.89, 54.01 ], [ 13.9, 54.02 ], [ 13.91, 54.03 ], [ 13.92, 54.03 ], [ 13.92, 54.04 ], [ 13.91, 54.05 ], [ 13.91, 54.06 ], [ 13.92, 54.06 ], [ 13.93, 54.06 ], [ 13.98, 54.06 ], [ 14.01, 54.04 ], [ 14.01, 54.03 ], [ 14.01, 54.02 ], [ 14.01, 54.01 ], [ 14.02, 54.01 ], [ 14.03, 54.01 ], [ 14.04, 54.0 ], [ 14.05, 54.0 ], [ 14.05, 53.99 ], [ 14.05, 53.98 ], [ 14.05, 53.97 ], [ 14.05, 53.96 ], [ 14.04, 53.95 ], [ 14.05, 53.94 ], [ 14.04, 53.94 ], [ 14.03, 53.94 ], [ 14.02, 53.94 ], [ 14.02, 53.95 ], [ 14.02, 53.96 ], [ 13.99, 53.96 ], [ 13.97, 53.96 ], [ 13.98, 53.97 ], [ 13.97, 53.98 ], [ 13.96, 53.99 ], [ 13.94, 53.99 ], [ 13.92, 53.99 ], [ 13.91, 53.97 ], [ 13.91, 53.96 ], [ 13.93, 53.95 ], [ 13.94, 53.92 ], [ 13.94, 53.91 ], [ 13.94, 53.89 ], [ 13.92, 53.88 ], [ 13.88, 53.87 ], [ 13.85, 53.87 ], [ 13.84, 53.86 ], [ 13.84, 53.85 ], [ 13.89, 53.84 ], [ 13.92, 53.84 ], [ 13.93, 53.85 ], [ 13.93, 53.84 ], [ 13.94, 53.84 ], [ 13.95, 53.84 ], [ 13.98, 53.85 ], [ 14.01, 53.85 ], [ 14.02, 53.85 ], [ 14.04, 53.87 ], [ 14.05, 53.87 ], [ 14.08, 53.87 ], [ 14.09, 53.87 ], [ 14.1, 53.87 ], [ 14.11, 53.87 ], [ 14.12, 53.87 ], [ 14.17, 53.87 ], [ 14.18, 53.87 ], [ 14.19, 53.87 ], [ 14.2, 53.87 ], [ 14.21, 53.87 ], [ 14.23, 53.86 ], [ 14.29, 53.82 ], [ 14.33, 53.82 ], [ 14.34, 53.83 ], [ 14.38, 53.84 ], [ 14.38, 53.85 ], [ 14.35, 53.85 ], [ 14.34, 53.85 ], [ 14.34, 53.86 ], [ 14.33, 53.86 ], [ 14.31, 53.85 ], [ 14.3, 53.85 ], [ 14.28, 53.85 ], [ 14.27, 53.87 ], [ 14.26, 53.87 ], [ 14.26, 53.88 ], [ 14.27, 53.88 ], [ 14.26, 53.9 ], [ 14.27, 53.91 ], [ 14.28, 53.92 ], [ 14.25, 53.92 ], [ 14.22, 53.93 ], [ 14.18, 53.95 ], [ 14.14, 53.98 ], [ 14.07, 54.02 ], [ 14.02, 54.04 ], [ 13.99, 54.07 ], [ 13.92, 54.08 ] ], [ [ 13.97, 53.96 ], [ 13.98, 53.95 ], [ 13.97, 53.93 ], [ 13.96, 53.94 ], [ 13.96, 53.95 ], [ 13.96, 53.96 ], [ 13.97, 53.96 ] ], [ [ 13.93, 53.85 ], [ 13.93, 53.87 ], [ 13.95, 53.86 ], [ 13.96, 53.86 ], [ 13.96, 53.85 ], [ 13.95, 53.85 ], [ 13.94, 53.85 ], [ 13.93, 53.85 ] ] ] ] } }
]
}
