{
"type": "FeatureCollection",
"name": "PRU_SCHL_1914",
"crs": { "type": "name", "properties": { "name": "urn:ogc:def:crs:OGC:1.3:CRS84" } },
"features": [
{ "type": "Feature", "properties": { "name": "Schlesien" }, "geometry": { "type": "MultiPolygon", "coordinates": [ [ [ [ 16.44, 50.57 ], [ 16.43, 50.57 ], [ 16.41, 50.56 ], [ 16.41, 50.55 ], [ 16.39, 50.54 ], [ 16.4, 50.53 ], [ 16.39, 50.52 ], [ 16.37, 50.52 ], [ 16.36, 50.5 ], [ 16.34, 50.5 ], [ 16.33, 50.5 ], [ 16.32, 50.51 ], [ 16.31, 50.5 ], [ 16.31, 50.49 ], [ 16.29, 50.48 ], [ 16.27, 50.48 ], [ 16.26, 50.48 ], [ 16.25, 50.47 ], [ 16.26, 50.47 ], [ 16.23, 50.46 ], [ 16.23, 50.45 ], [ 16.23, 50.44 ], [ 16.22, 50.45 ], [ 16.21, 50.44 ], [ 16.2, 50.43 ], [ 16.21, 50.41 ], [ 16.22, 50.41 ], [ 16.24, 50.41 ], [ 16.25, 50.41 ], [ 16.25, 50.4 ], [ 16.26, 50.39 ], [ 16.27, 50.39 ], [ 16.27, 50.38 ], [ 16.28, 50.38 ], [ 16.28, 50.37 ], [ 16.29, 50.37 ], [ 16.3, 50.38 ], [ 16.31, 50.38 ], [ 16.34, 50.37 ], [ 16.36, 50.38 ], [ 16.37, 50.37 ], [ 16.37, 50.35 ], [ 16.36, 50.35 ], [ 16.38, 50.34 ], [ 16.38, 50.33 ], [ 16.4, 50.32 ], [ 16.41, 50.32 ], [ 16.42, 50.33 ], [ 16.44, 50.32 ], [ 16.45, 50.31 ], [ 16.46, 50.29 ], [ 16.47, 50.28 ], [ 16.5, 50.26 ], [ 16.51, 50.25 ], [ 16.52, 50.24 ], [ 16.53, 50.24 ], [ 16.54, 50.23 ], [ 16.55, 50.23 ], [ 16.56, 50.22 ], [ 16.56, 50.21 ], [ 16.56, 50.2 ], [ 16.56, 50.19 ], [ 16.56, 50.18 ], [ 16.56, 50.17 ], [ 16.57, 50.16 ], [ 16.59, 50.15 ], [ 16.59, 50.14 ], [ 16.61, 50.14 ], [ 16.62, 50.12 ], [ 16.63, 50.11 ], [ 16.67, 50.1 ], [ 16.69, 50.1 ], [ 16.71, 50.1 ], [ 16.72, 50.1 ], [ 16.73, 50.11 ], [ 16.73, 50.12 ], [ 16.74, 50.13 ], [ 16.75, 50.13 ], [ 16.78, 50.14 ], [ 16.8, 50.17 ], [ 16.8, 50.18 ], [ 16.81, 50.19 ], [ 16.84, 50.2 ], [ 16.85, 50.21 ], [ 16.86, 50.2 ], [ 16.87, 50.2 ], [ 16.88, 50.2 ], [ 16.88, 50.21 ], [ 16.89, 50.22 ], [ 16.9, 50.22 ], [ 16.92, 50.23 ], [ 16.93, 50.22 ], [ 16.95, 50.22 ], [ 16.96, 50.22 ], [ 16.97, 50.23 ], [ 16.96, 50.23 ], [ 16.96, 50.24 ], [ 16.98, 50.25 ], [ 16.98, 50.24 ], [ 16.99, 50.23 ], [ 17.0, 50.22 ], [ 17.02, 50.22 ], [ 17.03, 50.23 ], [ 17.02, 50.24 ], [ 17.01, 50.24 ], [ 17.01, 50.25 ], [ 17.0, 50.26 ], [ 17.01, 50.26 ], [ 17.02, 50.27 ], [ 17.02, 50.28 ], [ 17.01, 50.29 ], [ 17.01, 50.3 ], [ 17.0, 50.3 ], [ 16.98, 50.3 ], [ 16.97, 50.31 ], [ 16.97, 50.32 ], [ 16.96, 50.31 ], [ 16.95, 50.31 ], [ 16.94, 50.32 ], [ 16.93, 50.33 ], [ 16.94, 50.33 ], [ 16.94, 50.34 ], [ 16.93, 50.35 ], [ 16.91, 50.36 ], [ 16.92, 50.37 ], [ 16.91, 50.38 ], [ 16.91, 50.39 ], [ 16.9, 50.39 ], [ 16.89, 50.4 ], [ 16.88, 50.4 ], [ 16.86, 50.41 ], [ 16.87, 50.42 ], [ 16.88, 50.44 ], [ 16.89, 50.44 ], [ 16.9, 50.45 ], [ 16.91, 50.45 ], [ 16.92, 50.44 ], [ 16.95, 50.43 ], [ 16.97, 50.42 ], [ 16.98, 50.42 ], [ 17.0, 50.43 ], [ 17.01, 50.42 ], [ 17.02, 50.42 ], [ 17.03, 50.42 ], [ 17.04, 50.41 ], [ 17.05, 50.41 ], [ 17.07, 50.4 ], [ 17.08, 50.4 ], [ 17.09, 50.41 ], [ 17.11, 50.41 ], [ 17.11, 50.39 ], [ 17.12, 50.39 ], [ 17.13, 50.39 ], [ 17.14, 50.38 ], [ 17.16, 50.38 ], [ 17.18, 50.39 ], [ 17.19, 50.39 ], [ 17.2, 50.39 ], [ 17.2, 50.38 ], [ 17.2, 50.37 ], [ 17.22, 50.35 ], [ 17.24, 50.34 ], [ 17.26, 50.33 ], [ 17.28, 50.32 ], [ 17.3, 50.32 ], [ 17.31, 50.32 ], [ 17.33, 50.33 ], [ 17.35, 50.33 ], [ 17.34, 50.32 ], [ 17.34, 50.31 ], [ 17.35, 50.31 ], [ 17.35, 50.3 ], [ 17.34, 50.3 ], [ 17.35, 50.29 ], [ 17.34, 50.28 ], [ 17.35, 50.27 ], [ 17.36, 50.26 ], [ 17.36, 50.27 ], [ 17.36, 50.28 ], [ 17.37, 50.28 ], [ 17.4, 50.28 ], [ 17.41, 50.27 ], [ 17.42, 50.28 ], [ 17.43, 50.27 ], [ 17.43, 50.26 ], [ 17.44, 50.25 ], [ 17.46, 50.27 ], [ 17.5, 50.27 ], [ 17.56, 50.27 ], [ 17.59, 50.28 ], [ 17.62, 50.27 ], [ 17.64, 50.27 ], [ 17.65, 50.27 ], [ 17.69, 50.3 ], [ 17.69, 50.33 ], [ 17.7, 50.32 ], [ 17.72, 50.32 ], [ 17.73, 50.3 ], [ 17.74, 50.3 ], [ 17.75, 50.3 ], [ 17.75, 50.29 ], [ 17.74, 50.28 ], [ 17.73, 50.27 ], [ 17.73, 50.25 ], [ 17.75, 50.24 ], [ 17.76, 50.23 ], [ 17.76, 50.2 ], [ 17.75, 50.19 ], [ 17.74, 50.19 ], [ 17.71, 50.19 ], [ 17.7, 50.18 ], [ 17.68, 50.18 ], [ 17.67, 50.18 ], [ 17.66, 50.18 ], [ 17.64, 50.18 ], [ 17.63, 50.17 ], [ 17.62, 50.17 ], [ 17.61, 50.17 ], [ 17.6, 50.17 ], [ 17.59, 50.16 ], [ 17.6, 50.15 ], [ 17.61, 50.14 ], [ 17.62, 50.14 ], [ 17.63, 50.13 ], [ 17.64, 50.13 ], [ 17.65, 50.12 ], [ 17.65, 50.11 ], [ 17.66, 50.11 ], [ 17.68, 50.11 ], [ 17.68, 50.1 ], [ 17.69, 50.1 ], [ 17.7, 50.1 ], [ 17.73, 50.1 ], [ 17.73, 50.09 ], [ 17.74, 50.08 ], [ 17.75, 50.08 ], [ 17.75, 50.07 ], [ 17.76, 50.07 ], [ 17.76, 50.06 ], [ 17.76, 50.05 ], [ 17.77, 50.05 ], [ 17.77, 50.04 ], [ 17.78, 50.03 ], [ 17.77, 50.03 ], [ 17.79, 50.02 ], [ 17.81, 50.01 ], [ 17.82, 50.0 ], [ 17.83, 50.0 ], [ 17.87, 49.97 ], [ 17.89, 49.98 ], [ 17.91, 49.98 ], [ 17.95, 49.96 ], [ 17.95, 49.94 ], [ 17.95, 49.93 ], [ 17.98, 49.93 ], [ 18.02, 49.92 ], [ 18.03, 49.92 ], [ 18.07, 49.91 ], [ 18.13, 49.91 ], [ 18.14, 49.9 ], [ 18.16, 49.88 ], [ 18.18, 49.88 ], [ 18.2, 49.87 ], [ 18.22, 49.83 ], [ 18.22, 49.84 ], [ 18.23, 49.85 ], [ 18.24, 49.86 ], [ 18.25, 49.86 ], [ 18.26, 49.86 ], [ 18.27, 49.87 ], [ 18.28, 49.87 ], [ 18.29, 49.87 ], [ 18.3, 49.88 ], [ 18.31, 49.89 ], [ 18.32, 49.89 ], [ 18.32, 49.9 ], [ 18.33, 49.9 ], [ 18.32, 49.91 ], [ 18.33, 49.92 ], [ 18.33, 49.93 ], [ 18.34, 49.93 ], [ 18.34, 49.94 ], [ 18.33, 49.94 ], [ 18.33, 49.95 ], [ 18.34, 49.95 ], [ 18.36, 49.94 ], [ 18.37, 49.94 ], [ 18.38, 49.94 ], [ 18.4, 49.93 ], [ 18.43, 49.94 ], [ 18.44, 49.93 ], [ 18.46, 49.92 ], [ 18.47, 49.92 ], [ 18.49, 49.91 ], [ 18.5, 49.9 ], [ 18.52, 49.9 ], [ 18.54, 49.91 ], [ 18.54, 49.93 ], [ 18.56, 49.92 ], [ 18.58, 49.92 ], [ 18.58, 49.9 ], [ 18.59, 49.9 ], [ 18.61, 49.9 ], [ 18.64, 49.9 ], [ 18.66, 49.89 ], [ 18.67, 49.89 ], [ 18.69, 49.9 ], [ 18.73, 49.91 ], [ 18.71, 49.92 ], [ 18.71, 49.93 ], [ 18.75, 49.94 ], [ 18.78, 49.93 ], [ 18.79, 49.93 ], [ 18.81, 49.93 ], [ 18.82, 49.93 ], [ 18.86, 49.92 ], [ 18.92, 49.92 ], [ 18.91, 49.94 ], [ 18.94, 49.92 ], [ 18.96, 49.92 ], [ 19.02, 49.95 ], [ 19.04, 49.95 ], [ 19.08, 49.96 ], [ 19.12, 49.96 ], [ 19.11, 49.99 ], [ 19.14, 50.03 ], [ 19.14, 50.05 ], [ 19.15, 50.06 ], [ 19.17, 50.06 ], [ 19.19, 50.06 ], [ 19.2, 50.06 ], [ 19.21, 50.06 ], [ 19.22, 50.06 ], [ 19.23, 50.07 ], [ 19.22, 50.07 ], [ 19.21, 50.07 ], [ 19.21, 50.08 ], [ 19.22, 50.09 ], [ 19.22, 50.1 ], [ 19.23, 50.1 ], [ 19.23, 50.11 ], [ 19.24, 50.11 ], [ 19.24, 50.12 ], [ 19.25, 50.13 ], [ 19.26, 50.14 ], [ 19.25, 50.14 ], [ 19.25, 50.15 ], [ 19.24, 50.16 ], [ 19.23, 50.17 ], [ 19.22, 50.18 ], [ 19.21, 50.18 ], [ 19.21, 50.19 ], [ 19.19, 50.2 ], [ 19.19, 50.21 ], [ 19.18, 50.2 ], [ 19.17, 50.21 ], [ 19.16, 50.21 ], [ 19.16, 50.22 ], [ 19.16, 50.23 ], [ 19.14, 50.25 ], [ 19.12, 50.26 ], [ 19.08, 50.28 ], [ 19.08, 50.29 ], [ 19.06, 50.32 ], [ 19.06, 50.34 ], [ 19.03, 50.35 ], [ 18.97, 50.38 ], [ 18.97, 50.4 ], [ 18.97, 50.41 ], [ 18.97, 50.42 ], [ 18.99, 50.45 ], [ 19.02, 50.48 ], [ 19.04, 50.48 ], [ 19.06, 50.49 ], [ 19.07, 50.5 ], [ 19.09, 50.51 ], [ 19.08, 50.55 ], [ 19.11, 50.58 ], [ 19.1, 50.59 ], [ 19.07, 50.61 ], [ 19.11, 50.62 ], [ 19.1, 50.64 ], [ 19.09, 50.64 ], [ 19.07, 50.63 ], [ 19.06, 50.64 ], [ 19.04, 50.66 ], [ 18.98, 50.66 ], [ 18.97, 50.69 ], [ 18.94, 50.69 ], [ 18.92, 50.73 ], [ 18.89, 50.75 ], [ 18.84, 50.77 ], [ 18.8, 50.77 ], [ 18.76, 50.77 ], [ 18.75, 50.77 ], [ 18.73, 50.79 ], [ 18.69, 50.81 ], [ 18.63, 50.83 ], [ 18.62, 50.85 ], [ 18.63, 50.87 ], [ 18.66, 50.93 ], [ 18.65, 50.93 ], [ 18.64, 50.94 ], [ 18.61, 50.96 ], [ 18.62, 50.97 ], [ 18.59, 50.98 ], [ 18.54, 51.0 ], [ 18.5, 51.01 ], [ 18.47, 51.01 ], [ 18.45, 51.03 ], [ 18.44, 51.05 ], [ 18.44, 51.06 ], [ 18.44, 51.07 ], [ 18.44, 51.09 ], [ 18.41, 51.12 ], [ 18.37, 51.14 ], [ 18.34, 51.14 ], [ 18.31, 51.14 ], [ 18.25, 51.16 ], [ 18.22, 51.16 ], [ 18.17, 51.17 ], [ 18.16, 51.17 ], [ 18.13, 51.17 ], [ 18.1, 51.15 ], [ 18.06, 51.14 ], [ 18.05, 51.13 ], [ 18.03, 51.13 ], [ 18.03, 51.14 ], [ 18.01, 51.15 ], [ 17.97, 51.17 ], [ 17.92, 51.2 ], [ 17.92, 51.21 ], [ 17.93, 51.21 ], [ 17.94, 51.22 ], [ 17.97, 51.25 ], [ 17.98, 51.28 ], [ 17.98, 51.29 ], [ 17.88, 51.31 ], [ 17.87, 51.32 ], [ 17.87, 51.35 ], [ 17.87, 51.36 ], [ 17.83, 51.37 ], [ 17.8, 51.38 ], [ 17.79, 51.4 ], [ 17.78, 51.44 ], [ 17.79, 51.44 ], [ 17.81, 51.45 ], [ 17.83, 51.47 ], [ 17.83, 51.48 ], [ 17.81, 51.49 ], [ 17.76, 51.5 ], [ 17.71, 51.5 ], [ 17.66, 51.5 ], [ 17.62, 51.51 ], [ 17.58, 51.52 ], [ 17.59, 51.55 ], [ 17.59, 51.56 ], [ 17.57, 51.58 ], [ 17.53, 51.59 ], [ 17.51, 51.61 ], [ 17.48, 51.63 ], [ 17.45, 51.63 ], [ 17.41, 51.64 ], [ 17.35, 51.65 ], [ 17.28, 51.65 ], [ 17.23, 51.64 ], [ 17.22, 51.62 ], [ 17.22, 51.61 ], [ 17.22, 51.58 ], [ 17.22, 51.57 ], [ 17.18, 51.57 ], [ 17.12, 51.56 ], [ 17.11, 51.57 ], [ 17.1, 51.57 ], [ 17.08, 51.56 ], [ 17.05, 51.54 ], [ 17.04, 51.54 ], [ 17.03, 51.55 ], [ 17.03, 51.56 ], [ 16.97, 51.54 ], [ 16.94, 51.55 ], [ 16.92, 51.56 ], [ 16.9, 51.58 ], [ 16.89, 51.58 ], [ 16.88, 51.58 ], [ 16.83, 51.57 ], [ 16.81, 51.6 ], [ 16.81, 51.61 ], [ 16.79, 51.65 ], [ 16.77, 51.68 ], [ 16.72, 51.69 ], [ 16.71, 51.7 ], [ 16.73, 51.72 ], [ 16.73, 51.74 ], [ 16.71, 51.75 ], [ 16.65, 51.75 ], [ 16.62, 51.74 ], [ 16.6, 51.75 ], [ 16.58, 51.76 ], [ 16.56, 51.77 ], [ 16.55, 51.77 ], [ 16.54, 51.78 ], [ 16.52, 51.78 ], [ 16.43, 51.78 ], [ 16.42, 51.78 ], [ 16.4, 51.77 ], [ 16.37, 51.73 ], [ 16.35, 51.71 ], [ 16.28, 51.7 ], [ 16.27, 51.7 ], [ 16.24, 51.7 ], [ 16.21, 51.72 ], [ 16.23, 51.75 ], [ 16.19, 51.76 ], [ 16.17, 51.76 ], [ 16.16, 51.76 ], [ 16.15, 51.76 ], [ 16.16, 51.79 ], [ 16.17, 51.82 ], [ 16.2, 51.87 ], [ 16.2, 51.88 ], [ 16.18, 51.9 ], [ 16.13, 51.89 ], [ 16.11, 51.9 ], [ 16.09, 51.91 ], [ 16.06, 51.93 ], [ 16.02, 51.94 ], [ 15.99, 51.93 ], [ 15.96, 51.93 ], [ 15.97, 51.95 ], [ 16.0, 51.95 ], [ 16.02, 51.98 ], [ 16.01, 51.99 ], [ 15.96, 52.0 ], [ 15.92, 52.02 ], [ 15.91, 52.04 ], [ 15.87, 52.05 ], [ 15.85, 52.04 ], [ 15.81, 52.04 ], [ 15.76, 52.03 ], [ 15.71, 52.02 ], [ 15.67, 52.01 ], [ 15.62, 52.01 ], [ 15.61, 52.03 ], [ 15.55, 52.04 ], [ 15.54, 52.03 ], [ 15.53, 52.03 ], [ 15.52, 52.04 ], [ 15.51, 52.04 ], [ 15.5, 52.04 ], [ 15.47, 52.03 ], [ 15.42, 52.03 ], [ 15.38, 52.06 ], [ 15.33, 52.05 ], [ 15.3, 52.06 ], [ 15.27, 52.06 ], [ 15.27, 52.03 ], [ 15.26, 52.02 ], [ 15.26, 52.01 ], [ 15.28, 51.99 ], [ 15.28, 51.98 ], [ 15.29, 51.97 ], [ 15.28, 51.95 ], [ 15.28, 51.94 ], [ 15.3, 51.93 ], [ 15.3, 51.92 ], [ 15.28, 51.91 ], [ 15.26, 51.91 ], [ 15.21, 51.91 ], [ 15.2, 51.9 ], [ 15.21, 51.87 ], [ 15.2, 51.86 ], [ 15.19, 51.85 ], [ 15.23, 51.83 ], [ 15.24, 51.81 ], [ 15.24, 51.79 ], [ 15.23, 51.78 ], [ 15.26, 51.71 ], [ 15.25, 51.71 ], [ 15.25, 51.7 ], [ 15.28, 51.66 ], [ 15.26, 51.61 ], [ 15.24, 51.59 ], [ 15.23, 51.59 ], [ 15.19, 51.59 ], [ 15.17, 51.58 ], [ 15.17, 51.55 ], [ 15.12, 51.55 ], [ 15.08, 51.56 ], [ 15.07, 51.56 ], [ 15.08, 51.57 ], [ 15.09, 51.58 ], [ 15.07, 51.59 ], [ 15.05, 51.59 ], [ 15.05, 51.6 ], [ 15.0, 51.61 ], [ 14.95, 51.61 ], [ 14.92, 51.61 ], [ 14.85, 51.6 ], [ 14.81, 51.59 ], [ 14.8, 51.59 ], [ 14.8, 51.58 ], [ 14.79, 51.57 ], [ 14.78, 51.57 ], [ 14.77, 51.58 ], [ 14.76, 51.58 ], [ 14.74, 51.58 ], [ 14.73, 51.58 ], [ 14.73, 51.59 ], [ 14.73, 51.6 ], [ 14.71, 51.6 ], [ 14.7, 51.6 ], [ 14.69, 51.56 ], [ 14.66, 51.56 ], [ 14.65, 51.55 ], [ 14.64, 51.53 ], [ 14.61, 51.54 ], [ 14.61, 51.57 ], [ 14.6, 51.57 ], [ 14.59, 51.58 ], [ 14.56, 51.57 ], [ 14.55, 51.57 ], [ 14.55, 51.56 ], [ 14.53, 51.56 ], [ 14.5, 51.56 ], [ 14.45, 51.56 ], [ 14.44, 51.54 ], [ 14.44, 51.55 ], [ 14.43, 51.55 ], [ 14.4, 51.54 ], [ 14.36, 51.52 ], [ 14.34, 51.51 ], [ 14.33, 51.51 ], [ 14.32, 51.52 ], [ 14.31, 51.53 ], [ 14.27, 51.53 ], [ 14.22, 51.54 ], [ 14.17, 51.54 ], [ 14.16, 51.54 ], [ 14.14, 51.54 ], [ 14.14, 51.53 ], [ 14.17, 51.51 ], [ 14.15, 51.5 ], [ 14.13, 51.5 ], [ 14.08, 51.49 ], [ 14.11, 51.47 ], [ 14.12, 51.46 ], [ 14.12, 51.45 ], [ 14.11, 51.44 ], [ 14.09, 51.44 ], [ 14.07, 51.44 ], [ 14.06, 51.46 ], [ 14.03, 51.48 ], [ 14.02, 51.5 ], [ 14.0, 51.51 ], [ 13.91, 51.46 ], [ 13.87, 51.46 ], [ 13.86, 51.46 ], [ 13.85, 51.46 ], [ 13.84, 51.46 ], [ 13.8, 51.47 ], [ 13.79, 51.46 ], [ 13.76, 51.46 ], [ 13.73, 51.46 ], [ 13.72, 51.45 ], [ 13.73, 51.43 ], [ 13.72, 51.4 ], [ 13.73, 51.39 ], [ 13.76, 51.38 ], [ 13.78, 51.37 ], [ 13.79, 51.37 ], [ 13.79, 51.36 ], [ 13.8, 51.36 ], [ 13.83, 51.37 ], [ 13.83, 51.38 ], [ 13.86, 51.38 ], [ 13.88, 51.38 ], [ 13.92, 51.38 ], [ 13.97, 51.4 ], [ 13.98, 51.39 ], [ 13.97, 51.37 ], [ 14.02, 51.36 ], [ 14.05, 51.36 ], [ 14.07, 51.36 ], [ 14.1, 51.36 ], [ 14.11, 51.38 ], [ 14.12, 51.38 ], [ 14.13, 51.38 ], [ 14.16, 51.36 ], [ 14.17, 51.38 ], [ 14.18, 51.37 ], [ 14.19, 51.36 ], [ 14.21, 51.35 ], [ 14.22, 51.34 ], [ 14.23, 51.34 ], [ 14.24, 51.34 ], [ 14.26, 51.34 ], [ 14.27, 51.34 ], [ 14.29, 51.35 ], [ 14.32, 51.35 ], [ 14.33, 51.35 ], [ 14.35, 51.34 ], [ 14.36, 51.34 ], [ 14.37, 51.33 ], [ 14.39, 51.32 ], [ 14.39, 51.31 ], [ 14.41, 51.31 ], [ 14.43, 51.33 ], [ 14.47, 51.34 ], [ 14.48, 51.32 ], [ 14.52, 51.33 ], [ 14.52, 51.32 ], [ 14.55, 51.31 ], [ 14.54, 51.32 ], [ 14.55, 51.33 ], [ 14.55, 51.34 ], [ 14.58, 51.32 ], [ 14.59, 51.32 ], [ 14.61, 51.31 ], [ 14.61, 51.29 ], [ 14.64, 51.25 ], [ 14.64, 51.23 ], [ 14.64, 51.22 ], [ 14.65, 51.23 ], [ 14.66, 51.23 ], [ 14.67, 51.22 ], [ 14.66, 51.21 ], [ 14.69, 51.21 ], [ 14.69, 51.19 ], [ 14.73, 51.17 ], [ 14.73, 51.16 ], [ 14.77, 51.15 ], [ 14.81, 51.13 ], [ 14.82, 51.12 ], [ 14.83, 51.08 ], [ 14.85, 51.09 ], [ 14.87, 51.08 ], [ 14.89, 51.09 ], [ 14.95, 51.09 ], [ 14.95, 51.08 ], [ 14.92, 51.07 ], [ 14.92, 51.06 ], [ 14.93, 51.06 ], [ 14.96, 51.06 ], [ 14.99, 51.04 ], [ 15.0, 51.03 ], [ 15.02, 51.02 ], [ 15.04, 51.03 ], [ 15.05, 51.02 ], [ 15.07, 51.02 ], [ 15.1, 51.01 ], [ 15.11, 51.01 ], [ 15.1, 51.0 ], [ 15.11, 50.99 ], [ 15.12, 50.99 ], [ 15.13, 50.99 ], [ 15.13, 51.0 ], [ 15.14, 51.01 ], [ 15.16, 51.02 ], [ 15.17, 51.02 ], [ 15.18, 50.99 ], [ 15.17, 50.99 ], [ 15.19, 50.98 ], [ 15.2, 50.98 ], [ 15.2, 50.99 ], [ 15.23, 51.0 ], [ 15.24, 51.0 ], [ 15.24, 50.99 ], [ 15.25, 50.98 ], [ 15.26, 50.98 ], [ 15.28, 50.98 ], [ 15.28, 50.97 ], [ 15.27, 50.96 ], [ 15.28, 50.96 ], [ 15.29, 50.96 ], [ 15.29, 50.95 ], [ 15.27, 50.93 ], [ 15.27, 50.92 ], [ 15.28, 50.91 ], [ 15.28, 50.89 ], [ 15.35, 50.87 ], [ 15.35, 50.86 ], [ 15.34, 50.86 ], [ 15.36, 50.84 ], [ 15.37, 50.84 ], [ 15.37, 50.82 ], [ 15.36, 50.78 ], [ 15.38, 50.77 ], [ 15.39, 50.77 ], [ 15.4, 50.77 ], [ 15.41, 50.79 ], [ 15.44, 50.81 ], [ 15.45, 50.81 ], [ 15.46, 50.8 ], [ 15.48, 50.79 ], [ 15.5, 50.79 ], [ 15.51, 50.79 ], [ 15.52, 50.78 ], [ 15.54, 50.78 ], [ 15.58, 50.78 ], [ 15.62, 50.77 ], [ 15.63, 50.76 ], [ 15.66, 50.76 ], [ 15.68, 50.75 ], [ 15.69, 50.74 ], [ 15.7, 50.74 ], [ 15.73, 50.74 ], [ 15.74, 50.74 ], [ 15.75, 50.74 ], [ 15.78, 50.74 ], [ 15.79, 50.75 ], [ 15.81, 50.75 ], [ 15.83, 50.75 ], [ 15.84, 50.75 ], [ 15.84, 50.73 ], [ 15.86, 50.7 ], [ 15.86, 50.69 ], [ 15.88, 50.68 ], [ 15.89, 50.68 ], [ 15.93, 50.69 ], [ 15.95, 50.69 ], [ 15.98, 50.69 ], [ 16.0, 50.68 ], [ 16.01, 50.67 ], [ 16.01, 50.64 ], [ 16.02, 50.63 ], [ 15.99, 50.62 ], [ 15.99, 50.61 ], [ 16.01, 50.61 ], [ 16.02, 50.6 ], [ 16.03, 50.6 ], [ 16.04, 50.61 ], [ 16.06, 50.61 ], [ 16.06, 50.62 ], [ 16.07, 50.64 ], [ 16.08, 50.65 ], [ 16.09, 50.65 ], [ 16.1, 50.65 ], [ 16.1, 50.66 ], [ 16.11, 50.66 ], [ 16.13, 50.66 ], [ 16.14, 50.65 ], [ 16.15, 50.65 ], [ 16.17, 50.64 ], [ 16.18, 50.63 ], [ 16.22, 50.63 ], [ 16.22, 50.64 ], [ 16.23, 50.66 ], [ 16.23, 50.67 ], [ 16.25, 50.67 ], [ 16.28, 50.67 ], [ 16.31, 50.66 ], [ 16.33, 50.67 ], [ 16.34, 50.66 ], [ 16.34, 50.64 ], [ 16.36, 50.64 ], [ 16.38, 50.62 ], [ 16.41, 50.6 ], [ 16.44, 50.57 ] ] ], [ [ [ 18.34, 49.94 ], [ 18.35, 49.93 ], [ 18.35, 49.94 ], [ 18.34, 49.94 ] ] ] ] } }
]
}
