{
"type": "FeatureCollection",
"name": "PRU_WPRS_1914",
"crs": { "type": "name", "properties": { "name": "urn:ogc:def:crs:OGC:1.3:CRS84" } },
"features": [
{ "type": "Feature", "properties": { "name": "Westpreußen" }, "geometry": { "type": "MultiPolygon", "coordinates": [ [ [ [ 19.93, 53.34 ], [ 19.96, 53.34 ], [ 19.96, 53.38 ], [ 19.99, 53.38 ], [ 19.99, 53.41 ], [ 19.92, 53.48 ], [ 19.88, 53.5 ], [ 19.86, 53.51 ], [ 19.87, 53.53 ], [ 19.89, 53.54 ], [ 19.9, 53.56 ], [ 19.89, 53.56 ], [ 19.82, 53.59 ], [ 19.82, 53.61 ], [ 19.75, 53.62 ], [ 19.81, 53.67 ], [ 19.79, 53.69 ], [ 19.77, 53.68 ], [ 19.74, 53.69 ], [ 19.72, 53.7 ], [ 19.71, 53.7 ], [ 19.7, 53.71 ], [ 19.69, 53.71 ], [ 19.65, 53.72 ], [ 19.65, 53.7 ], [ 19.65, 53.69 ], [ 19.65, 53.68 ], [ 19.63, 53.68 ], [ 19.61, 53.67 ], [ 19.59, 53.69 ], [ 19.57, 53.69 ], [ 19.54, 53.71 ], [ 19.53, 53.74 ], [ 19.5, 53.77 ], [ 19.46, 53.79 ], [ 19.45, 53.8 ], [ 19.38, 53.81 ], [ 19.36, 53.81 ], [ 19.34, 53.81 ], [ 19.32, 53.82 ], [ 19.34, 53.85 ], [ 19.32, 53.85 ], [ 19.32, 53.86 ], [ 19.33, 53.87 ], [ 19.35, 53.87 ], [ 19.36, 53.88 ], [ 19.34, 53.9 ], [ 19.35, 53.91 ], [ 19.37, 53.91 ], [ 19.37, 53.94 ], [ 19.37, 53.96 ], [ 19.38, 53.98 ], [ 19.39, 53.99 ], [ 19.43, 54.01 ], [ 19.43, 54.02 ], [ 19.45, 54.04 ], [ 19.46, 54.07 ], [ 19.48, 54.09 ], [ 19.52, 54.09 ], [ 19.59, 54.09 ], [ 19.59, 54.11 ], [ 19.59, 54.12 ], [ 19.57, 54.13 ], [ 19.56, 54.14 ], [ 19.6, 54.15 ], [ 19.61, 54.14 ], [ 19.65, 54.15 ], [ 19.64, 54.16 ], [ 19.63, 54.17 ], [ 19.61, 54.17 ], [ 19.59, 54.17 ], [ 19.58, 54.2 ], [ 19.58, 54.21 ], [ 19.61, 54.2 ], [ 19.62, 54.23 ], [ 19.6, 54.23 ], [ 19.61, 54.25 ], [ 19.62, 54.25 ], [ 19.65, 54.26 ], [ 19.65, 54.29 ], [ 19.63, 54.3 ], [ 19.64, 54.33 ], [ 19.63, 54.34 ], [ 19.57, 54.34 ], [ 19.51, 54.32 ], [ 19.44, 54.29 ], [ 19.41, 54.26 ], [ 19.39, 54.23 ], [ 19.38, 54.22 ], [ 19.37, 54.23 ], [ 19.38, 54.23 ], [ 19.37, 54.26 ], [ 19.33, 54.28 ], [ 19.32, 54.28 ], [ 19.29, 54.27 ], [ 19.28, 54.28 ], [ 19.26, 54.28 ], [ 19.27, 54.29 ], [ 19.25, 54.29 ], [ 19.25, 54.33 ], [ 19.23, 54.34 ], [ 19.31, 54.35 ], [ 19.35, 54.35 ], [ 19.37, 54.36 ], [ 19.45, 54.38 ], [ 19.52, 54.4 ], [ 19.58, 54.42 ], [ 19.61, 54.43 ], [ 19.64, 54.45 ], [ 19.67, 54.46 ], [ 19.68, 54.47 ], [ 19.67, 54.48 ], [ 19.59, 54.43 ], [ 19.46, 54.39 ], [ 19.36, 54.37 ], [ 19.31, 54.36 ], [ 19.22, 54.36 ], [ 19.07, 54.35 ], [ 18.99, 54.34 ], [ 18.97, 54.35 ], [ 18.95, 54.35 ], [ 18.94, 54.35 ], [ 18.92, 54.35 ], [ 18.85, 54.35 ], [ 18.82, 54.37 ], [ 18.81, 54.38 ], [ 18.8, 54.38 ], [ 18.79, 54.38 ], [ 18.78, 54.37 ], [ 18.77, 54.37 ], [ 18.76, 54.37 ], [ 18.75, 54.37 ], [ 18.71, 54.39 ], [ 18.7, 54.4 ], [ 18.7, 54.41 ], [ 18.68, 54.41 ], [ 18.67, 54.41 ], [ 18.66, 54.41 ], [ 18.65, 54.41 ], [ 18.63, 54.42 ], [ 18.6, 54.43 ], [ 18.58, 54.44 ], [ 18.57, 54.46 ], [ 18.57, 54.47 ], [ 18.57, 54.48 ], [ 18.58, 54.49 ], [ 18.56, 54.51 ], [ 18.55, 54.53 ], [ 18.56, 54.55 ], [ 18.57, 54.55 ], [ 18.56, 54.56 ], [ 18.56, 54.57 ], [ 18.55, 54.58 ], [ 18.52, 54.61 ], [ 18.52, 54.62 ], [ 18.52, 54.63 ], [ 18.52, 54.64 ], [ 18.49, 54.63 ], [ 18.47, 54.63 ], [ 18.47, 54.64 ], [ 18.48, 54.65 ], [ 18.47, 54.66 ], [ 18.47, 54.69 ], [ 18.48, 54.7 ], [ 18.45, 54.71 ], [ 18.44, 54.72 ], [ 18.41, 54.73 ], [ 18.4, 54.74 ], [ 18.41, 54.76 ], [ 18.43, 54.77 ], [ 18.43, 54.79 ], [ 18.49, 54.77 ], [ 18.65, 54.71 ], [ 18.72, 54.68 ], [ 18.73, 54.67 ], [ 18.76, 54.65 ], [ 18.79, 54.62 ], [ 18.81, 54.61 ], [ 18.81, 54.6 ], [ 18.82, 54.59 ], [ 18.83, 54.61 ], [ 18.83, 54.62 ], [ 18.8, 54.65 ], [ 18.72, 54.69 ], [ 18.68, 54.71 ], [ 18.62, 54.73 ], [ 18.48, 54.78 ], [ 18.36, 54.82 ], [ 18.35, 54.84 ], [ 18.3, 54.84 ], [ 18.2, 54.83 ], [ 18.1, 54.83 ], [ 18.06, 54.84 ], [ 18.05, 54.81 ], [ 18.03, 54.78 ], [ 18.01, 54.78 ], [ 18.0, 54.78 ], [ 18.0, 54.79 ], [ 17.98, 54.79 ], [ 17.97, 54.77 ], [ 17.98, 54.76 ], [ 18.01, 54.75 ], [ 18.01, 54.74 ], [ 18.04, 54.72 ], [ 18.05, 54.7 ], [ 18.06, 54.7 ], [ 18.07, 54.69 ], [ 18.08, 54.68 ], [ 18.09, 54.67 ], [ 18.08, 54.65 ], [ 18.07, 54.63 ], [ 18.05, 54.63 ], [ 18.06, 54.61 ], [ 18.05, 54.61 ], [ 18.02, 54.61 ], [ 18.02, 54.58 ], [ 18.03, 54.57 ], [ 18.02, 54.56 ], [ 18.03, 54.56 ], [ 18.05, 54.54 ], [ 18.04, 54.53 ], [ 18.02, 54.53 ], [ 18.01, 54.53 ], [ 18.01, 54.52 ], [ 18.0, 54.51 ], [ 18.01, 54.5 ], [ 18.0, 54.5 ], [ 17.99, 54.49 ], [ 17.98, 54.47 ], [ 17.95, 54.47 ], [ 17.96, 54.48 ], [ 17.97, 54.48 ], [ 17.97, 54.5 ], [ 17.95, 54.5 ], [ 17.94, 54.49 ], [ 17.94, 54.5 ], [ 17.92, 54.49 ], [ 17.89, 54.49 ], [ 17.89, 54.48 ], [ 17.87, 54.48 ], [ 17.86, 54.47 ], [ 17.85, 54.48 ], [ 17.85, 54.49 ], [ 17.84, 54.49 ], [ 17.82, 54.49 ], [ 17.81, 54.48 ], [ 17.82, 54.47 ], [ 17.81, 54.47 ], [ 17.83, 54.46 ], [ 17.84, 54.46 ], [ 17.85, 54.45 ], [ 17.88, 54.41 ], [ 17.86, 54.41 ], [ 17.84, 54.41 ], [ 17.81, 54.41 ], [ 17.8, 54.39 ], [ 17.81, 54.39 ], [ 17.77, 54.36 ], [ 17.76, 54.36 ], [ 17.75, 54.35 ], [ 17.75, 54.34 ], [ 17.75, 54.33 ], [ 17.73, 54.32 ], [ 17.7, 54.32 ], [ 17.7, 54.3 ], [ 17.67, 54.27 ], [ 17.64, 54.25 ], [ 17.63, 54.25 ], [ 17.61, 54.26 ], [ 17.59, 54.25 ], [ 17.58, 54.23 ], [ 17.6, 54.21 ], [ 17.61, 54.19 ], [ 17.62, 54.18 ], [ 17.65, 54.18 ], [ 17.66, 54.17 ], [ 17.66, 54.16 ], [ 17.68, 54.14 ], [ 17.69, 54.12 ], [ 17.69, 54.11 ], [ 17.69, 54.09 ], [ 17.68, 54.08 ], [ 17.67, 54.07 ], [ 17.66, 54.05 ], [ 17.65, 54.03 ], [ 17.63, 54.03 ], [ 17.58, 54.03 ], [ 17.55, 54.04 ], [ 17.52, 54.04 ], [ 17.48, 54.05 ], [ 17.44, 54.07 ], [ 17.37, 54.08 ], [ 17.35, 54.06 ], [ 17.33, 54.05 ], [ 17.29, 54.05 ], [ 17.26, 54.04 ], [ 17.23, 54.04 ], [ 17.22, 54.04 ], [ 17.22, 54.03 ], [ 17.21, 54.02 ], [ 17.18, 54.01 ], [ 17.15, 54.0 ], [ 17.14, 54.0 ], [ 17.12, 54.0 ], [ 17.11, 53.99 ], [ 17.11, 53.97 ], [ 17.08, 53.97 ], [ 17.05, 53.97 ], [ 17.02, 53.97 ], [ 17.02, 53.95 ], [ 17.03, 53.94 ], [ 17.01, 53.92 ], [ 16.99, 53.92 ], [ 16.99, 53.91 ], [ 16.96, 53.91 ], [ 16.92, 53.92 ], [ 16.88, 53.94 ], [ 16.85, 53.93 ], [ 16.82, 53.92 ], [ 16.8, 53.92 ], [ 16.79, 53.9 ], [ 16.77, 53.91 ], [ 16.75, 53.9 ], [ 16.77, 53.88 ], [ 16.79, 53.87 ], [ 16.81, 53.88 ], [ 16.83, 53.89 ], [ 16.85, 53.87 ], [ 16.83, 53.84 ], [ 16.83, 53.82 ], [ 16.82, 53.8 ], [ 16.84, 53.78 ], [ 16.86, 53.75 ], [ 16.88, 53.72 ], [ 16.88, 53.69 ], [ 16.89, 53.67 ], [ 16.9, 53.63 ], [ 16.92, 53.6 ], [ 16.95, 53.56 ], [ 16.95, 53.54 ], [ 16.95, 53.52 ], [ 16.95, 53.51 ], [ 16.94, 53.5 ], [ 16.95, 53.49 ], [ 16.94, 53.49 ], [ 16.93, 53.48 ], [ 16.93, 53.47 ], [ 16.92, 53.47 ], [ 16.91, 53.47 ], [ 16.91, 53.46 ], [ 16.89, 53.45 ], [ 16.89, 53.44 ], [ 16.86, 53.44 ], [ 16.83, 53.46 ], [ 16.82, 53.46 ], [ 16.8, 53.44 ], [ 16.77, 53.43 ], [ 16.75, 53.39 ], [ 16.71, 53.41 ], [ 16.72, 53.44 ], [ 16.66, 53.46 ], [ 16.65, 53.5 ], [ 16.55, 53.53 ], [ 16.51, 53.55 ], [ 16.41, 53.53 ], [ 16.36, 53.53 ], [ 16.35, 53.54 ], [ 16.33, 53.54 ], [ 16.31, 53.54 ], [ 16.26, 53.51 ], [ 16.33, 53.48 ], [ 16.38, 53.43 ], [ 16.32, 53.4 ], [ 16.22, 53.39 ], [ 16.14, 53.37 ], [ 16.1, 53.38 ], [ 16.06, 53.37 ], [ 16.03, 53.4 ], [ 16.01, 53.4 ], [ 15.99, 53.37 ], [ 16.0, 53.35 ], [ 16.0, 53.34 ], [ 16.01, 53.32 ], [ 16.04, 53.31 ], [ 16.07, 53.31 ], [ 16.07, 53.29 ], [ 16.14, 53.3 ], [ 16.14, 53.29 ], [ 16.12, 53.27 ], [ 16.12, 53.26 ], [ 16.07, 53.24 ], [ 16.07, 53.22 ], [ 16.05, 53.19 ], [ 16.02, 53.18 ], [ 16.02, 53.15 ], [ 15.98, 53.11 ], [ 15.99, 53.06 ], [ 15.97, 53.05 ], [ 16.03, 53.03 ], [ 16.06, 53.02 ], [ 16.11, 53.02 ], [ 16.13, 53.01 ], [ 16.15, 53.02 ], [ 16.25, 53.05 ], [ 16.28, 53.05 ], [ 16.31, 53.04 ], [ 16.33, 53.05 ], [ 16.34, 53.07 ], [ 16.36, 53.08 ], [ 16.37, 53.09 ], [ 16.38, 53.1 ], [ 16.39, 53.11 ], [ 16.36, 53.13 ], [ 16.39, 53.14 ], [ 16.41, 53.14 ], [ 16.49, 53.12 ], [ 16.51, 53.12 ], [ 16.55, 53.11 ], [ 16.59, 53.11 ], [ 16.61, 53.11 ], [ 16.68, 53.11 ], [ 16.7, 53.12 ], [ 16.71, 53.11 ], [ 16.72, 53.11 ], [ 16.73, 53.12 ], [ 16.69, 53.14 ], [ 16.68, 53.13 ], [ 16.68, 53.14 ], [ 16.68, 53.15 ], [ 16.68, 53.16 ], [ 16.69, 53.17 ], [ 16.7, 53.18 ], [ 16.73, 53.17 ], [ 16.74, 53.18 ], [ 16.75, 53.17 ], [ 16.76, 53.17 ], [ 16.79, 53.19 ], [ 16.8, 53.21 ], [ 16.82, 53.23 ], [ 16.83, 53.24 ], [ 16.84, 53.25 ], [ 16.85, 53.25 ], [ 16.91, 53.25 ], [ 16.92, 53.24 ], [ 16.93, 53.21 ], [ 16.96, 53.22 ], [ 16.97, 53.23 ], [ 17.0, 53.23 ], [ 17.01, 53.23 ], [ 17.05, 53.23 ], [ 17.06, 53.23 ], [ 17.08, 53.23 ], [ 17.09, 53.24 ], [ 17.09, 53.25 ], [ 17.11, 53.25 ], [ 17.19, 53.27 ], [ 17.2, 53.29 ], [ 17.24, 53.31 ], [ 17.26, 53.32 ], [ 17.27, 53.34 ], [ 17.27, 53.37 ], [ 17.32, 53.35 ], [ 17.35, 53.35 ], [ 17.35, 53.34 ], [ 17.38, 53.33 ], [ 17.4, 53.36 ], [ 17.46, 53.35 ], [ 17.5, 53.33 ], [ 17.52, 53.33 ], [ 17.53, 53.32 ], [ 17.52, 53.31 ], [ 17.55, 53.29 ], [ 17.57, 53.29 ], [ 17.59, 53.28 ], [ 17.62, 53.28 ], [ 17.63, 53.31 ], [ 17.63, 53.33 ], [ 17.61, 53.34 ], [ 17.62, 53.35 ], [ 17.66, 53.36 ], [ 17.68, 53.37 ], [ 17.7, 53.37 ], [ 17.72, 53.37 ], [ 17.75, 53.39 ], [ 17.72, 53.41 ], [ 17.73, 53.43 ], [ 17.74, 53.44 ], [ 17.78, 53.43 ], [ 17.79, 53.43 ], [ 17.83, 53.43 ], [ 17.86, 53.42 ], [ 17.9, 53.43 ], [ 17.91, 53.43 ], [ 17.91, 53.44 ], [ 17.94, 53.46 ], [ 17.96, 53.43 ], [ 17.97, 53.4 ], [ 17.98, 53.4 ], [ 18.0, 53.4 ], [ 18.01, 53.39 ], [ 18.04, 53.39 ], [ 18.04, 53.38 ], [ 18.03, 53.37 ], [ 18.04, 53.36 ], [ 18.0, 53.36 ], [ 18.0, 53.32 ], [ 18.03, 53.31 ], [ 18.05, 53.32 ], [ 18.06, 53.34 ], [ 18.1, 53.35 ], [ 18.11, 53.34 ], [ 18.13, 53.33 ], [ 18.16, 53.33 ], [ 18.18, 53.33 ], [ 18.21, 53.31 ], [ 18.19, 53.3 ], [ 18.19, 53.28 ], [ 18.23, 53.27 ], [ 18.23, 53.25 ], [ 18.23, 53.23 ], [ 18.2, 53.22 ], [ 18.19, 53.18 ], [ 18.19, 53.15 ], [ 18.14, 53.13 ], [ 18.15, 53.11 ], [ 18.15, 53.1 ], [ 18.17, 53.09 ], [ 18.26, 53.09 ], [ 18.31, 53.08 ], [ 18.32, 53.07 ], [ 18.38, 53.05 ], [ 18.41, 53.05 ], [ 18.45, 53.01 ], [ 18.45, 52.99 ], [ 18.51, 52.98 ], [ 18.57, 52.96 ], [ 18.58, 52.95 ], [ 18.56, 52.91 ], [ 18.58, 52.88 ], [ 18.57, 52.85 ], [ 18.6, 52.85 ], [ 18.62, 52.86 ], [ 18.62, 52.87 ], [ 18.66, 52.89 ], [ 18.7, 52.9 ], [ 18.73, 52.9 ], [ 18.75, 52.9 ], [ 18.76, 52.91 ], [ 18.78, 52.92 ], [ 18.79, 52.94 ], [ 18.77, 52.95 ], [ 18.77, 52.97 ], [ 18.78, 52.98 ], [ 18.77, 53.0 ], [ 18.8, 53.01 ], [ 18.79, 53.02 ], [ 18.77, 53.02 ], [ 18.77, 53.03 ], [ 18.81, 53.06 ], [ 18.83, 53.07 ], [ 18.85, 53.07 ], [ 18.88, 53.07 ], [ 18.92, 53.06 ], [ 18.97, 53.06 ], [ 18.99, 53.07 ], [ 19.0, 53.08 ], [ 19.04, 53.11 ], [ 19.08, 53.12 ], [ 19.1, 53.12 ], [ 19.17, 53.15 ], [ 19.19, 53.15 ], [ 19.21, 53.17 ], [ 19.23, 53.18 ], [ 19.25, 53.19 ], [ 19.27, 53.2 ], [ 19.31, 53.22 ], [ 19.33, 53.22 ], [ 19.34, 53.22 ], [ 19.37, 53.19 ], [ 19.39, 53.19 ], [ 19.44, 53.18 ], [ 19.45, 53.19 ], [ 19.47, 53.19 ], [ 19.48, 53.17 ], [ 19.49, 53.16 ], [ 19.55, 53.18 ], [ 19.55, 53.2 ], [ 19.56, 53.2 ], [ 19.56, 53.21 ], [ 19.57, 53.22 ], [ 19.61, 53.21 ], [ 19.6, 53.19 ], [ 19.62, 53.18 ], [ 19.65, 53.18 ], [ 19.66, 53.17 ], [ 19.68, 53.16 ], [ 19.69, 53.13 ], [ 19.7, 53.13 ], [ 19.74, 53.15 ], [ 19.78, 53.15 ], [ 19.81, 53.15 ], [ 19.84, 53.14 ], [ 19.84, 53.15 ], [ 19.84, 53.16 ], [ 19.83, 53.17 ], [ 19.84, 53.18 ], [ 19.86, 53.2 ], [ 19.89, 53.21 ], [ 19.89, 53.22 ], [ 19.92, 53.23 ], [ 19.92, 53.25 ], [ 19.94, 53.25 ], [ 19.91, 53.3 ], [ 19.89, 53.33 ], [ 19.91, 53.34 ], [ 19.93, 53.34 ] ] ] ] } }
]
}
