{
"type": "FeatureCollection",
"name": "PRU_SCH_1914",
"crs": { "type": "name", "properties": { "name": "urn:ogc:def:crs:OGC:1.3:CRS84" } },
"features": [
{ "type": "Feature", "properties": { "name": "Schleswig-Holstein" }, "geometry": { "type": "MultiPolygon", "coordinates": [ [ [ [ 10.76, 53.82 ], [ 10.78, 53.79 ], [ 10.76, 53.76 ], [ 10.76, 53.75 ], [ 10.76, 53.73 ], [ 10.76, 53.71 ], [ 10.79, 53.71 ], [ 10.81, 53.71 ], [ 10.81, 53.69 ], [ 10.82, 53.69 ], [ 10.82, 53.68 ], [ 10.84, 53.69 ], [ 10.85, 53.68 ], [ 10.86, 53.67 ], [ 10.86, 53.68 ], [ 10.86, 53.69 ], [ 10.86, 53.7 ], [ 10.9, 53.71 ], [ 10.89, 53.73 ], [ 10.92, 53.73 ], [ 10.94, 53.71 ], [ 10.95, 53.71 ], [ 10.97, 53.72 ], [ 10.98, 53.71 ], [ 10.96, 53.69 ], [ 10.94, 53.7 ], [ 10.92, 53.69 ], [ 10.94, 53.68 ], [ 10.94, 53.67 ], [ 10.96, 53.65 ], [ 10.98, 53.65 ], [ 10.99, 53.64 ], [ 10.99, 53.63 ], [ 10.99, 53.62 ], [ 10.98, 53.6 ], [ 10.98, 53.58 ], [ 10.94, 53.57 ], [ 10.92, 53.57 ], [ 10.91, 53.58 ], [ 10.86, 53.57 ], [ 10.85, 53.58 ], [ 10.82, 53.58 ], [ 10.82, 53.54 ], [ 10.82, 53.53 ], [ 10.82, 53.52 ], [ 10.81, 53.52 ], [ 10.79, 53.51 ], [ 10.77, 53.49 ], [ 10.75, 53.49 ], [ 10.72, 53.48 ], [ 10.71, 53.48 ], [ 10.69, 53.46 ], [ 10.64, 53.46 ], [ 10.62, 53.41 ], [ 10.62, 53.4 ], [ 10.62, 53.38 ], [ 10.6, 53.38 ], [ 10.59, 53.37 ], [ 10.58, 53.36 ], [ 10.55, 53.37 ], [ 10.52, 53.37 ], [ 10.5, 53.38 ], [ 10.45, 53.4 ], [ 10.42, 53.41 ], [ 10.4, 53.42 ], [ 10.4, 53.43 ], [ 10.41, 53.44 ], [ 10.41, 53.45 ], [ 10.4, 53.46 ], [ 10.39, 53.46 ], [ 10.38, 53.46 ], [ 10.37, 53.46 ], [ 10.37, 53.44 ], [ 10.36, 53.44 ], [ 10.36, 53.43 ], [ 10.38, 53.43 ], [ 10.35, 53.43 ], [ 10.32, 53.44 ], [ 10.33, 53.44 ], [ 10.33, 53.45 ], [ 10.31, 53.45 ], [ 10.29, 53.46 ], [ 10.28, 53.45 ], [ 10.27, 53.45 ], [ 10.28, 53.47 ], [ 10.27, 53.48 ], [ 10.25, 53.48 ], [ 10.23, 53.5 ], [ 10.18, 53.5 ], [ 10.17, 53.51 ], [ 10.15, 53.51 ], [ 10.12, 53.52 ], [ 10.1, 53.54 ], [ 10.12, 53.56 ], [ 10.11, 53.56 ], [ 10.09, 53.55 ], [ 10.07, 53.56 ], [ 10.06, 53.58 ], [ 10.07, 53.59 ], [ 10.04, 53.61 ], [ 10.06, 53.63 ], [ 10.06, 53.64 ], [ 10.04, 53.64 ], [ 10.03, 53.65 ], [ 10.04, 53.67 ], [ 10.04, 53.68 ], [ 10.04, 53.69 ], [ 9.99, 53.68 ], [ 9.99, 53.66 ], [ 9.98, 53.65 ], [ 9.97, 53.63 ], [ 9.96, 53.61 ], [ 9.98, 53.6 ], [ 9.97, 53.59 ], [ 9.96, 53.59 ], [ 9.95, 53.58 ], [ 9.94, 53.58 ], [ 9.94, 53.57 ], [ 9.95, 53.56 ], [ 9.97, 53.56 ], [ 9.95, 53.54 ], [ 9.93, 53.54 ], [ 9.92, 53.54 ], [ 9.89, 53.54 ], [ 9.83, 53.55 ], [ 9.82, 53.55 ], [ 9.78, 53.56 ], [ 9.75, 53.56 ], [ 9.7, 53.56 ], [ 9.67, 53.57 ], [ 9.66, 53.58 ], [ 9.62, 53.6 ], [ 9.6, 53.61 ], [ 9.59, 53.62 ], [ 9.58, 53.62 ], [ 9.58, 53.63 ], [ 9.56, 53.65 ], [ 9.55, 53.66 ], [ 9.55, 53.67 ], [ 9.52, 53.71 ], [ 9.51, 53.71 ], [ 9.5, 53.72 ], [ 9.49, 53.72 ], [ 9.48, 53.73 ], [ 9.46, 53.73 ], [ 9.44, 53.74 ], [ 9.43, 53.75 ], [ 9.43, 53.76 ], [ 9.42, 53.77 ], [ 9.41, 53.78 ], [ 9.41, 53.79 ], [ 9.41, 53.8 ], [ 9.4, 53.8 ], [ 9.4, 53.81 ], [ 9.39, 53.81 ], [ 9.39, 53.83 ], [ 9.37, 53.83 ], [ 9.35, 53.84 ], [ 9.35, 53.85 ], [ 9.34, 53.85 ], [ 9.32, 53.86 ], [ 9.3, 53.87 ], [ 9.28, 53.87 ], [ 9.26, 53.88 ], [ 9.24, 53.89 ], [ 9.22, 53.89 ], [ 9.19, 53.89 ], [ 9.09, 53.89 ], [ 9.06, 53.9 ], [ 9.05, 53.9 ], [ 9.03, 53.9 ], [ 9.02, 53.9 ], [ 9.01, 53.9 ], [ 9.0, 53.9 ], [ 8.98, 53.89 ], [ 8.96, 53.9 ], [ 8.95, 53.91 ], [ 8.92, 53.93 ], [ 8.91, 53.94 ], [ 8.91, 53.95 ], [ 8.9, 53.96 ], [ 8.89, 53.97 ], [ 8.89, 53.99 ], [ 8.87, 54.0 ], [ 8.85, 54.02 ], [ 8.84, 54.03 ], [ 8.84, 54.04 ], [ 8.86, 54.04 ], [ 8.87, 54.05 ], [ 8.89, 54.05 ], [ 8.93, 54.04 ], [ 8.96, 54.02 ], [ 8.97, 54.02 ], [ 8.98, 54.02 ], [ 8.98, 54.03 ], [ 8.99, 54.03 ], [ 9.0, 54.03 ], [ 9.01, 54.03 ], [ 9.01, 54.04 ], [ 9.01, 54.05 ], [ 9.02, 54.07 ], [ 9.02, 54.08 ], [ 9.04, 54.1 ], [ 9.0, 54.1 ], [ 8.97, 54.14 ], [ 8.98, 54.14 ], [ 8.94, 54.15 ], [ 8.94, 54.14 ], [ 8.93, 54.14 ], [ 8.91, 54.14 ], [ 8.89, 54.14 ], [ 8.88, 54.13 ], [ 8.87, 54.13 ], [ 8.86, 54.13 ], [ 8.85, 54.14 ], [ 8.84, 54.14 ], [ 8.83, 54.16 ], [ 8.82, 54.17 ], [ 8.81, 54.18 ], [ 8.82, 54.19 ], [ 8.82, 54.2 ], [ 8.83, 54.21 ], [ 8.84, 54.22 ], [ 8.85, 54.23 ], [ 8.84, 54.24 ], [ 8.84, 54.25 ], [ 8.85, 54.25 ], [ 8.85, 54.26 ], [ 8.87, 54.26 ], [ 8.9, 54.26 ], [ 8.93, 54.27 ], [ 8.93, 54.28 ], [ 8.95, 54.29 ], [ 8.96, 54.3 ], [ 8.97, 54.32 ], [ 8.95, 54.31 ], [ 8.92, 54.3 ], [ 8.92, 54.29 ], [ 8.91, 54.29 ], [ 8.9, 54.29 ], [ 8.89, 54.29 ], [ 8.88, 54.29 ], [ 8.87, 54.3 ], [ 8.86, 54.3 ], [ 8.85, 54.3 ], [ 8.84, 54.29 ], [ 8.82, 54.29 ], [ 8.81, 54.28 ], [ 8.79, 54.28 ], [ 8.78, 54.28 ], [ 8.77, 54.29 ], [ 8.76, 54.29 ], [ 8.75, 54.3 ], [ 8.74, 54.29 ], [ 8.71, 54.29 ], [ 8.7, 54.29 ], [ 8.7, 54.28 ], [ 8.7, 54.27 ], [ 8.69, 54.27 ], [ 8.66, 54.28 ], [ 8.64, 54.29 ], [ 8.62, 54.3 ], [ 8.62, 54.31 ], [ 8.61, 54.32 ], [ 8.6, 54.34 ], [ 8.61, 54.34 ], [ 8.61, 54.35 ], [ 8.63, 54.35 ], [ 8.63, 54.34 ], [ 8.64, 54.34 ], [ 8.65, 54.34 ], [ 8.65, 54.35 ], [ 8.67, 54.35 ], [ 8.68, 54.35 ], [ 8.69, 54.36 ], [ 8.68, 54.36 ], [ 8.67, 54.36 ], [ 8.67, 54.37 ], [ 8.66, 54.37 ], [ 8.65, 54.37 ], [ 8.64, 54.37 ], [ 8.63, 54.37 ], [ 8.62, 54.38 ], [ 8.63, 54.39 ], [ 8.64, 54.4 ], [ 8.65, 54.4 ], [ 8.68, 54.4 ], [ 8.7, 54.4 ], [ 8.72, 54.4 ], [ 8.76, 54.4 ], [ 8.79, 54.41 ], [ 8.81, 54.41 ], [ 8.82, 54.41 ], [ 8.83, 54.4 ], [ 8.86, 54.41 ], [ 8.91, 54.42 ], [ 8.92, 54.43 ], [ 8.94, 54.44 ], [ 8.96, 54.46 ], [ 8.97, 54.46 ], [ 8.98, 54.45 ], [ 8.99, 54.45 ], [ 9.0, 54.46 ], [ 9.01, 54.47 ], [ 9.01, 54.48 ], [ 9.01, 54.49 ], [ 9.0, 54.5 ], [ 8.99, 54.52 ], [ 8.98, 54.53 ], [ 8.96, 54.54 ], [ 8.95, 54.54 ], [ 8.93, 54.55 ], [ 8.92, 54.56 ], [ 8.91, 54.57 ], [ 8.9, 54.58 ], [ 8.89, 54.59 ], [ 8.88, 54.6 ], [ 8.89, 54.61 ], [ 8.88, 54.61 ], [ 8.87, 54.6 ], [ 8.85, 54.6 ], [ 8.83, 54.6 ], [ 8.82, 54.59 ], [ 8.81, 54.6 ], [ 8.82, 54.6 ], [ 8.83, 54.61 ], [ 8.85, 54.62 ], [ 8.84, 54.62 ], [ 8.84, 54.63 ], [ 8.83, 54.63 ], [ 8.83, 54.65 ], [ 8.81, 54.66 ], [ 8.81, 54.67 ], [ 8.8, 54.68 ], [ 8.78, 54.69 ], [ 8.77, 54.7 ], [ 8.76, 54.7 ], [ 8.75, 54.71 ], [ 8.74, 54.71 ], [ 8.73, 54.72 ], [ 8.72, 54.72 ], [ 8.69, 54.72 ], [ 8.69, 54.73 ], [ 8.7, 54.74 ], [ 8.71, 54.74 ], [ 8.71, 54.75 ], [ 8.7, 54.76 ], [ 8.7, 54.77 ], [ 8.69, 54.78 ], [ 8.68, 54.79 ], [ 8.66, 54.8 ], [ 8.64, 54.83 ], [ 8.62, 54.84 ], [ 8.62, 54.88 ], [ 8.61, 54.88 ], [ 8.61, 54.89 ], [ 8.62, 54.89 ], [ 8.63, 54.89 ], [ 8.64, 54.9 ], [ 8.65, 54.91 ], [ 8.66, 54.91 ], [ 8.66, 54.92 ], [ 8.67, 54.93 ], [ 8.67, 54.97 ], [ 8.66, 54.99 ], [ 8.64, 55.02 ], [ 8.64, 55.03 ], [ 8.64, 55.04 ], [ 8.64, 55.05 ], [ 8.64, 55.06 ], [ 8.65, 55.07 ], [ 8.65, 55.08 ], [ 8.65, 55.09 ], [ 8.66, 55.09 ], [ 8.67, 55.1 ], [ 8.68, 55.12 ], [ 8.69, 55.14 ], [ 8.7, 55.15 ], [ 8.7, 55.16 ], [ 8.69, 55.16 ], [ 8.69, 55.17 ], [ 8.69, 55.18 ], [ 8.69, 55.19 ], [ 8.68, 55.19 ], [ 8.68, 55.2 ], [ 8.67, 55.21 ], [ 8.68, 55.22 ], [ 8.67, 55.22 ], [ 8.67, 55.23 ], [ 8.68, 55.23 ], [ 8.67, 55.24 ], [ 8.67, 55.26 ], [ 8.67, 55.27 ], [ 8.73, 55.27 ], [ 8.77, 55.27 ], [ 8.79, 55.28 ], [ 8.83, 55.27 ], [ 8.84, 55.27 ], [ 8.85, 55.27 ], [ 8.86, 55.27 ], [ 8.87, 55.27 ], [ 8.89, 55.28 ], [ 8.91, 55.28 ], [ 8.92, 55.29 ], [ 8.93, 55.3 ], [ 8.91, 55.31 ], [ 8.9, 55.32 ], [ 8.9, 55.34 ], [ 8.88, 55.35 ], [ 8.88, 55.36 ], [ 8.88, 55.37 ], [ 8.89, 55.37 ], [ 8.89, 55.39 ], [ 8.9, 55.4 ], [ 8.92, 55.41 ], [ 8.93, 55.42 ], [ 8.95, 55.43 ], [ 8.96, 55.43 ], [ 8.97, 55.44 ], [ 8.99, 55.44 ], [ 9.03, 55.44 ], [ 9.07, 55.43 ], [ 9.08, 55.43 ], [ 9.11, 55.43 ], [ 9.12, 55.43 ], [ 9.15, 55.44 ], [ 9.17, 55.45 ], [ 9.19, 55.45 ], [ 9.21, 55.44 ], [ 9.22, 55.43 ], [ 9.21, 55.42 ], [ 9.23, 55.41 ], [ 9.26, 55.39 ], [ 9.29, 55.39 ], [ 9.3, 55.38 ], [ 9.31, 55.38 ], [ 9.33, 55.38 ], [ 9.35, 55.37 ], [ 9.36, 55.37 ], [ 9.37, 55.37 ], [ 9.38, 55.37 ], [ 9.4, 55.38 ], [ 9.44, 55.38 ], [ 9.45, 55.38 ], [ 9.46, 55.38 ], [ 9.49, 55.38 ], [ 9.51, 55.38 ], [ 9.54, 55.37 ], [ 9.58, 55.37 ], [ 9.6, 55.36 ], [ 9.61, 55.36 ], [ 9.63, 55.35 ], [ 9.64, 55.35 ], [ 9.65, 55.34 ], [ 9.65, 55.33 ], [ 9.64, 55.32 ], [ 9.63, 55.32 ], [ 9.63, 55.31 ], [ 9.64, 55.31 ], [ 9.65, 55.31 ], [ 9.65, 55.3 ], [ 9.66, 55.3 ], [ 9.67, 55.29 ], [ 9.66, 55.29 ], [ 9.65, 55.29 ], [ 9.64, 55.29 ], [ 9.63, 55.29 ], [ 9.62, 55.29 ], [ 9.61, 55.28 ], [ 9.62, 55.28 ], [ 9.63, 55.28 ], [ 9.64, 55.28 ], [ 9.65, 55.28 ], [ 9.66, 55.28 ], [ 9.68, 55.27 ], [ 9.69, 55.27 ], [ 9.71, 55.26 ], [ 9.72, 55.26 ], [ 9.72, 55.25 ], [ 9.71, 55.24 ], [ 9.71, 55.23 ], [ 9.7, 55.23 ], [ 9.69, 55.23 ], [ 9.69, 55.22 ], [ 9.69, 55.21 ], [ 9.69, 55.2 ], [ 9.7, 55.2 ], [ 9.7, 55.19 ], [ 9.69, 55.19 ], [ 9.67, 55.19 ], [ 9.65, 55.18 ], [ 9.64, 55.17 ], [ 9.63, 55.17 ], [ 9.62, 55.18 ], [ 9.62, 55.19 ], [ 9.61, 55.19 ], [ 9.6, 55.19 ], [ 9.59, 55.19 ], [ 9.56, 55.18 ], [ 9.55, 55.18 ], [ 9.54, 55.17 ], [ 9.52, 55.16 ], [ 9.5, 55.16 ], [ 9.49, 55.15 ], [ 9.5, 55.15 ], [ 9.5, 55.14 ], [ 9.51, 55.13 ], [ 9.52, 55.13 ], [ 9.52, 55.12 ], [ 9.51, 55.12 ], [ 9.5, 55.12 ], [ 9.51, 55.11 ], [ 9.52, 55.11 ], [ 9.54, 55.1 ], [ 9.54, 55.09 ], [ 9.55, 55.09 ], [ 9.56, 55.08 ], [ 9.55, 55.07 ], [ 9.53, 55.06 ], [ 9.52, 55.05 ], [ 9.49, 55.04 ], [ 9.47, 55.05 ], [ 9.46, 55.04 ], [ 9.44, 55.04 ], [ 9.43, 55.04 ], [ 9.43, 55.03 ], [ 9.44, 55.02 ], [ 9.46, 55.01 ], [ 9.47, 55.02 ], [ 9.48, 55.02 ], [ 9.49, 55.01 ], [ 9.5, 55.01 ], [ 9.52, 55.02 ], [ 9.53, 55.03 ], [ 9.56, 55.03 ], [ 9.58, 55.03 ], [ 9.58, 55.04 ], [ 9.59, 55.04 ], [ 9.6, 55.04 ], [ 9.61, 55.03 ], [ 9.62, 55.02 ], [ 9.64, 55.01 ], [ 9.66, 55.0 ], [ 9.68, 55.0 ], [ 9.7, 54.99 ], [ 9.71, 54.99 ], [ 9.72, 54.99 ], [ 9.73, 54.99 ], [ 9.74, 54.99 ], [ 9.74, 54.97 ], [ 9.75, 54.96 ], [ 9.76, 54.93 ], [ 9.77, 54.93 ], [ 9.77, 54.92 ], [ 9.78, 54.91 ], [ 9.78, 54.9 ], [ 9.77, 54.9 ], [ 9.76, 54.9 ], [ 9.75, 54.9 ], [ 9.74, 54.9 ], [ 9.72, 54.9 ], [ 9.71, 54.9 ], [ 9.7, 54.9 ], [ 9.7, 54.89 ], [ 9.71, 54.89 ], [ 9.72, 54.89 ], [ 9.74, 54.88 ], [ 9.75, 54.87 ], [ 9.76, 54.86 ], [ 9.77, 54.85 ], [ 9.76, 54.84 ], [ 9.75, 54.84 ], [ 9.74, 54.84 ], [ 9.74, 54.83 ], [ 9.73, 54.84 ], [ 9.72, 54.84 ], [ 9.71, 54.84 ], [ 9.71, 54.85 ], [ 9.69, 54.86 ], [ 9.66, 54.85 ], [ 9.65, 54.85 ], [ 9.64, 54.86 ], [ 9.64, 54.87 ], [ 9.66, 54.87 ], [ 9.65, 54.88 ], [ 9.64, 54.88 ], [ 9.64, 54.89 ], [ 9.62, 54.9 ], [ 9.61, 54.9 ], [ 9.6, 54.9 ], [ 9.62, 54.91 ], [ 9.63, 54.91 ], [ 9.64, 54.91 ], [ 9.65, 54.91 ], [ 9.66, 54.91 ], [ 9.67, 54.91 ], [ 9.67, 54.92 ], [ 9.65, 54.93 ], [ 9.64, 54.93 ], [ 9.63, 54.93 ], [ 9.62, 54.93 ], [ 9.62, 54.92 ], [ 9.61, 54.91 ], [ 9.6, 54.91 ], [ 9.59, 54.9 ], [ 9.58, 54.9 ], [ 9.58, 54.89 ], [ 9.57, 54.88 ], [ 9.55, 54.88 ], [ 9.54, 54.88 ], [ 9.53, 54.88 ], [ 9.52, 54.87 ], [ 9.51, 54.87 ], [ 9.5, 54.86 ], [ 9.49, 54.86 ], [ 9.49, 54.85 ], [ 9.48, 54.85 ], [ 9.47, 54.84 ], [ 9.45, 54.84 ], [ 9.44, 54.83 ], [ 9.43, 54.83 ], [ 9.43, 54.82 ], [ 9.43, 54.81 ], [ 9.44, 54.81 ], [ 9.43, 54.8 ], [ 9.44, 54.79 ], [ 9.44, 54.8 ], [ 9.45, 54.8 ], [ 9.46, 54.81 ], [ 9.46, 54.82 ], [ 9.47, 54.82 ], [ 9.5, 54.82 ], [ 9.5, 54.83 ], [ 9.51, 54.83 ], [ 9.51, 54.84 ], [ 9.52, 54.84 ], [ 9.53, 54.84 ], [ 9.54, 54.85 ], [ 9.56, 54.85 ], [ 9.57, 54.86 ], [ 9.58, 54.86 ], [ 9.59, 54.86 ], [ 9.59, 54.87 ], [ 9.59, 54.88 ], [ 9.6, 54.87 ], [ 9.61, 54.88 ], [ 9.62, 54.87 ], [ 9.61, 54.87 ], [ 9.59, 54.85 ], [ 9.59, 54.84 ], [ 9.61, 54.83 ], [ 9.62, 54.83 ], [ 9.63, 54.83 ], [ 9.65, 54.82 ], [ 9.67, 54.82 ], [ 9.69, 54.82 ], [ 9.71, 54.81 ], [ 9.73, 54.81 ], [ 9.75, 54.8 ], [ 9.76, 54.8 ], [ 9.77, 54.8 ], [ 9.78, 54.8 ], [ 9.79, 54.8 ], [ 9.8, 54.8 ], [ 9.8, 54.79 ], [ 9.81, 54.78 ], [ 9.83, 54.76 ], [ 9.84, 54.76 ], [ 9.85, 54.75 ], [ 9.86, 54.75 ], [ 9.87, 54.75 ], [ 9.88, 54.75 ], [ 9.88, 54.76 ], [ 9.89, 54.77 ], [ 9.9, 54.77 ], [ 9.91, 54.77 ], [ 9.9, 54.78 ], [ 9.91, 54.78 ], [ 9.91, 54.79 ], [ 9.91, 54.8 ], [ 9.92, 54.8 ], [ 9.93, 54.79 ], [ 9.96, 54.78 ], [ 9.98, 54.76 ], [ 9.98, 54.73 ], [ 10.0, 54.71 ], [ 10.02, 54.7 ], [ 10.03, 54.69 ], [ 10.04, 54.68 ], [ 10.04, 54.67 ], [ 10.03, 54.64 ], [ 10.04, 54.62 ], [ 10.03, 54.6 ], [ 10.03, 54.57 ], [ 10.03, 54.55 ], [ 10.02, 54.54 ], [ 10.01, 54.53 ], [ 10.0, 54.52 ], [ 9.97, 54.51 ], [ 9.92, 54.49 ], [ 9.87, 54.48 ], [ 9.84, 54.48 ], [ 9.83, 54.47 ], [ 9.84, 54.47 ], [ 9.87, 54.45 ], [ 9.89, 54.45 ], [ 9.92, 54.45 ], [ 9.92, 54.46 ], [ 9.93, 54.46 ], [ 9.94, 54.46 ], [ 9.96, 54.47 ], [ 10.0, 54.47 ], [ 10.02, 54.48 ], [ 10.05, 54.48 ], [ 10.09, 54.48 ], [ 10.13, 54.49 ], [ 10.17, 54.47 ], [ 10.19, 54.46 ], [ 10.19, 54.45 ], [ 10.18, 54.45 ], [ 10.17, 54.44 ], [ 10.17, 54.43 ], [ 10.18, 54.42 ], [ 10.19, 54.41 ], [ 10.19, 54.4 ], [ 10.16, 54.39 ], [ 10.16, 54.38 ], [ 10.16, 54.37 ], [ 10.15, 54.37 ], [ 10.14, 54.36 ], [ 10.15, 54.35 ], [ 10.17, 54.34 ], [ 10.17, 54.35 ], [ 10.18, 54.36 ], [ 10.19, 54.38 ], [ 10.21, 54.39 ], [ 10.21, 54.4 ], [ 10.22, 54.41 ], [ 10.24, 54.42 ], [ 10.26, 54.42 ], [ 10.28, 54.42 ], [ 10.29, 54.42 ], [ 10.29, 54.43 ], [ 10.29, 54.44 ], [ 10.31, 54.44 ], [ 10.33, 54.44 ], [ 10.36, 54.43 ], [ 10.4, 54.43 ], [ 10.42, 54.41 ], [ 10.47, 54.4 ], [ 10.51, 54.39 ], [ 10.52, 54.39 ], [ 10.54, 54.38 ], [ 10.56, 54.38 ], [ 10.57, 54.37 ], [ 10.59, 54.37 ], [ 10.6, 54.37 ], [ 10.64, 54.35 ], [ 10.66, 54.33 ], [ 10.68, 54.32 ], [ 10.69, 54.32 ], [ 10.69, 54.31 ], [ 10.7, 54.31 ], [ 10.72, 54.31 ], [ 10.74, 54.31 ], [ 10.76, 54.31 ], [ 10.78, 54.31 ], [ 10.82, 54.33 ], [ 10.85, 54.35 ], [ 10.88, 54.36 ], [ 10.89, 54.36 ], [ 10.91, 54.37 ], [ 10.93, 54.38 ], [ 10.95, 54.39 ], [ 10.97, 54.38 ], [ 10.98, 54.38 ], [ 11.0, 54.37 ], [ 11.02, 54.37 ], [ 11.06, 54.38 ], [ 11.08, 54.37 ], [ 11.08, 54.38 ], [ 11.09, 54.39 ], [ 11.1, 54.39 ], [ 11.11, 54.39 ], [ 11.12, 54.4 ], [ 11.13, 54.39 ], [ 11.13, 54.38 ], [ 11.13, 54.37 ], [ 11.1, 54.36 ], [ 11.08, 54.35 ], [ 11.07, 54.35 ], [ 11.06, 54.35 ], [ 11.06, 54.34 ], [ 11.07, 54.34 ], [ 11.07, 54.33 ], [ 11.08, 54.29 ], [ 11.09, 54.27 ], [ 11.08, 54.25 ], [ 11.09, 54.22 ], [ 11.09, 54.2 ], [ 11.08, 54.19 ], [ 11.06, 54.18 ], [ 11.02, 54.16 ], [ 10.96, 54.14 ], [ 10.94, 54.13 ], [ 10.91, 54.11 ], [ 10.9, 54.1 ], [ 10.89, 54.09 ], [ 10.87, 54.09 ], [ 10.85, 54.09 ], [ 10.82, 54.09 ], [ 10.82, 54.1 ], [ 10.81, 54.11 ], [ 10.81, 54.1 ], [ 10.8, 54.1 ], [ 10.8, 54.09 ], [ 10.8, 54.08 ], [ 10.78, 54.07 ], [ 10.76, 54.06 ], [ 10.74, 54.06 ], [ 10.72, 54.06 ], [ 10.73, 54.07 ], [ 10.74, 54.08 ], [ 10.73, 54.08 ], [ 10.72, 54.09 ], [ 10.71, 54.09 ], [ 10.71, 54.1 ], [ 10.73, 54.1 ], [ 10.75, 54.11 ], [ 10.75, 54.12 ], [ 10.73, 54.13 ], [ 10.71, 54.12 ], [ 10.7, 54.13 ], [ 10.67, 54.15 ], [ 10.65, 54.17 ], [ 10.65, 54.18 ], [ 10.66, 54.18 ], [ 10.67, 54.2 ], [ 10.65, 54.22 ], [ 10.61, 54.22 ], [ 10.57, 54.24 ], [ 10.54, 54.23 ], [ 10.54, 54.21 ], [ 10.52, 54.19 ], [ 10.48, 54.19 ], [ 10.49, 54.17 ], [ 10.51, 54.18 ], [ 10.54, 54.17 ], [ 10.55, 54.16 ], [ 10.51, 54.16 ], [ 10.51, 54.14 ], [ 10.54, 54.14 ], [ 10.53, 54.13 ], [ 10.52, 54.12 ], [ 10.49, 54.12 ], [ 10.48, 54.11 ], [ 10.47, 54.11 ], [ 10.46, 54.11 ], [ 10.44, 54.12 ], [ 10.42, 54.12 ], [ 10.42, 54.1 ], [ 10.42, 54.09 ], [ 10.42, 54.08 ], [ 10.44, 54.08 ], [ 10.46, 54.07 ], [ 10.49, 54.07 ], [ 10.51, 54.08 ], [ 10.56, 54.08 ], [ 10.56, 54.07 ], [ 10.55, 54.05 ], [ 10.55, 54.03 ], [ 10.53, 54.02 ], [ 10.5, 54.03 ], [ 10.47, 54.01 ], [ 10.46, 54.0 ], [ 10.47, 53.99 ], [ 10.51, 53.98 ], [ 10.53, 53.98 ], [ 10.53, 53.97 ], [ 10.52, 53.96 ], [ 10.55, 53.95 ], [ 10.53, 53.93 ], [ 10.55, 53.91 ], [ 10.56, 53.91 ], [ 10.57, 53.9 ], [ 10.58, 53.9 ], [ 10.57, 53.89 ], [ 10.59, 53.88 ], [ 10.59, 53.87 ], [ 10.6, 53.86 ], [ 10.61, 53.85 ], [ 10.62, 53.84 ], [ 10.58, 53.83 ], [ 10.57, 53.82 ], [ 10.57, 53.81 ], [ 10.6, 53.82 ], [ 10.6, 53.8 ], [ 10.59, 53.79 ], [ 10.6, 53.77 ], [ 10.63, 53.77 ], [ 10.63, 53.8 ], [ 10.65, 53.8 ], [ 10.68, 53.79 ], [ 10.73, 53.8 ], [ 10.71, 53.82 ], [ 10.73, 53.83 ], [ 10.75, 53.81 ], [ 10.76, 53.82 ] ], [ [ 11.26, 54.47 ], [ 11.25, 54.49 ], [ 11.24, 54.5 ], [ 11.2, 54.51 ], [ 11.19, 54.51 ], [ 11.19, 54.52 ], [ 11.18, 54.52 ], [ 11.17, 54.52 ], [ 11.15, 54.53 ], [ 11.08, 54.53 ], [ 11.07, 54.54 ], [ 11.06, 54.54 ], [ 11.02, 54.49 ], [ 11.01, 54.46 ], [ 11.0, 54.45 ], [ 11.01, 54.44 ], [ 11.03, 54.43 ], [ 11.04, 54.44 ], [ 11.03, 54.44 ], [ 11.02, 54.44 ], [ 11.04, 54.45 ], [ 11.05, 54.44 ], [ 11.06, 54.45 ], [ 11.07, 54.45 ], [ 11.08, 54.45 ], [ 11.1, 54.44 ], [ 11.1, 54.43 ], [ 11.1, 54.42 ], [ 11.1, 54.41 ], [ 11.12, 54.4 ], [ 11.15, 54.4 ], [ 11.17, 54.4 ], [ 11.19, 54.4 ], [ 11.19, 54.41 ], [ 11.18, 54.41 ], [ 11.17, 54.41 ], [ 11.18, 54.42 ], [ 11.19, 54.42 ], [ 11.2, 54.42 ], [ 11.21, 54.41 ], [ 11.2, 54.41 ], [ 11.23, 54.41 ], [ 11.25, 54.41 ], [ 11.26, 54.41 ], [ 11.28, 54.4 ], [ 11.29, 54.4 ], [ 11.31, 54.4 ], [ 11.31, 54.41 ], [ 11.3, 54.42 ], [ 11.3, 54.43 ], [ 11.29, 54.44 ], [ 11.28, 54.46 ], [ 11.26, 54.47 ] ] ], [ [ [ 10.21, 53.44 ], [ 10.19, 53.43 ], [ 10.2, 53.42 ], [ 10.22, 53.44 ], [ 10.21, 53.44 ] ] ], [ [ [ 8.51, 55.21 ], [ 8.51, 55.2 ], [ 8.5, 55.2 ], [ 8.49, 55.19 ], [ 8.49, 55.17 ], [ 8.48, 55.13 ], [ 8.47, 55.12 ], [ 8.47, 55.1 ], [ 8.49, 55.07 ], [ 8.51, 55.06 ], [ 8.52, 55.07 ], [ 8.53, 55.07 ], [ 8.52, 55.08 ], [ 8.55, 55.08 ], [ 8.56, 55.08 ], [ 8.57, 55.08 ], [ 8.57, 55.09 ], [ 8.57, 55.1 ], [ 8.56, 55.1 ], [ 8.56, 55.12 ], [ 8.56, 55.15 ], [ 8.57, 55.16 ], [ 8.58, 55.17 ], [ 8.6, 55.18 ], [ 8.6, 55.19 ], [ 8.59, 55.19 ], [ 8.57, 55.2 ], [ 8.55, 55.2 ], [ 8.52, 55.21 ], [ 8.51, 55.21 ] ] ], [ [ [ 8.4, 55.05 ], [ 8.38, 55.03 ], [ 8.35, 54.99 ], [ 8.34, 54.98 ], [ 8.32, 54.95 ], [ 8.29, 54.89 ], [ 8.28, 54.86 ], [ 8.28, 54.79 ], [ 8.27, 54.76 ], [ 8.29, 54.74 ], [ 8.3, 54.74 ], [ 8.3, 54.76 ], [ 8.31, 54.76 ], [ 8.31, 54.77 ], [ 8.3, 54.78 ], [ 8.3, 54.79 ], [ 8.31, 54.81 ], [ 8.3, 54.82 ], [ 8.3, 54.84 ], [ 8.31, 54.85 ], [ 8.34, 54.86 ], [ 8.34, 54.87 ], [ 8.34, 54.88 ], [ 8.35, 54.87 ], [ 8.36, 54.87 ], [ 8.37, 54.86 ], [ 8.38, 54.86 ], [ 8.4, 54.85 ], [ 8.42, 54.84 ], [ 8.42, 54.85 ], [ 8.44, 54.85 ], [ 8.46, 54.86 ], [ 8.48, 54.87 ], [ 8.49, 54.87 ], [ 8.47, 54.88 ], [ 8.43, 54.88 ], [ 8.41, 54.89 ], [ 8.38, 54.89 ], [ 8.37, 54.91 ], [ 8.36, 54.93 ], [ 8.37, 54.94 ], [ 8.36, 54.95 ], [ 8.37, 54.96 ], [ 8.36, 54.97 ], [ 8.38, 54.99 ], [ 8.4, 55.0 ], [ 8.41, 55.01 ], [ 8.42, 55.01 ], [ 8.44, 55.02 ], [ 8.43, 55.04 ], [ 8.41, 55.04 ], [ 8.4, 55.05 ] ] ], [ [ [ 8.4, 55.05 ], [ 8.42, 55.05 ], [ 8.44, 55.05 ], [ 8.45, 55.04 ], [ 8.47, 55.04 ], [ 8.47, 55.05 ], [ 8.41, 55.06 ], [ 8.4, 55.05 ] ] ], [ [ [ 8.53, 54.76 ], [ 8.52, 54.75 ], [ 8.51, 54.75 ], [ 8.49, 54.75 ], [ 8.48, 54.75 ], [ 8.47, 54.76 ], [ 8.46, 54.75 ], [ 8.44, 54.75 ], [ 8.43, 54.75 ], [ 8.42, 54.74 ], [ 8.4, 54.72 ], [ 8.4, 54.71 ], [ 8.4, 54.7 ], [ 8.42, 54.7 ], [ 8.45, 54.69 ], [ 8.47, 54.68 ], [ 8.49, 54.68 ], [ 8.51, 54.68 ], [ 8.54, 54.68 ], [ 8.55, 54.68 ], [ 8.56, 54.68 ], [ 8.57, 54.68 ], [ 8.59, 54.71 ], [ 8.6, 54.72 ], [ 8.59, 54.72 ], [ 8.58, 54.73 ], [ 8.59, 54.74 ], [ 8.58, 54.75 ], [ 8.55, 54.76 ], [ 8.53, 54.76 ] ] ], [ [ [ 8.4, 54.62 ], [ 8.41, 54.63 ], [ 8.39, 54.63 ], [ 8.39, 54.64 ], [ 8.38, 54.64 ], [ 8.36, 54.65 ], [ 8.36, 54.66 ], [ 8.35, 54.67 ], [ 8.34, 54.68 ], [ 8.34, 54.69 ], [ 8.35, 54.7 ], [ 8.36, 54.71 ], [ 8.34, 54.71 ], [ 8.33, 54.69 ], [ 8.3, 54.69 ], [ 8.29, 54.66 ], [ 8.32, 54.63 ], [ 8.35, 54.61 ], [ 8.37, 54.61 ], [ 8.37, 54.62 ], [ 8.38, 54.62 ], [ 8.4, 54.62 ] ] ], [ [ [ 9.82, 55.06 ], [ 9.8, 55.07 ], [ 9.76, 55.08 ], [ 9.73, 55.08 ], [ 9.7, 55.07 ], [ 9.69, 55.07 ], [ 9.67, 55.07 ], [ 9.66, 55.06 ], [ 9.65, 55.05 ], [ 9.64, 55.05 ], [ 9.64, 55.04 ], [ 9.65, 55.04 ], [ 9.66, 55.04 ], [ 9.67, 55.03 ], [ 9.66, 55.03 ], [ 9.67, 55.02 ], [ 9.68, 55.01 ], [ 9.7, 55.01 ], [ 9.71, 55.01 ], [ 9.73, 55.01 ], [ 9.75, 55.01 ], [ 9.79, 55.01 ], [ 9.8, 55.01 ], [ 9.79, 55.0 ], [ 9.78, 55.0 ], [ 9.77, 55.0 ], [ 9.78, 54.99 ], [ 9.78, 54.98 ], [ 9.79, 54.98 ], [ 9.8, 54.98 ], [ 9.81, 54.98 ], [ 9.83, 54.98 ], [ 9.84, 54.97 ], [ 9.85, 54.97 ], [ 9.83, 54.96 ], [ 9.85, 54.96 ], [ 9.84, 54.95 ], [ 9.84, 54.94 ], [ 9.86, 54.94 ], [ 9.85, 54.94 ], [ 9.83, 54.93 ], [ 9.83, 54.94 ], [ 9.8, 54.96 ], [ 9.78, 54.97 ], [ 9.76, 54.98 ], [ 9.75, 54.98 ], [ 9.76, 54.97 ], [ 9.76, 54.95 ], [ 9.77, 54.93 ], [ 9.78, 54.92 ], [ 9.79, 54.9 ], [ 9.81, 54.89 ], [ 9.82, 54.89 ], [ 9.83, 54.89 ], [ 9.84, 54.89 ], [ 9.87, 54.9 ], [ 9.88, 54.9 ], [ 9.89, 54.91 ], [ 9.9, 54.91 ], [ 9.92, 54.9 ], [ 9.94, 54.9 ], [ 9.96, 54.89 ], [ 9.98, 54.88 ], [ 10.0, 54.86 ], [ 9.99, 54.86 ], [ 9.98, 54.86 ], [ 9.98, 54.87 ], [ 9.97, 54.87 ], [ 9.96, 54.87 ], [ 9.94, 54.88 ], [ 9.93, 54.88 ], [ 9.93, 54.89 ], [ 9.92, 54.88 ], [ 9.91, 54.89 ], [ 9.9, 54.9 ], [ 9.89, 54.9 ], [ 9.88, 54.88 ], [ 9.87, 54.88 ], [ 9.88, 54.87 ], [ 9.89, 54.86 ], [ 9.9, 54.86 ], [ 9.91, 54.86 ], [ 9.94, 54.85 ], [ 9.95, 54.85 ], [ 9.97, 54.85 ], [ 9.98, 54.85 ], [ 10.0, 54.85 ], [ 10.01, 54.87 ], [ 10.03, 54.87 ], [ 10.04, 54.87 ], [ 10.06, 54.87 ], [ 10.07, 54.88 ], [ 10.07, 54.89 ], [ 10.07, 54.9 ], [ 10.06, 54.9 ], [ 10.05, 54.92 ], [ 10.05, 54.93 ], [ 10.04, 54.94 ], [ 10.01, 54.97 ], [ 9.98, 55.0 ], [ 9.96, 55.01 ], [ 9.93, 55.02 ], [ 9.91, 55.02 ], [ 9.89, 55.02 ], [ 9.88, 55.02 ], [ 9.87, 55.03 ], [ 9.86, 55.04 ], [ 9.83, 55.05 ], [ 9.82, 55.06 ] ], [ [ 9.67, 55.03 ], [ 9.69, 55.03 ], [ 9.68, 55.03 ], [ 9.67, 55.03 ] ], [ [ 9.69, 55.03 ], [ 9.69, 55.04 ], [ 9.7, 55.04 ], [ 9.71, 55.04 ], [ 9.7, 55.03 ], [ 9.69, 55.03 ] ] ], [ [ [ 8.66, 54.65 ], [ 8.65, 54.66 ], [ 8.64, 54.65 ], [ 8.61, 54.65 ], [ 8.57, 54.64 ], [ 8.54, 54.64 ], [ 8.53, 54.63 ], [ 8.54, 54.62 ], [ 8.55, 54.62 ], [ 8.56, 54.62 ], [ 8.58, 54.63 ], [ 8.59, 54.63 ], [ 8.6, 54.64 ], [ 8.61, 54.63 ], [ 8.64, 54.64 ], [ 8.66, 54.64 ], [ 8.67, 54.65 ], [ 8.66, 54.65 ] ] ], [ [ [ 8.71, 54.56 ], [ 8.69, 54.56 ], [ 8.66, 54.55 ], [ 8.65, 54.55 ], [ 8.64, 54.55 ], [ 8.64, 54.54 ], [ 8.63, 54.54 ], [ 8.6, 54.54 ], [ 8.59, 54.53 ], [ 8.59, 54.52 ], [ 8.59, 54.51 ], [ 8.61, 54.5 ], [ 8.62, 54.49 ], [ 8.64, 54.49 ], [ 8.68, 54.5 ], [ 8.69, 54.51 ], [ 8.7, 54.52 ], [ 8.71, 54.54 ], [ 8.71, 54.55 ], [ 8.71, 54.56 ] ] ], [ [ [ 8.88, 54.52 ], [ 8.87, 54.53 ], [ 8.86, 54.52 ], [ 8.85, 54.52 ], [ 8.83, 54.51 ], [ 8.82, 54.51 ], [ 8.81, 54.5 ], [ 8.81, 54.49 ], [ 8.82, 54.49 ], [ 8.8, 54.47 ], [ 8.81, 54.47 ], [ 8.85, 54.46 ], [ 8.88, 54.46 ], [ 8.89, 54.46 ], [ 8.91, 54.46 ], [ 8.92, 54.47 ], [ 8.93, 54.48 ], [ 8.93, 54.49 ], [ 8.94, 54.49 ], [ 8.94, 54.5 ], [ 8.95, 54.49 ], [ 8.95, 54.5 ], [ 8.95, 54.51 ], [ 8.96, 54.51 ], [ 8.96, 54.52 ], [ 8.94, 54.52 ], [ 8.92, 54.52 ], [ 8.9, 54.52 ], [ 8.88, 54.52 ] ] ], [ [ [ 9.5, 55.12 ], [ 9.49, 55.13 ], [ 9.48, 55.13 ], [ 9.47, 55.12 ], [ 9.46, 55.12 ], [ 9.46, 55.11 ], [ 9.47, 55.11 ], [ 9.49, 55.11 ], [ 9.49, 55.12 ], [ 9.5, 55.12 ] ] ], [ [ [ 9.6, 54.91 ], [ 9.6, 54.92 ], [ 9.59, 54.91 ], [ 9.6, 54.91 ] ] ], [ [ [ 10.61, 53.73 ], [ 10.61, 53.74 ], [ 10.59, 53.74 ], [ 10.58, 53.76 ], [ 10.58, 53.75 ], [ 10.57, 53.74 ], [ 10.56, 53.73 ], [ 10.58, 53.72 ], [ 10.59, 53.72 ], [ 10.61, 53.73 ] ] ], [ [ [ 10.68, 53.71 ], [ 10.66, 53.71 ], [ 10.67, 53.72 ], [ 10.66, 53.72 ], [ 10.65, 53.72 ], [ 10.65, 53.71 ], [ 10.64, 53.71 ], [ 10.63, 53.69 ], [ 10.64, 53.69 ], [ 10.67, 53.69 ], [ 10.7, 53.67 ], [ 10.72, 53.68 ], [ 10.73, 53.7 ], [ 10.73, 53.71 ], [ 10.7, 53.72 ], [ 10.71, 53.71 ], [ 10.7, 53.7 ], [ 10.69, 53.69 ], [ 10.68, 53.71 ] ] ], [ [ [ 10.6, 53.67 ], [ 10.59, 53.68 ], [ 10.58, 53.68 ], [ 10.57, 53.68 ], [ 10.56, 53.68 ], [ 10.55, 53.68 ], [ 10.53, 53.68 ], [ 10.53, 53.67 ], [ 10.52, 53.66 ], [ 10.55, 53.65 ], [ 10.55, 53.63 ], [ 10.55, 53.62 ], [ 10.56, 53.62 ], [ 10.58, 53.62 ], [ 10.59, 53.63 ], [ 10.6, 53.63 ], [ 10.65, 53.63 ], [ 10.64, 53.64 ], [ 10.65, 53.64 ], [ 10.64, 53.65 ], [ 10.63, 53.67 ], [ 10.62, 53.67 ], [ 10.6, 53.67 ] ] ], [ [ [ 10.79, 53.64 ], [ 10.77, 53.64 ], [ 10.76, 53.63 ], [ 10.75, 53.64 ], [ 10.74, 53.64 ], [ 10.75, 53.63 ], [ 10.76, 53.62 ], [ 10.75, 53.61 ], [ 10.74, 53.6 ], [ 10.77, 53.59 ], [ 10.78, 53.6 ], [ 10.77, 53.62 ], [ 10.78, 53.62 ], [ 10.8, 53.63 ], [ 10.79, 53.64 ] ] ], [ [ [ 10.52, 53.6 ], [ 10.51, 53.6 ], [ 10.51, 53.59 ], [ 10.52, 53.58 ], [ 10.53, 53.58 ], [ 10.56, 53.57 ], [ 10.58, 53.58 ], [ 10.57, 53.59 ], [ 10.56, 53.6 ], [ 10.54, 53.59 ], [ 10.53, 53.59 ], [ 10.52, 53.6 ] ] ], [ [ [ 10.63, 53.55 ], [ 10.63, 53.56 ], [ 10.63, 53.57 ], [ 10.61, 53.57 ], [ 10.59, 53.57 ], [ 10.59, 53.56 ], [ 10.62, 53.55 ], [ 10.63, 53.55 ] ] ], [ [ [ 10.18, 53.71 ], [ 10.17, 53.72 ], [ 10.14, 53.73 ], [ 10.13, 53.72 ], [ 10.12, 53.72 ], [ 10.12, 53.71 ], [ 10.12, 53.69 ], [ 10.13, 53.69 ], [ 10.15, 53.68 ], [ 10.16, 53.69 ], [ 10.16, 53.7 ], [ 10.17, 53.71 ], [ 10.18, 53.71 ] ] ], [ [ [ 10.32, 53.68 ], [ 10.3, 53.69 ], [ 10.3, 53.68 ], [ 10.28, 53.68 ], [ 10.27, 53.68 ], [ 10.26, 53.68 ], [ 10.26, 53.67 ], [ 10.25, 53.66 ], [ 10.26, 53.65 ], [ 10.28, 53.64 ], [ 10.29, 53.65 ], [ 10.31, 53.65 ], [ 10.31, 53.67 ], [ 10.32, 53.68 ] ] ], [ [ [ 10.16, 53.64 ], [ 10.18, 53.64 ], [ 10.2, 53.65 ], [ 10.18, 53.67 ], [ 10.16, 53.67 ], [ 10.15, 53.67 ], [ 10.15, 53.66 ], [ 10.14, 53.66 ], [ 10.14, 53.65 ], [ 10.15, 53.64 ], [ 10.16, 53.64 ] ] ], [ [ [ 10.13, 53.6 ], [ 10.13, 53.61 ], [ 10.13, 53.62 ], [ 10.14, 53.63 ], [ 10.12, 53.63 ], [ 10.11, 53.62 ], [ 10.1, 53.61 ], [ 10.1, 53.59 ], [ 10.13, 53.6 ] ] ] ] } }
]
}
