{
"type": "FeatureCollection",
"name": "PRU_POS_1914",
"crs": { "type": "name", "properties": { "name": "urn:ogc:def:crs:OGC:1.3:CRS84" } },
"features": [
{ "type": "Feature", "properties": { "name": "Posen" }, "geometry": { "type": "MultiPolygon", "coordinates": [ [ [ [ 18.16, 51.55 ], [ 18.2, 51.56 ], [ 18.2, 51.58 ], [ 18.16, 51.59 ], [ 18.13, 51.61 ], [ 18.1, 51.61 ], [ 18.1, 51.63 ], [ 18.08, 51.64 ], [ 18.09, 51.66 ], [ 18.11, 51.67 ], [ 18.12, 51.7 ], [ 18.1, 51.71 ], [ 18.08, 51.71 ], [ 18.05, 51.72 ], [ 18.02, 51.72 ], [ 18.01, 51.73 ], [ 18.0, 51.75 ], [ 18.0, 51.78 ], [ 17.97, 51.79 ], [ 17.97, 51.8 ], [ 17.97, 51.81 ], [ 18.02, 51.8 ], [ 18.03, 51.81 ], [ 18.04, 51.82 ], [ 18.02, 51.86 ], [ 17.97, 51.9 ], [ 17.94, 51.93 ], [ 17.9, 51.97 ], [ 17.83, 52.01 ], [ 17.81, 52.02 ], [ 17.77, 52.04 ], [ 17.74, 52.05 ], [ 17.7, 52.08 ], [ 17.68, 52.1 ], [ 17.68, 52.14 ], [ 17.66, 52.17 ], [ 17.66, 52.18 ], [ 17.71, 52.2 ], [ 17.78, 52.22 ], [ 17.82, 52.27 ], [ 17.84, 52.29 ], [ 17.88, 52.31 ], [ 17.9, 52.33 ], [ 17.92, 52.34 ], [ 17.92, 52.36 ], [ 17.96, 52.38 ], [ 17.96, 52.41 ], [ 17.98, 52.43 ], [ 18.02, 52.44 ], [ 18.06, 52.46 ], [ 18.09, 52.48 ], [ 18.11, 52.48 ], [ 18.15, 52.5 ], [ 18.17, 52.51 ], [ 18.2, 52.51 ], [ 18.21, 52.49 ], [ 18.26, 52.49 ], [ 18.34, 52.52 ], [ 18.36, 52.54 ], [ 18.38, 52.54 ], [ 18.41, 52.55 ], [ 18.41, 52.53 ], [ 18.42, 52.53 ], [ 18.44, 52.54 ], [ 18.45, 52.53 ], [ 18.47, 52.54 ], [ 18.49, 52.56 ], [ 18.48, 52.57 ], [ 18.49, 52.58 ], [ 18.48, 52.59 ], [ 18.48, 52.61 ], [ 18.48, 52.63 ], [ 18.46, 52.65 ], [ 18.46, 52.66 ], [ 18.48, 52.66 ], [ 18.47, 52.67 ], [ 18.48, 52.69 ], [ 18.5, 52.7 ], [ 18.51, 52.72 ], [ 18.52, 52.75 ], [ 18.54, 52.75 ], [ 18.56, 52.76 ], [ 18.58, 52.76 ], [ 18.6, 52.75 ], [ 18.63, 52.78 ], [ 18.62, 52.81 ], [ 18.61, 52.84 ], [ 18.6, 52.85 ], [ 18.57, 52.85 ], [ 18.58, 52.88 ], [ 18.56, 52.91 ], [ 18.58, 52.95 ], [ 18.57, 52.96 ], [ 18.51, 52.98 ], [ 18.45, 52.99 ], [ 18.45, 53.01 ], [ 18.41, 53.05 ], [ 18.38, 53.05 ], [ 18.32, 53.07 ], [ 18.31, 53.08 ], [ 18.26, 53.09 ], [ 18.17, 53.09 ], [ 18.15, 53.1 ], [ 18.15, 53.11 ], [ 18.14, 53.13 ], [ 18.19, 53.15 ], [ 18.19, 53.18 ], [ 18.2, 53.22 ], [ 18.23, 53.23 ], [ 18.23, 53.25 ], [ 18.23, 53.27 ], [ 18.19, 53.28 ], [ 18.19, 53.3 ], [ 18.21, 53.31 ], [ 18.18, 53.33 ], [ 18.16, 53.33 ], [ 18.13, 53.33 ], [ 18.11, 53.34 ], [ 18.1, 53.35 ], [ 18.06, 53.34 ], [ 18.05, 53.32 ], [ 18.03, 53.31 ], [ 18.0, 53.32 ], [ 18.0, 53.36 ], [ 18.04, 53.36 ], [ 18.03, 53.37 ], [ 18.04, 53.38 ], [ 18.04, 53.39 ], [ 18.01, 53.39 ], [ 18.0, 53.4 ], [ 17.98, 53.4 ], [ 17.97, 53.4 ], [ 17.96, 53.43 ], [ 17.94, 53.46 ], [ 17.91, 53.44 ], [ 17.91, 53.43 ], [ 17.9, 53.43 ], [ 17.86, 53.42 ], [ 17.83, 53.43 ], [ 17.79, 53.43 ], [ 17.78, 53.43 ], [ 17.74, 53.44 ], [ 17.73, 53.43 ], [ 17.72, 53.41 ], [ 17.75, 53.39 ], [ 17.72, 53.37 ], [ 17.7, 53.37 ], [ 17.68, 53.37 ], [ 17.66, 53.36 ], [ 17.62, 53.35 ], [ 17.61, 53.34 ], [ 17.63, 53.33 ], [ 17.63, 53.31 ], [ 17.62, 53.28 ], [ 17.59, 53.28 ], [ 17.57, 53.29 ], [ 17.55, 53.29 ], [ 17.52, 53.31 ], [ 17.53, 53.32 ], [ 17.52, 53.33 ], [ 17.5, 53.33 ], [ 17.46, 53.35 ], [ 17.4, 53.36 ], [ 17.38, 53.33 ], [ 17.35, 53.34 ], [ 17.35, 53.35 ], [ 17.32, 53.35 ], [ 17.27, 53.37 ], [ 17.27, 53.34 ], [ 17.26, 53.32 ], [ 17.24, 53.31 ], [ 17.2, 53.29 ], [ 17.19, 53.27 ], [ 17.11, 53.25 ], [ 17.09, 53.25 ], [ 17.09, 53.24 ], [ 17.08, 53.23 ], [ 17.06, 53.23 ], [ 17.05, 53.23 ], [ 17.01, 53.23 ], [ 17.0, 53.23 ], [ 16.97, 53.23 ], [ 16.96, 53.22 ], [ 16.93, 53.21 ], [ 16.92, 53.24 ], [ 16.91, 53.25 ], [ 16.85, 53.25 ], [ 16.84, 53.25 ], [ 16.83, 53.24 ], [ 16.82, 53.23 ], [ 16.8, 53.21 ], [ 16.79, 53.19 ], [ 16.76, 53.17 ], [ 16.75, 53.17 ], [ 16.74, 53.18 ], [ 16.73, 53.17 ], [ 16.7, 53.18 ], [ 16.69, 53.17 ], [ 16.68, 53.16 ], [ 16.68, 53.15 ], [ 16.68, 53.14 ], [ 16.68, 53.13 ], [ 16.69, 53.14 ], [ 16.73, 53.12 ], [ 16.72, 53.11 ], [ 16.71, 53.11 ], [ 16.7, 53.12 ], [ 16.68, 53.11 ], [ 16.61, 53.11 ], [ 16.59, 53.11 ], [ 16.55, 53.11 ], [ 16.51, 53.12 ], [ 16.49, 53.12 ], [ 16.41, 53.14 ], [ 16.39, 53.14 ], [ 16.36, 53.13 ], [ 16.39, 53.11 ], [ 16.38, 53.1 ], [ 16.37, 53.09 ], [ 16.36, 53.08 ], [ 16.34, 53.07 ], [ 16.33, 53.05 ], [ 16.31, 53.04 ], [ 16.28, 53.05 ], [ 16.25, 53.05 ], [ 16.15, 53.02 ], [ 16.13, 53.01 ], [ 16.11, 53.02 ], [ 16.06, 53.02 ], [ 16.03, 53.03 ], [ 15.97, 53.05 ], [ 15.96, 53.03 ], [ 15.95, 52.97 ], [ 15.97, 52.96 ], [ 15.98, 52.93 ], [ 15.97, 52.89 ], [ 15.98, 52.86 ], [ 15.98, 52.85 ], [ 15.97, 52.83 ], [ 15.96, 52.82 ], [ 15.94, 52.8 ], [ 15.94, 52.78 ], [ 15.96, 52.76 ], [ 15.96, 52.75 ], [ 15.95, 52.74 ], [ 15.89, 52.72 ], [ 15.81, 52.71 ], [ 15.79, 52.71 ], [ 15.77, 52.7 ], [ 15.72, 52.71 ], [ 15.63, 52.7 ], [ 15.6, 52.72 ], [ 15.59, 52.72 ], [ 15.55, 52.7 ], [ 15.5, 52.7 ], [ 15.5, 52.69 ], [ 15.49, 52.65 ], [ 15.45, 52.63 ], [ 15.41, 52.64 ], [ 15.4, 52.66 ], [ 15.39, 52.66 ], [ 15.37, 52.65 ], [ 15.36, 52.64 ], [ 15.34, 52.61 ], [ 15.33, 52.6 ], [ 15.34, 52.58 ], [ 15.34, 52.54 ], [ 15.28, 52.52 ], [ 15.27, 52.52 ], [ 15.27, 52.5 ], [ 15.27, 52.48 ], [ 15.29, 52.48 ], [ 15.33, 52.45 ], [ 15.36, 52.45 ], [ 15.38, 52.45 ], [ 15.39, 52.45 ], [ 15.4, 52.42 ], [ 15.45, 52.39 ], [ 15.43, 52.37 ], [ 15.46, 52.36 ], [ 15.48, 52.36 ], [ 15.54, 52.35 ], [ 15.61, 52.35 ], [ 15.66, 52.31 ], [ 15.72, 52.27 ], [ 15.73, 52.25 ], [ 15.77, 52.22 ], [ 15.76, 52.22 ], [ 15.73, 52.22 ], [ 15.71, 52.19 ], [ 15.72, 52.17 ], [ 15.73, 52.15 ], [ 15.76, 52.13 ], [ 15.75, 52.11 ], [ 15.74, 52.11 ], [ 15.73, 52.1 ], [ 15.77, 52.07 ], [ 15.81, 52.06 ], [ 15.81, 52.04 ], [ 15.85, 52.04 ], [ 15.87, 52.05 ], [ 15.91, 52.04 ], [ 15.92, 52.02 ], [ 15.96, 52.0 ], [ 16.01, 51.99 ], [ 16.02, 51.98 ], [ 16.0, 51.95 ], [ 15.97, 51.95 ], [ 15.96, 51.93 ], [ 15.99, 51.93 ], [ 16.02, 51.94 ], [ 16.06, 51.93 ], [ 16.09, 51.91 ], [ 16.11, 51.9 ], [ 16.13, 51.89 ], [ 16.18, 51.9 ], [ 16.2, 51.88 ], [ 16.2, 51.87 ], [ 16.17, 51.82 ], [ 16.16, 51.79 ], [ 16.15, 51.76 ], [ 16.16, 51.76 ], [ 16.17, 51.76 ], [ 16.19, 51.76 ], [ 16.23, 51.75 ], [ 16.21, 51.72 ], [ 16.24, 51.7 ], [ 16.27, 51.7 ], [ 16.28, 51.7 ], [ 16.35, 51.71 ], [ 16.37, 51.73 ], [ 16.4, 51.77 ], [ 16.42, 51.78 ], [ 16.43, 51.78 ], [ 16.52, 51.78 ], [ 16.54, 51.78 ], [ 16.55, 51.77 ], [ 16.56, 51.77 ], [ 16.58, 51.76 ], [ 16.6, 51.75 ], [ 16.62, 51.74 ], [ 16.65, 51.75 ], [ 16.71, 51.75 ], [ 16.73, 51.74 ], [ 16.73, 51.72 ], [ 16.71, 51.7 ], [ 16.72, 51.69 ], [ 16.77, 51.68 ], [ 16.79, 51.65 ], [ 16.81, 51.61 ], [ 16.81, 51.6 ], [ 16.83, 51.57 ], [ 16.88, 51.58 ], [ 16.89, 51.58 ], [ 16.9, 51.58 ], [ 16.92, 51.56 ], [ 16.94, 51.55 ], [ 16.97, 51.54 ], [ 17.03, 51.56 ], [ 17.03, 51.55 ], [ 17.04, 51.54 ], [ 17.05, 51.54 ], [ 17.08, 51.56 ], [ 17.1, 51.57 ], [ 17.11, 51.57 ], [ 17.12, 51.56 ], [ 17.18, 51.57 ], [ 17.22, 51.57 ], [ 17.22, 51.58 ], [ 17.22, 51.61 ], [ 17.22, 51.62 ], [ 17.23, 51.64 ], [ 17.28, 51.65 ], [ 17.35, 51.65 ], [ 17.41, 51.64 ], [ 17.45, 51.63 ], [ 17.48, 51.63 ], [ 17.51, 51.61 ], [ 17.53, 51.59 ], [ 17.57, 51.58 ], [ 17.59, 51.56 ], [ 17.59, 51.55 ], [ 17.58, 51.52 ], [ 17.62, 51.51 ], [ 17.66, 51.5 ], [ 17.71, 51.5 ], [ 17.76, 51.5 ], [ 17.81, 51.49 ], [ 17.83, 51.48 ], [ 17.83, 51.47 ], [ 17.81, 51.45 ], [ 17.79, 51.44 ], [ 17.78, 51.44 ], [ 17.79, 51.4 ], [ 17.8, 51.38 ], [ 17.83, 51.37 ], [ 17.87, 51.36 ], [ 17.87, 51.35 ], [ 17.87, 51.32 ], [ 17.88, 51.31 ], [ 17.98, 51.29 ], [ 17.98, 51.28 ], [ 17.97, 51.25 ], [ 17.94, 51.22 ], [ 17.93, 51.21 ], [ 17.92, 51.21 ], [ 17.92, 51.2 ], [ 17.97, 51.17 ], [ 18.01, 51.15 ], [ 18.03, 51.14 ], [ 18.03, 51.13 ], [ 18.05, 51.13 ], [ 18.06, 51.14 ], [ 18.1, 51.15 ], [ 18.13, 51.17 ], [ 18.16, 51.17 ], [ 18.18, 51.19 ], [ 18.19, 51.21 ], [ 18.19, 51.22 ], [ 18.18, 51.23 ], [ 18.18, 51.27 ], [ 18.16, 51.28 ], [ 18.16, 51.31 ], [ 18.17, 51.33 ], [ 18.18, 51.35 ], [ 18.2, 51.39 ], [ 18.21, 51.4 ], [ 18.21, 51.43 ], [ 18.18, 51.46 ], [ 18.15, 51.47 ], [ 18.15, 51.48 ], [ 18.14, 51.51 ], [ 18.14, 51.53 ], [ 18.14, 51.54 ], [ 18.16, 51.55 ] ] ] ] } }
]
}
