{
"type": "FeatureCollection",
"name": "PRU_HES_1914",
"crs": { "type": "name", "properties": { "name": "urn:ogc:def:crs:OGC:1.3:CRS84" } },
"features": [
{ "type": "Feature", "properties": { "name": "Hessen-Nassau" }, "geometry": { "type": "MultiPolygon", "coordinates": [ [ [ [ 9.97, 50.83 ], [ 10.0, 50.83 ], [ 10.01, 50.84 ], [ 10.03, 50.84 ], [ 10.05, 50.85 ], [ 10.03, 50.85 ], [ 10.03, 50.86 ], [ 10.03, 50.87 ], [ 10.07, 50.88 ], [ 10.07, 50.89 ], [ 10.06, 50.89 ], [ 10.05, 50.9 ], [ 10.02, 50.92 ], [ 10.0, 50.92 ], [ 9.99, 50.91 ], [ 9.98, 50.91 ], [ 9.97, 50.91 ], [ 9.99, 50.92 ], [ 9.99, 50.93 ], [ 9.98, 50.94 ], [ 10.0, 50.94 ], [ 10.02, 50.94 ], [ 10.03, 50.94 ], [ 10.07, 50.95 ], [ 10.05, 50.96 ], [ 10.04, 50.97 ], [ 10.05, 50.97 ], [ 10.05, 50.98 ], [ 10.03, 50.98 ], [ 10.03, 50.99 ], [ 10.03, 51.01 ], [ 10.04, 51.02 ], [ 10.08, 51.01 ], [ 10.12, 51.01 ], [ 10.13, 51.01 ], [ 10.14, 50.99 ], [ 10.18, 50.99 ], [ 10.19, 51.0 ], [ 10.2, 51.01 ], [ 10.2, 51.02 ], [ 10.21, 51.03 ], [ 10.21, 51.04 ], [ 10.19, 51.05 ], [ 10.18, 51.05 ], [ 10.15, 51.06 ], [ 10.16, 51.08 ], [ 10.15, 51.09 ], [ 10.17, 51.1 ], [ 10.18, 51.11 ], [ 10.18, 51.12 ], [ 10.17, 51.12 ], [ 10.16, 51.12 ], [ 10.13, 51.14 ], [ 10.14, 51.15 ], [ 10.16, 51.15 ], [ 10.17, 51.15 ], [ 10.18, 51.14 ], [ 10.19, 51.13 ], [ 10.2, 51.12 ], [ 10.21, 51.12 ], [ 10.21, 51.14 ], [ 10.21, 51.15 ], [ 10.21, 51.16 ], [ 10.22, 51.17 ], [ 10.24, 51.19 ], [ 10.21, 51.19 ], [ 10.19, 51.21 ], [ 10.17, 51.22 ], [ 10.16, 51.21 ], [ 10.15, 51.21 ], [ 10.15, 51.22 ], [ 10.11, 51.22 ], [ 10.08, 51.23 ], [ 10.08, 51.24 ], [ 10.08, 51.25 ], [ 10.06, 51.26 ], [ 10.07, 51.28 ], [ 10.08, 51.29 ], [ 10.09, 51.29 ], [ 10.08, 51.3 ], [ 10.04, 51.31 ], [ 10.03, 51.31 ], [ 10.01, 51.29 ], [ 9.99, 51.29 ], [ 9.98, 51.29 ], [ 9.98, 51.3 ], [ 9.97, 51.3 ], [ 9.95, 51.31 ], [ 9.95, 51.32 ], [ 9.94, 51.32 ], [ 9.93, 51.32 ], [ 9.91, 51.33 ], [ 9.91, 51.34 ], [ 9.91, 51.35 ], [ 9.92, 51.36 ], [ 9.93, 51.37 ], [ 9.94, 51.38 ], [ 9.93, 51.39 ], [ 9.93, 51.4 ], [ 9.92, 51.41 ], [ 9.91, 51.42 ], [ 9.9, 51.42 ], [ 9.88, 51.41 ], [ 9.86, 51.41 ], [ 9.86, 51.39 ], [ 9.87, 51.37 ], [ 9.85, 51.37 ], [ 9.84, 51.38 ], [ 9.84, 51.39 ], [ 9.84, 51.4 ], [ 9.82, 51.41 ], [ 9.81, 51.41 ], [ 9.82, 51.4 ], [ 9.81, 51.4 ], [ 9.8, 51.39 ], [ 9.81, 51.38 ], [ 9.77, 51.38 ], [ 9.76, 51.38 ], [ 9.73, 51.37 ], [ 9.71, 51.36 ], [ 9.72, 51.35 ], [ 9.72, 51.34 ], [ 9.73, 51.34 ], [ 9.74, 51.32 ], [ 9.75, 51.32 ], [ 9.76, 51.33 ], [ 9.77, 51.33 ], [ 9.78, 51.32 ], [ 9.77, 51.31 ], [ 9.74, 51.3 ], [ 9.73, 51.3 ], [ 9.72, 51.3 ], [ 9.71, 51.3 ], [ 9.67, 51.31 ], [ 9.6, 51.33 ], [ 9.58, 51.34 ], [ 9.57, 51.34 ], [ 9.56, 51.34 ], [ 9.55, 51.35 ], [ 9.55, 51.36 ], [ 9.57, 51.36 ], [ 9.58, 51.37 ], [ 9.57, 51.37 ], [ 9.56, 51.38 ], [ 9.56, 51.39 ], [ 9.57, 51.39 ], [ 9.58, 51.4 ], [ 9.59, 51.4 ], [ 9.62, 51.4 ], [ 9.63, 51.41 ], [ 9.63, 51.42 ], [ 9.62, 51.44 ], [ 9.63, 51.45 ], [ 9.64, 51.46 ], [ 9.64, 51.47 ], [ 9.62, 51.48 ], [ 9.6, 51.51 ], [ 9.59, 51.51 ], [ 9.59, 51.52 ], [ 9.61, 51.52 ], [ 9.62, 51.54 ], [ 9.62, 51.55 ], [ 9.64, 51.55 ], [ 9.64, 51.56 ], [ 9.63, 51.57 ], [ 9.63, 51.58 ], [ 9.63, 51.59 ], [ 9.68, 51.57 ], [ 9.69, 51.57 ], [ 9.66, 51.59 ], [ 9.64, 51.61 ], [ 9.64, 51.62 ], [ 9.63, 51.62 ], [ 9.62, 51.63 ], [ 9.58, 51.62 ], [ 9.57, 51.62 ], [ 9.56, 51.63 ], [ 9.55, 51.64 ], [ 9.54, 51.63 ], [ 9.53, 51.63 ], [ 9.51, 51.63 ], [ 9.49, 51.64 ], [ 9.5, 51.65 ], [ 9.49, 51.66 ], [ 9.48, 51.66 ], [ 9.47, 51.65 ], [ 9.45, 51.65 ], [ 9.44, 51.64 ], [ 9.43, 51.63 ], [ 9.39, 51.63 ], [ 9.34, 51.62 ], [ 9.37, 51.6 ], [ 9.37, 51.59 ], [ 9.35, 51.58 ], [ 9.34, 51.56 ], [ 9.31, 51.54 ], [ 9.31, 51.52 ], [ 9.25, 51.5 ], [ 9.22, 51.49 ], [ 9.22, 51.47 ], [ 9.22, 51.46 ], [ 9.21, 51.46 ], [ 9.19, 51.46 ], [ 9.17, 51.46 ], [ 9.16, 51.44 ], [ 9.15, 51.44 ], [ 9.14, 51.45 ], [ 9.1, 51.45 ], [ 9.09, 51.45 ], [ 9.09, 51.44 ], [ 9.08, 51.43 ], [ 9.07, 51.43 ], [ 9.07, 51.42 ], [ 9.08, 51.42 ], [ 9.1, 51.4 ], [ 9.09, 51.4 ], [ 9.09, 51.39 ], [ 9.11, 51.38 ], [ 9.12, 51.39 ], [ 9.13, 51.39 ], [ 9.13, 51.37 ], [ 9.14, 51.37 ], [ 9.13, 51.36 ], [ 9.11, 51.36 ], [ 9.12, 51.35 ], [ 9.13, 51.35 ], [ 9.13, 51.34 ], [ 9.12, 51.33 ], [ 9.11, 51.31 ], [ 9.11, 51.3 ], [ 9.12, 51.28 ], [ 9.13, 51.27 ], [ 9.11, 51.27 ], [ 9.1, 51.26 ], [ 9.1, 51.25 ], [ 9.11, 51.25 ], [ 9.13, 51.24 ], [ 9.13, 51.23 ], [ 9.14, 51.22 ], [ 9.15, 51.22 ], [ 9.15, 51.21 ], [ 9.16, 51.21 ], [ 9.17, 51.2 ], [ 9.18, 51.2 ], [ 9.18, 51.19 ], [ 9.18, 51.18 ], [ 9.19, 51.18 ], [ 9.19, 51.17 ], [ 9.21, 51.18 ], [ 9.22, 51.18 ], [ 9.23, 51.19 ], [ 9.24, 51.18 ], [ 9.25, 51.17 ], [ 9.23, 51.16 ], [ 9.22, 51.14 ], [ 9.23, 51.13 ], [ 9.22, 51.11 ], [ 9.2, 51.1 ], [ 9.17, 51.09 ], [ 9.17, 51.08 ], [ 9.16, 51.06 ], [ 9.14, 51.05 ], [ 9.11, 51.05 ], [ 9.1, 51.04 ], [ 9.11, 51.03 ], [ 9.1, 51.03 ], [ 9.09, 51.04 ], [ 9.08, 51.04 ], [ 9.07, 51.04 ], [ 9.06, 51.04 ], [ 9.04, 51.05 ], [ 9.03, 51.07 ], [ 9.02, 51.07 ], [ 9.01, 51.08 ], [ 9.0, 51.08 ], [ 8.98, 51.09 ], [ 8.96, 51.11 ], [ 8.97, 51.12 ], [ 8.97, 51.13 ], [ 8.96, 51.15 ], [ 8.97, 51.16 ], [ 8.98, 51.17 ], [ 8.97, 51.17 ], [ 8.97, 51.18 ], [ 8.98, 51.19 ], [ 8.99, 51.19 ], [ 9.0, 51.19 ], [ 9.0, 51.2 ], [ 9.0, 51.21 ], [ 9.0, 51.22 ], [ 8.97, 51.23 ], [ 8.97, 51.24 ], [ 8.96, 51.24 ], [ 8.94, 51.23 ], [ 8.92, 51.24 ], [ 8.9, 51.24 ], [ 8.88, 51.24 ], [ 8.88, 51.23 ], [ 8.88, 51.21 ], [ 8.86, 51.18 ], [ 8.86, 51.16 ], [ 8.83, 51.15 ], [ 8.83, 51.13 ], [ 8.82, 51.13 ], [ 8.81, 51.11 ], [ 8.79, 51.11 ], [ 8.78, 51.11 ], [ 8.76, 51.12 ], [ 8.74, 51.12 ], [ 8.73, 51.12 ], [ 8.73, 51.11 ], [ 8.72, 51.11 ], [ 8.69, 51.1 ], [ 8.67, 51.09 ], [ 8.65, 51.09 ], [ 8.62, 51.1 ], [ 8.56, 51.1 ], [ 8.55, 51.1 ], [ 8.53, 51.1 ], [ 8.53, 51.09 ], [ 8.52, 51.08 ], [ 8.53, 51.07 ], [ 8.53, 51.06 ], [ 8.52, 51.05 ], [ 8.52, 51.04 ], [ 8.54, 51.02 ], [ 8.48, 50.98 ], [ 8.47, 50.97 ], [ 8.47, 50.96 ], [ 8.46, 50.94 ], [ 8.46, 50.92 ], [ 8.45, 50.92 ], [ 8.43, 50.91 ], [ 8.4, 50.89 ], [ 8.37, 50.87 ], [ 8.31, 50.86 ], [ 8.31, 50.87 ], [ 8.29, 50.88 ], [ 8.27, 50.88 ], [ 8.25, 50.87 ], [ 8.22, 50.85 ], [ 8.18, 50.83 ], [ 8.16, 50.8 ], [ 8.14, 50.79 ], [ 8.14, 50.78 ], [ 8.14, 50.77 ], [ 8.16, 50.75 ], [ 8.16, 50.74 ], [ 8.15, 50.7 ], [ 8.13, 50.69 ], [ 8.12, 50.69 ], [ 8.11, 50.7 ], [ 8.08, 50.71 ], [ 8.06, 50.7 ], [ 8.05, 50.7 ], [ 8.04, 50.7 ], [ 8.02, 50.7 ], [ 8.01, 50.7 ], [ 7.99, 50.69 ], [ 7.97, 50.69 ], [ 7.97, 50.7 ], [ 7.95, 50.71 ], [ 7.92, 50.72 ], [ 7.9, 50.72 ], [ 7.89, 50.72 ], [ 7.88, 50.72 ], [ 7.88, 50.7 ], [ 7.88, 50.69 ], [ 7.87, 50.69 ], [ 7.84, 50.69 ], [ 7.84, 50.7 ], [ 7.84, 50.71 ], [ 7.83, 50.71 ], [ 7.82, 50.71 ], [ 7.8, 50.72 ], [ 7.79, 50.73 ], [ 7.81, 50.74 ], [ 7.8, 50.74 ], [ 7.79, 50.74 ], [ 7.77, 50.74 ], [ 7.75, 50.74 ], [ 7.74, 50.74 ], [ 7.75, 50.73 ], [ 7.74, 50.73 ], [ 7.73, 50.73 ], [ 7.72, 50.73 ], [ 7.72, 50.72 ], [ 7.73, 50.72 ], [ 7.73, 50.71 ], [ 7.72, 50.71 ], [ 7.7, 50.71 ], [ 7.69, 50.71 ], [ 7.71, 50.69 ], [ 7.71, 50.68 ], [ 7.69, 50.67 ], [ 7.68, 50.65 ], [ 7.67, 50.65 ], [ 7.67, 50.63 ], [ 7.68, 50.63 ], [ 7.68, 50.62 ], [ 7.67, 50.61 ], [ 7.67, 50.6 ], [ 7.68, 50.59 ], [ 7.68, 50.58 ], [ 7.68, 50.57 ], [ 7.67, 50.57 ], [ 7.67, 50.56 ], [ 7.68, 50.55 ], [ 7.7, 50.55 ], [ 7.7, 50.53 ], [ 7.69, 50.52 ], [ 7.67, 50.52 ], [ 7.67, 50.51 ], [ 7.67, 50.5 ], [ 7.65, 50.49 ], [ 7.62, 50.48 ], [ 7.6, 50.48 ], [ 7.59, 50.47 ], [ 7.59, 50.46 ], [ 7.59, 50.45 ], [ 7.61, 50.46 ], [ 7.62, 50.46 ], [ 7.65, 50.46 ], [ 7.66, 50.46 ], [ 7.65, 50.45 ], [ 7.64, 50.45 ], [ 7.63, 50.44 ], [ 7.64, 50.44 ], [ 7.66, 50.43 ], [ 7.67, 50.42 ], [ 7.68, 50.4 ], [ 7.66, 50.39 ], [ 7.66, 50.38 ], [ 7.68, 50.38 ], [ 7.68, 50.37 ], [ 7.68, 50.36 ], [ 7.66, 50.33 ], [ 7.65, 50.32 ], [ 7.64, 50.32 ], [ 7.63, 50.32 ], [ 7.62, 50.32 ], [ 7.61, 50.31 ], [ 7.59, 50.31 ], [ 7.61, 50.29 ], [ 7.63, 50.28 ], [ 7.62, 50.28 ], [ 7.64, 50.28 ], [ 7.65, 50.27 ], [ 7.65, 50.26 ], [ 7.64, 50.25 ], [ 7.62, 50.25 ], [ 7.59, 50.26 ], [ 7.58, 50.25 ], [ 7.58, 50.24 ], [ 7.59, 50.23 ], [ 7.62, 50.22 ], [ 7.64, 50.2 ], [ 7.64, 50.19 ], [ 7.64, 50.18 ], [ 7.66, 50.17 ], [ 7.69, 50.17 ], [ 7.72, 50.15 ], [ 7.74, 50.13 ], [ 7.73, 50.12 ], [ 7.72, 50.12 ], [ 7.72, 50.11 ], [ 7.74, 50.1 ], [ 7.77, 50.08 ], [ 7.77, 50.07 ], [ 7.77, 50.06 ], [ 7.78, 50.05 ], [ 7.79, 50.05 ], [ 7.83, 50.02 ], [ 7.85, 50.01 ], [ 7.86, 50.0 ], [ 7.87, 49.99 ], [ 7.87, 49.98 ], [ 7.88, 49.97 ], [ 7.89, 49.97 ], [ 7.91, 49.97 ], [ 7.97, 49.98 ], [ 8.01, 49.99 ], [ 8.02, 49.99 ], [ 8.03, 50.0 ], [ 8.04, 50.0 ], [ 8.08, 50.01 ], [ 8.14, 50.02 ], [ 8.17, 50.03 ], [ 8.17, 50.04 ], [ 8.19, 50.04 ], [ 8.21, 50.03 ], [ 8.22, 50.03 ], [ 8.24, 50.03 ], [ 8.25, 50.04 ], [ 8.26, 50.05 ], [ 8.27, 50.05 ], [ 8.29, 50.05 ], [ 8.31, 50.05 ], [ 8.31, 50.04 ], [ 8.32, 50.04 ], [ 8.33, 50.03 ], [ 8.34, 50.03 ], [ 8.34, 50.02 ], [ 8.33, 50.01 ], [ 8.34, 50.0 ], [ 8.36, 50.0 ], [ 8.37, 50.0 ], [ 8.41, 50.0 ], [ 8.42, 50.01 ], [ 8.45, 50.02 ], [ 8.47, 50.03 ], [ 8.49, 50.05 ], [ 8.5, 50.05 ], [ 8.51, 50.06 ], [ 8.52, 50.07 ], [ 8.52, 50.08 ], [ 8.53, 50.08 ], [ 8.54, 50.08 ], [ 8.54, 50.07 ], [ 8.55, 50.07 ], [ 8.56, 50.05 ], [ 8.57, 50.05 ], [ 8.59, 50.04 ], [ 8.6, 50.04 ], [ 8.61, 50.03 ], [ 8.62, 50.05 ], [ 8.63, 50.05 ], [ 8.64, 50.05 ], [ 8.65, 50.05 ], [ 8.68, 50.05 ], [ 8.69, 50.06 ], [ 8.71, 50.06 ], [ 8.73, 50.06 ], [ 8.74, 50.08 ], [ 8.75, 50.1 ], [ 8.74, 50.11 ], [ 8.73, 50.11 ], [ 8.75, 50.12 ], [ 8.77, 50.11 ], [ 8.78, 50.12 ], [ 8.77, 50.13 ], [ 8.77, 50.14 ], [ 8.78, 50.14 ], [ 8.8, 50.13 ], [ 8.81, 50.14 ], [ 8.82, 50.13 ], [ 8.84, 50.13 ], [ 8.86, 50.13 ], [ 8.88, 50.13 ], [ 8.89, 50.13 ], [ 8.9, 50.13 ], [ 8.91, 50.13 ], [ 8.91, 50.12 ], [ 8.92, 50.11 ], [ 8.94, 50.1 ], [ 8.95, 50.08 ], [ 8.97, 50.08 ], [ 8.99, 50.08 ], [ 8.99, 50.07 ], [ 9.0, 50.07 ], [ 9.0, 50.09 ], [ 9.02, 50.11 ], [ 9.04, 50.12 ], [ 9.07, 50.12 ], [ 9.09, 50.12 ], [ 9.1, 50.12 ], [ 9.11, 50.13 ], [ 9.12, 50.13 ], [ 9.14, 50.12 ], [ 9.15, 50.12 ], [ 9.17, 50.12 ], [ 9.19, 50.13 ], [ 9.19, 50.14 ], [ 9.22, 50.15 ], [ 9.23, 50.15 ], [ 9.25, 50.14 ], [ 9.28, 50.14 ], [ 9.3, 50.14 ], [ 9.32, 50.14 ], [ 9.33, 50.14 ], [ 9.35, 50.13 ], [ 9.38, 50.13 ], [ 9.4, 50.1 ], [ 9.42, 50.09 ], [ 9.46, 50.09 ], [ 9.51, 50.1 ], [ 9.52, 50.1 ], [ 9.52, 50.11 ], [ 9.52, 50.12 ], [ 9.51, 50.14 ], [ 9.52, 50.14 ], [ 9.52, 50.15 ], [ 9.53, 50.16 ], [ 9.53, 50.17 ], [ 9.51, 50.17 ], [ 9.5, 50.17 ], [ 9.5, 50.18 ], [ 9.51, 50.2 ], [ 9.51, 50.21 ], [ 9.5, 50.23 ], [ 9.5, 50.24 ], [ 9.54, 50.23 ], [ 9.55, 50.23 ], [ 9.57, 50.23 ], [ 9.58, 50.23 ], [ 9.6, 50.22 ], [ 9.61, 50.22 ], [ 9.63, 50.22 ], [ 9.63, 50.23 ], [ 9.64, 50.23 ], [ 9.66, 50.23 ], [ 9.67, 50.24 ], [ 9.65, 50.25 ], [ 9.66, 50.27 ], [ 9.68, 50.28 ], [ 9.71, 50.29 ], [ 9.72, 50.3 ], [ 9.73, 50.3 ], [ 9.75, 50.32 ], [ 9.75, 50.35 ], [ 9.74, 50.35 ], [ 9.73, 50.36 ], [ 9.74, 50.36 ], [ 9.75, 50.37 ], [ 9.75, 50.39 ], [ 9.76, 50.41 ], [ 9.75, 50.42 ], [ 9.76, 50.43 ], [ 9.77, 50.43 ], [ 9.78, 50.42 ], [ 9.79, 50.43 ], [ 9.8, 50.43 ], [ 9.81, 50.41 ], [ 9.86, 50.4 ], [ 9.87, 50.41 ], [ 9.88, 50.4 ], [ 9.89, 50.4 ], [ 9.9, 50.41 ], [ 9.92, 50.42 ], [ 9.94, 50.43 ], [ 9.95, 50.43 ], [ 9.96, 50.43 ], [ 9.97, 50.44 ], [ 10.0, 50.46 ], [ 10.02, 50.46 ], [ 10.03, 50.48 ], [ 10.03, 50.49 ], [ 10.04, 50.5 ], [ 10.04, 50.52 ], [ 10.05, 50.53 ], [ 10.05, 50.55 ], [ 10.06, 50.56 ], [ 10.05, 50.58 ], [ 10.05, 50.59 ], [ 10.05, 50.6 ], [ 10.04, 50.61 ], [ 10.05, 50.62 ], [ 10.06, 50.63 ], [ 10.07, 50.63 ], [ 10.09, 50.62 ], [ 10.09, 50.63 ], [ 10.08, 50.64 ], [ 10.07, 50.66 ], [ 10.05, 50.68 ], [ 10.0, 50.68 ], [ 9.98, 50.67 ], [ 9.96, 50.67 ], [ 9.95, 50.67 ], [ 9.94, 50.66 ], [ 9.95, 50.66 ], [ 9.96, 50.65 ], [ 9.96, 50.63 ], [ 9.93, 50.63 ], [ 9.9, 50.64 ], [ 9.89, 50.64 ], [ 9.88, 50.64 ], [ 9.88, 50.66 ], [ 9.88, 50.67 ], [ 9.9, 50.69 ], [ 9.92, 50.7 ], [ 9.91, 50.7 ], [ 9.91, 50.71 ], [ 9.92, 50.72 ], [ 9.94, 50.74 ], [ 9.94, 50.76 ], [ 9.92, 50.76 ], [ 9.92, 50.77 ], [ 9.93, 50.78 ], [ 9.94, 50.77 ], [ 9.95, 50.77 ], [ 9.95, 50.78 ], [ 9.95, 50.79 ], [ 9.94, 50.8 ], [ 9.96, 50.81 ], [ 9.95, 50.82 ], [ 9.97, 50.83 ] ], [ [ 9.35, 50.76 ], [ 9.37, 50.75 ], [ 9.4, 50.74 ], [ 9.41, 50.75 ], [ 9.42, 50.76 ], [ 9.42, 50.77 ], [ 9.43, 50.77 ], [ 9.45, 50.77 ], [ 9.47, 50.76 ], [ 9.48, 50.76 ], [ 9.49, 50.76 ], [ 9.5, 50.75 ], [ 9.5, 50.74 ], [ 9.51, 50.73 ], [ 9.52, 50.73 ], [ 9.53, 50.74 ], [ 9.55, 50.76 ], [ 9.56, 50.76 ], [ 9.58, 50.77 ], [ 9.59, 50.76 ], [ 9.61, 50.76 ], [ 9.61, 50.74 ], [ 9.62, 50.74 ], [ 9.62, 50.73 ], [ 9.62, 50.71 ], [ 9.63, 50.69 ], [ 9.64, 50.68 ], [ 9.65, 50.68 ], [ 9.66, 50.68 ], [ 9.64, 50.67 ], [ 9.63, 50.65 ], [ 9.63, 50.64 ], [ 9.64, 50.62 ], [ 9.62, 50.61 ], [ 9.61, 50.61 ], [ 9.58, 50.61 ], [ 9.56, 50.62 ], [ 9.55, 50.64 ], [ 9.54, 50.64 ], [ 9.52, 50.63 ], [ 9.51, 50.64 ], [ 9.5, 50.64 ], [ 9.49, 50.65 ], [ 9.49, 50.66 ], [ 9.47, 50.66 ], [ 9.48, 50.65 ], [ 9.48, 50.63 ], [ 9.48, 50.62 ], [ 9.5, 50.61 ], [ 9.5, 50.6 ], [ 9.49, 50.59 ], [ 9.48, 50.58 ], [ 9.49, 50.57 ], [ 9.5, 50.57 ], [ 9.5, 50.56 ], [ 9.49, 50.55 ], [ 9.47, 50.55 ], [ 9.46, 50.52 ], [ 9.44, 50.5 ], [ 9.44, 50.49 ], [ 9.43, 50.48 ], [ 9.44, 50.47 ], [ 9.45, 50.47 ], [ 9.46, 50.47 ], [ 9.47, 50.47 ], [ 9.44, 50.45 ], [ 9.43, 50.45 ], [ 9.44, 50.44 ], [ 9.44, 50.42 ], [ 9.44, 50.41 ], [ 9.43, 50.41 ], [ 9.42, 50.4 ], [ 9.41, 50.4 ], [ 9.4, 50.39 ], [ 9.39, 50.39 ], [ 9.37, 50.4 ], [ 9.37, 50.41 ], [ 9.35, 50.44 ], [ 9.34, 50.45 ], [ 9.31, 50.46 ], [ 9.3, 50.47 ], [ 9.29, 50.46 ], [ 9.29, 50.44 ], [ 9.29, 50.43 ], [ 9.29, 50.42 ], [ 9.28, 50.41 ], [ 9.28, 50.4 ], [ 9.28, 50.39 ], [ 9.28, 50.38 ], [ 9.28, 50.37 ], [ 9.28, 50.36 ], [ 9.27, 50.36 ], [ 9.26, 50.36 ], [ 9.26, 50.35 ], [ 9.26, 50.34 ], [ 9.23, 50.33 ], [ 9.22, 50.34 ], [ 9.2, 50.34 ], [ 9.18, 50.34 ], [ 9.18, 50.33 ], [ 9.19, 50.32 ], [ 9.21, 50.32 ], [ 9.22, 50.31 ], [ 9.22, 50.3 ], [ 9.21, 50.29 ], [ 9.21, 50.28 ], [ 9.2, 50.28 ], [ 9.18, 50.28 ], [ 9.18, 50.27 ], [ 9.16, 50.26 ], [ 9.16, 50.25 ], [ 9.14, 50.23 ], [ 9.12, 50.23 ], [ 9.11, 50.23 ], [ 9.11, 50.22 ], [ 9.1, 50.23 ], [ 9.08, 50.23 ], [ 9.06, 50.23 ], [ 9.06, 50.24 ], [ 9.05, 50.24 ], [ 9.05, 50.23 ], [ 9.01, 50.23 ], [ 9.01, 50.22 ], [ 8.98, 50.23 ], [ 8.97, 50.23 ], [ 8.96, 50.24 ], [ 8.95, 50.24 ], [ 8.96, 50.25 ], [ 8.95, 50.26 ], [ 8.93, 50.26 ], [ 8.92, 50.28 ], [ 8.91, 50.28 ], [ 8.89, 50.27 ], [ 8.87, 50.28 ], [ 8.85, 50.27 ], [ 8.86, 50.26 ], [ 8.86, 50.25 ], [ 8.87, 50.25 ], [ 8.88, 50.25 ], [ 8.89, 50.25 ], [ 8.89, 50.26 ], [ 8.9, 50.25 ], [ 8.9, 50.24 ], [ 8.87, 50.22 ], [ 8.84, 50.21 ], [ 8.82, 50.2 ], [ 8.8, 50.2 ], [ 8.79, 50.2 ], [ 8.78, 50.2 ], [ 8.78, 50.21 ], [ 8.77, 50.21 ], [ 8.77, 50.2 ], [ 8.76, 50.2 ], [ 8.76, 50.21 ], [ 8.75, 50.21 ], [ 8.75, 50.2 ], [ 8.75, 50.19 ], [ 8.76, 50.19 ], [ 8.77, 50.19 ], [ 8.77, 50.18 ], [ 8.76, 50.17 ], [ 8.74, 50.16 ], [ 8.73, 50.16 ], [ 8.72, 50.17 ], [ 8.71, 50.18 ], [ 8.7, 50.18 ], [ 8.69, 50.17 ], [ 8.68, 50.17 ], [ 8.68, 50.18 ], [ 8.67, 50.18 ], [ 8.67, 50.19 ], [ 8.66, 50.19 ], [ 8.63, 50.2 ], [ 8.64, 50.21 ], [ 8.65, 50.22 ], [ 8.66, 50.23 ], [ 8.66, 50.25 ], [ 8.65, 50.26 ], [ 8.65, 50.27 ], [ 8.66, 50.29 ], [ 8.65, 50.29 ], [ 8.65, 50.28 ], [ 8.63, 50.28 ], [ 8.61, 50.29 ], [ 8.63, 50.31 ], [ 8.64, 50.33 ], [ 8.62, 50.35 ], [ 8.61, 50.35 ], [ 8.61, 50.36 ], [ 8.61, 50.37 ], [ 8.59, 50.37 ], [ 8.58, 50.37 ], [ 8.57, 50.37 ], [ 8.56, 50.37 ], [ 8.54, 50.37 ], [ 8.54, 50.38 ], [ 8.53, 50.39 ], [ 8.52, 50.39 ], [ 8.52, 50.4 ], [ 8.53, 50.41 ], [ 8.54, 50.41 ], [ 8.57, 50.42 ], [ 8.59, 50.42 ], [ 8.6, 50.43 ], [ 8.6, 50.44 ], [ 8.59, 50.45 ], [ 8.54, 50.46 ], [ 8.53, 50.46 ], [ 8.53, 50.45 ], [ 8.53, 50.44 ], [ 8.51, 50.44 ], [ 8.49, 50.44 ], [ 8.48, 50.44 ], [ 8.48, 50.43 ], [ 8.48, 50.42 ], [ 8.46, 50.42 ], [ 8.46, 50.43 ], [ 8.45, 50.43 ], [ 8.44, 50.44 ], [ 8.43, 50.44 ], [ 8.43, 50.45 ], [ 8.44, 50.46 ], [ 8.44, 50.47 ], [ 8.44, 50.48 ], [ 8.43, 50.47 ], [ 8.42, 50.47 ], [ 8.39, 50.5 ], [ 8.38, 50.5 ], [ 8.36, 50.51 ], [ 8.32, 50.52 ], [ 8.28, 50.55 ], [ 8.27, 50.57 ], [ 8.27, 50.58 ], [ 8.27, 50.6 ], [ 8.27, 50.61 ], [ 8.27, 50.62 ], [ 8.29, 50.63 ], [ 8.33, 50.64 ], [ 8.35, 50.64 ], [ 8.37, 50.63 ], [ 8.38, 50.64 ], [ 8.38, 50.65 ], [ 8.39, 50.66 ], [ 8.41, 50.66 ], [ 8.42, 50.66 ], [ 8.43, 50.68 ], [ 8.44, 50.69 ], [ 8.44, 50.7 ], [ 8.45, 50.7 ], [ 8.47, 50.7 ], [ 8.48, 50.7 ], [ 8.5, 50.7 ], [ 8.51, 50.69 ], [ 8.54, 50.69 ], [ 8.55, 50.69 ], [ 8.56, 50.69 ], [ 8.55, 50.67 ], [ 8.54, 50.66 ], [ 8.53, 50.65 ], [ 8.53, 50.63 ], [ 8.52, 50.62 ], [ 8.53, 50.61 ], [ 8.52, 50.61 ], [ 8.52, 50.6 ], [ 8.5, 50.61 ], [ 8.49, 50.62 ], [ 8.49, 50.63 ], [ 8.48, 50.63 ], [ 8.48, 50.6 ], [ 8.48, 50.58 ], [ 8.47, 50.58 ], [ 8.48, 50.57 ], [ 8.49, 50.57 ], [ 8.5, 50.58 ], [ 8.51, 50.59 ], [ 8.52, 50.58 ], [ 8.53, 50.58 ], [ 8.56, 50.58 ], [ 8.57, 50.58 ], [ 8.58, 50.61 ], [ 8.6, 50.6 ], [ 8.61, 50.6 ], [ 8.62, 50.59 ], [ 8.63, 50.6 ], [ 8.62, 50.61 ], [ 8.61, 50.62 ], [ 8.61, 50.63 ], [ 8.61, 50.64 ], [ 8.6, 50.65 ], [ 8.61, 50.67 ], [ 8.62, 50.68 ], [ 8.64, 50.69 ], [ 8.65, 50.7 ], [ 8.69, 50.68 ], [ 8.71, 50.69 ], [ 8.72, 50.68 ], [ 8.73, 50.68 ], [ 8.76, 50.69 ], [ 8.77, 50.69 ], [ 8.76, 50.68 ], [ 8.76, 50.67 ], [ 8.76, 50.65 ], [ 8.76, 50.64 ], [ 8.77, 50.63 ], [ 8.78, 50.63 ], [ 8.81, 50.65 ], [ 8.8, 50.66 ], [ 8.8, 50.67 ], [ 8.78, 50.68 ], [ 8.78, 50.69 ], [ 8.79, 50.69 ], [ 8.8, 50.7 ], [ 8.81, 50.7 ], [ 8.82, 50.69 ], [ 8.84, 50.68 ], [ 8.85, 50.68 ], [ 8.86, 50.69 ], [ 8.87, 50.69 ], [ 8.88, 50.7 ], [ 8.9, 50.69 ], [ 8.91, 50.7 ], [ 8.92, 50.7 ], [ 8.92, 50.71 ], [ 8.91, 50.71 ], [ 8.9, 50.72 ], [ 8.91, 50.72 ], [ 8.93, 50.73 ], [ 8.94, 50.74 ], [ 8.95, 50.75 ], [ 8.96, 50.75 ], [ 8.98, 50.76 ], [ 9.01, 50.77 ], [ 9.02, 50.78 ], [ 9.02, 50.79 ], [ 9.03, 50.79 ], [ 9.05, 50.79 ], [ 9.09, 50.81 ], [ 9.1, 50.81 ], [ 9.1, 50.82 ], [ 9.11, 50.83 ], [ 9.13, 50.83 ], [ 9.13, 50.82 ], [ 9.14, 50.83 ], [ 9.15, 50.83 ], [ 9.17, 50.83 ], [ 9.21, 50.82 ], [ 9.23, 50.82 ], [ 9.24, 50.82 ], [ 9.26, 50.82 ], [ 9.26, 50.81 ], [ 9.26, 50.8 ], [ 9.27, 50.8 ], [ 9.27, 50.79 ], [ 9.3, 50.79 ], [ 9.31, 50.78 ], [ 9.33, 50.78 ], [ 9.34, 50.79 ], [ 9.35, 50.8 ], [ 9.36, 50.8 ], [ 9.37, 50.8 ], [ 9.37, 50.79 ], [ 9.37, 50.78 ], [ 9.35, 50.78 ], [ 9.35, 50.77 ], [ 9.35, 50.76 ] ], [ [ 8.56, 50.17 ], [ 8.57, 50.18 ], [ 8.59, 50.17 ], [ 8.59, 50.16 ], [ 8.57, 50.15 ], [ 8.56, 50.17 ] ], [ [ 8.53, 50.26 ], [ 8.53, 50.25 ], [ 8.51, 50.25 ], [ 8.53, 50.26 ] ], [ [ 8.5, 50.24 ], [ 8.5, 50.25 ], [ 8.51, 50.25 ], [ 8.5, 50.24 ] ], [ [ 9.98, 50.94 ], [ 9.98, 50.93 ], [ 9.96, 50.93 ], [ 9.95, 50.93 ], [ 9.96, 50.94 ], [ 9.98, 50.94 ] ], [ [ 9.91, 51.33 ], [ 9.9, 51.32 ], [ 9.89, 51.32 ], [ 9.89, 51.33 ], [ 9.91, 51.33 ] ], [ [ 8.63, 50.23 ], [ 8.63, 50.24 ], [ 8.64, 50.24 ], [ 8.64, 50.23 ], [ 8.63, 50.23 ] ], [ [ 8.5, 50.22 ], [ 8.51, 50.22 ], [ 8.5, 50.21 ], [ 8.49, 50.22 ], [ 8.48, 50.22 ], [ 8.48, 50.23 ], [ 8.49, 50.23 ], [ 8.5, 50.23 ], [ 8.5, 50.22 ] ], [ [ 8.55, 50.19 ], [ 8.56, 50.19 ], [ 8.57, 50.19 ], [ 8.56, 50.18 ], [ 8.55, 50.19 ] ] ], [ [ [ 8.89, 50.3 ], [ 8.88, 50.29 ], [ 8.89, 50.28 ], [ 8.9, 50.28 ], [ 8.91, 50.29 ], [ 8.89, 50.29 ], [ 8.89, 50.3 ] ] ], [ [ [ 9.44, 52.38 ], [ 9.43, 52.39 ], [ 9.41, 52.4 ], [ 9.39, 52.4 ], [ 9.37, 52.4 ], [ 9.36, 52.4 ], [ 9.35, 52.4 ], [ 9.34, 52.41 ], [ 9.33, 52.4 ], [ 9.32, 52.41 ], [ 9.27, 52.41 ], [ 9.22, 52.4 ], [ 9.23, 52.38 ], [ 9.26, 52.38 ], [ 9.29, 52.37 ], [ 9.3, 52.35 ], [ 9.3, 52.34 ], [ 9.28, 52.33 ], [ 9.28, 52.31 ], [ 9.26, 52.3 ], [ 9.26, 52.29 ], [ 9.25, 52.27 ], [ 9.21, 52.26 ], [ 9.19, 52.26 ], [ 9.19, 52.28 ], [ 9.17, 52.28 ], [ 9.15, 52.28 ], [ 9.13, 52.26 ], [ 9.11, 52.25 ], [ 9.12, 52.23 ], [ 9.14, 52.22 ], [ 9.13, 52.2 ], [ 9.1, 52.2 ], [ 9.1, 52.22 ], [ 9.08, 52.23 ], [ 9.07, 52.23 ], [ 9.06, 52.23 ], [ 9.04, 52.22 ], [ 9.04, 52.2 ], [ 9.04, 52.19 ], [ 9.03, 52.19 ], [ 9.02, 52.19 ], [ 9.01, 52.19 ], [ 9.0, 52.19 ], [ 8.99, 52.18 ], [ 9.02, 52.17 ], [ 9.02, 52.15 ], [ 9.01, 52.14 ], [ 9.02, 52.13 ], [ 9.06, 52.14 ], [ 9.11, 52.13 ], [ 9.14, 52.13 ], [ 9.15, 52.12 ], [ 9.13, 52.1 ], [ 9.14, 52.09 ], [ 9.16, 52.09 ], [ 9.16, 52.1 ], [ 9.17, 52.11 ], [ 9.21, 52.12 ], [ 9.23, 52.14 ], [ 9.24, 52.15 ], [ 9.27, 52.15 ], [ 9.31, 52.14 ], [ 9.33, 52.15 ], [ 9.34, 52.15 ], [ 9.35, 52.15 ], [ 9.36, 52.15 ], [ 9.39, 52.17 ], [ 9.38, 52.18 ], [ 9.35, 52.2 ], [ 9.33, 52.21 ], [ 9.31, 52.21 ], [ 9.3, 52.22 ], [ 9.32, 52.24 ], [ 9.31, 52.26 ], [ 9.32, 52.27 ], [ 9.34, 52.29 ], [ 9.35, 52.29 ], [ 9.4, 52.3 ], [ 9.41, 52.3 ], [ 9.4, 52.33 ], [ 9.43, 52.36 ], [ 9.45, 52.37 ], [ 9.44, 52.38 ] ] ], [ [ [ 9.27, 52.35 ], [ 9.27, 52.36 ], [ 9.26, 52.36 ], [ 9.25, 52.36 ], [ 9.25, 52.35 ], [ 9.26, 52.34 ], [ 9.27, 52.34 ], [ 9.28, 52.34 ], [ 9.28, 52.35 ], [ 9.27, 52.35 ] ] ], [ [ [ 8.73, 51.33 ], [ 8.72, 51.32 ], [ 8.7, 51.32 ], [ 8.68, 51.32 ], [ 8.68, 51.31 ], [ 8.67, 51.31 ], [ 8.66, 51.31 ], [ 8.67, 51.3 ], [ 8.68, 51.29 ], [ 8.7, 51.28 ], [ 8.71, 51.28 ], [ 8.72, 51.3 ], [ 8.73, 51.3 ], [ 8.74, 51.3 ], [ 8.74, 51.31 ], [ 8.75, 51.31 ], [ 8.75, 51.32 ], [ 8.73, 51.33 ] ] ], [ [ [ 9.02, 51.29 ], [ 9.01, 51.3 ], [ 9.0, 51.29 ], [ 9.0, 51.3 ], [ 8.99, 51.3 ], [ 8.98, 51.3 ], [ 8.97, 51.29 ], [ 8.96, 51.28 ], [ 8.95, 51.28 ], [ 8.95, 51.27 ], [ 8.95, 51.26 ], [ 8.96, 51.26 ], [ 8.97, 51.25 ], [ 8.98, 51.26 ], [ 8.99, 51.26 ], [ 9.0, 51.26 ], [ 9.03, 51.26 ], [ 9.04, 51.27 ], [ 9.03, 51.27 ], [ 9.02, 51.27 ], [ 9.02, 51.28 ], [ 9.02, 51.29 ] ] ], [ [ [ 10.53, 50.8 ], [ 10.52, 50.79 ], [ 10.51, 50.79 ], [ 10.5, 50.79 ], [ 10.49, 50.79 ], [ 10.49, 50.8 ], [ 10.52, 50.81 ], [ 10.52, 50.82 ], [ 10.52, 50.83 ], [ 10.51, 50.84 ], [ 10.48, 50.85 ], [ 10.47, 50.85 ], [ 10.44, 50.84 ], [ 10.43, 50.85 ], [ 10.42, 50.85 ], [ 10.41, 50.83 ], [ 10.41, 50.81 ], [ 10.4, 50.81 ], [ 10.39, 50.8 ], [ 10.38, 50.8 ], [ 10.37, 50.79 ], [ 10.37, 50.78 ], [ 10.38, 50.78 ], [ 10.38, 50.77 ], [ 10.34, 50.76 ], [ 10.35, 50.74 ], [ 10.36, 50.73 ], [ 10.36, 50.72 ], [ 10.37, 50.72 ], [ 10.39, 50.72 ], [ 10.39, 50.71 ], [ 10.41, 50.71 ], [ 10.43, 50.69 ], [ 10.43, 50.68 ], [ 10.46, 50.67 ], [ 10.48, 50.67 ], [ 10.5, 50.67 ], [ 10.53, 50.67 ], [ 10.54, 50.67 ], [ 10.55, 50.67 ], [ 10.57, 50.67 ], [ 10.59, 50.67 ], [ 10.6, 50.67 ], [ 10.61, 50.66 ], [ 10.62, 50.66 ], [ 10.63, 50.67 ], [ 10.65, 50.68 ], [ 10.68, 50.69 ], [ 10.69, 50.68 ], [ 10.69, 50.69 ], [ 10.7, 50.69 ], [ 10.72, 50.7 ], [ 10.69, 50.71 ], [ 10.66, 50.71 ], [ 10.65, 50.73 ], [ 10.62, 50.74 ], [ 10.61, 50.73 ], [ 10.59, 50.74 ], [ 10.58, 50.74 ], [ 10.57, 50.78 ], [ 10.55, 50.78 ], [ 10.55, 50.79 ], [ 10.53, 50.8 ] ] ], [ [ [ 10.29, 50.81 ], [ 10.28, 50.81 ], [ 10.3, 50.8 ], [ 10.3, 50.79 ], [ 10.31, 50.78 ], [ 10.32, 50.78 ], [ 10.34, 50.79 ], [ 10.35, 50.8 ], [ 10.34, 50.8 ], [ 10.32, 50.81 ], [ 10.31, 50.81 ], [ 10.3, 50.81 ], [ 10.29, 50.81 ] ] ] ] } }
]
}
