{
"type": "FeatureCollection",
"name": "west_galicia_1910_V2",
"crs": { "type": "name", "properties": { "name": "urn:ogc:def:crs:OGC:1.3:CRS84" } },
"features": [
{ "type": "Feature", "properties": { "name": "PRU_WEST_GALICIA_1910" }, "geometry": { "type": "Polygon", "coordinates": [ [ [ 19.4452649, 50.3137769 ], [ 19.4363803, 50.3127131 ], [ 19.4286063, 50.3120039 ], [ 19.4208322, 50.3123585 ], [ 19.4130582, 50.31094 ], [ 19.40695, 50.3058864 ], [ 19.4036182, 50.3002116 ], [ 19.4047288, 50.2948908 ], [ 19.40695, 50.2895694 ], [ 19.4052841, 50.2856667 ], [ 19.4008418, 50.2835378 ], [ 19.3980653, 50.2806991 ], [ 19.3958442, 50.2775054 ], [ 19.3969548, 50.2736017 ], [ 19.3986206, 50.2693427 ], [ 19.3969548, 50.2650834 ], [ 19.3902913, 50.2633085 ], [ 19.3847384, 50.262953599999989 ], [ 19.3808514, 50.2611786 ], [ 19.3769643, 50.2594037 ], [ 19.3714115, 50.2547884 ], [ 19.364748, 50.2537233 ], [ 19.3586398, 50.2547884 ], [ 19.3536422, 50.2562085 ], [ 19.3497552, 50.2583386 ], [ 19.3425364, 50.2601137 ], [ 19.3347623, 50.2608237 ], [ 19.33032, 50.2569186 ], [ 19.33032, 50.2526581 ], [ 19.3292095, 50.2494625 ], [ 19.3258777, 50.2480422 ], [ 19.3192142, 50.2487524 ], [ 19.3131061, 50.2483973 ], [ 19.3020003, 50.2476871 ], [ 19.2964474, 50.2469769 ], [ 19.2897839, 50.2483973 ], [ 19.2853416, 50.251948 ], [ 19.2814546, 50.2558535 ], [ 19.2747911, 50.2569186 ], [ 19.2681276, 50.2562085 ], [ 19.26313, 50.2597587 ], [ 19.2609089, 50.2643735 ], [ 19.2564665, 50.2672131 ], [ 19.2492478, 50.267568 ], [ 19.2425843, 50.2657933 ], [ 19.2386973, 50.2622436 ], [ 19.2375867, 50.2572736 ], [ 19.2375867, 50.2537233 ], [ 19.2359208, 50.2515929 ], [ 19.2320338, 50.2505277 ], [ 19.2231492, 50.2505277 ], [ 19.2164857, 50.2483973 ], [ 19.213154, 50.2452014 ], [ 19.2142645, 50.2423604 ], [ 19.2109328, 50.2373884 ], [ 19.2042693, 50.236678 ], [ 19.1992717, 50.2391642 ], [ 19.1926082, 50.2359677 ], [ 19.1903871, 50.2331261 ], [ 19.1909424, 50.2292188 ], [ 19.1926082, 50.2256664 ], [ 19.1914977, 50.2196267 ], [ 19.1903871, 50.2132308 ], [ 19.2003823, 50.2114541 ], [ 19.2070458, 50.2068341 ], [ 19.2098222, 50.2015029 ], [ 19.2098222, 50.1965266 ], [ 19.2120434, 50.1911942 ], [ 19.2192621, 50.18835 ], [ 19.2264809, 50.185150099999987 ], [ 19.2309232, 50.1812388 ], [ 19.238142, 50.1762604 ], [ 19.2464713, 50.1730597 ], [ 19.2503584, 50.168436 ], [ 19.2520242, 50.1634562 ], [ 19.2531348, 50.1559856 ], [ 19.2559112, 50.1506487 ], [ 19.2614641, 50.1449553 ], [ 19.2703488, 50.1435319 ], [ 19.280344, 50.1410407 ], [ 19.2853416, 50.1360581 ], [ 19.2847863, 50.129651 ], [ 19.2820099, 50.1260912 ], [ 19.284231, 50.1228871 ], [ 19.2853416, 50.1171905 ], [ 19.2814546, 50.1104248 ], [ 19.2770122, 50.1068636 ], [ 19.2703488, 50.1040144 ], [ 19.26313, 50.1022335 ], [ 19.2542454, 50.1000964 ], [ 19.2486925, 50.0954658 ], [ 19.2492478, 50.0901221 ], [ 19.2509136, 50.0829963 ], [ 19.2486925, 50.0787203 ], [ 19.2448055, 50.0755131 ], [ 19.2392526, 50.0719492 ], [ 19.2370314, 50.0676722 ], [ 19.2348102, 50.061969 ], [ 19.234255, 50.0555521 ], [ 19.2298126, 50.0512736 ], [ 19.2242597, 50.0484211 ], [ 19.2214833, 50.0416457 ], [ 19.2225939, 50.0352261 ], [ 19.2259256, 50.0291623 ], [ 19.2320338, 50.0202435 ], [ 19.2386973, 50.0173892 ], [ 19.2481372, 50.0163188 ], [ 19.2614641, 50.013821 ], [ 19.2747911, 50.0088251 ], [ 19.284231, 50.0020442 ], [ 19.2936709, 49.996690099999988 ], [ 19.3025556, 49.9952623 ], [ 19.3103296, 49.9956192 ], [ 19.3219907, 49.9952623 ], [ 19.3319859, 49.9959762 ], [ 19.3414258, 49.9959762 ], [ 19.3491999, 49.9938344 ], [ 19.3564186, 49.9916924 ], [ 19.3619715, 49.9934774 ], [ 19.3658586, 49.9966901 ], [ 19.3675244, 49.9999026 ], [ 19.3697456, 50.002758 ], [ 19.3741879, 50.0034718 ], [ 19.3830725, 50.0020442 ], [ 19.3880701, 49.9999026 ], [ 19.3902913, 49.9952623 ], [ 19.3975101, 49.9916924 ], [ 19.4036182, 49.9916924 ], [ 19.4113923, 49.9956192 ], [ 19.4136135, 49.9991887 ], [ 19.4141687, 50.0031149 ], [ 19.4180558, 50.0073976 ], [ 19.4230534, 50.0095389 ], [ 19.4308274, 50.0102526 ], [ 19.4463755, 50.0109663 ], [ 19.4597025, 50.0131074 ], [ 19.4708083, 50.0170324 ], [ 19.4774717, 50.0252382 ], [ 19.4841352, 50.0316592 ], [ 19.4974622, 50.0370094 ], [ 19.5096785, 50.0398626 ], [ 19.5224502, 50.0391493 ], [ 19.5280031, 50.0348694 ], [ 19.5285584, 50.0270219 ], [ 19.5257819, 50.01953 ], [ 19.5296689, 50.0131074 ], [ 19.537443, 50.0098957 ], [ 19.5441065, 50.0088251 ], [ 19.554657, 50.0070408 ], [ 19.562431, 50.0048994 ], [ 19.5702051, 50.0031149 ], [ 19.5768685, 50.0059701 ], [ 19.579645, 50.0084683 ], [ 19.5807556, 50.0131074 ], [ 19.5818662, 50.0184596 ], [ 19.583532, 50.0216707 ], [ 19.5885296, 50.0230977 ], [ 19.596859, 50.022741 ], [ 19.6035224, 50.0198868 ], [ 19.6090753, 50.0141779 ], [ 19.6162941, 50.0098957 ], [ 19.6235129, 50.0098957 ], [ 19.6312869, 50.01168 ], [ 19.6357292, 50.0152483 ], [ 19.642948, 50.017746 ], [ 19.6496115, 50.0181028 ], [ 19.6579408, 50.0156051 ], [ 19.6657149, 50.01168 ], [ 19.6690466, 50.0034718 ], [ 19.6668254, 49.9952623 ], [ 19.6712678, 49.9899074 ], [ 19.6807077, 49.9891934 ], [ 19.6862606, 49.9852661 ], [ 19.692924, 49.9820526 ], [ 19.7012534, 49.9813385 ], [ 19.7068063, 49.9838379 ], [ 19.7090274, 49.9874083 ], [ 19.710138, 49.9916924 ], [ 19.7123592, 49.9952623 ], [ 19.7168015, 49.9970471 ], [ 19.7245755, 49.997761 ], [ 19.731239, 49.9959762 ], [ 19.7340155, 49.9906214 ], [ 19.7356813, 49.9827667 ], [ 19.7379025, 49.974910799999989 ], [ 19.744566, 49.9716966 ], [ 19.7540059, 49.970982299999989 ], [ 19.7606694, 49.9720537 ], [ 19.765667, 49.9770534 ], [ 19.7701093, 49.9809814 ], [ 19.7745516, 49.9856231 ], [ 19.7817704, 49.9874083 ], [ 19.7900997, 49.9902644 ], [ 19.7923209, 49.9949053 ], [ 19.7928761, 49.9991887 ], [ 19.7939867, 50.0041856 ], [ 19.7978738, 50.0084683 ], [ 19.8089795, 50.0127505 ], [ 19.8189747, 50.0156051 ], [ 19.8239724, 50.0191732 ], [ 19.8273041, 50.0252382 ], [ 19.832857, 50.0284488 ], [ 19.8434075, 50.0298757 ], [ 19.8517368, 50.0323726 ], [ 19.8572897, 50.039506 ], [ 19.8645085, 50.0437854 ], [ 19.871172, 50.0452119 ], [ 19.8795013, 50.0444987 ], [ 19.8911624, 50.044855299999988 ], [ 19.9017129, 50.0437854 ], [ 19.9089316, 50.0380794 ], [ 19.9194821, 50.0313025 ], [ 19.9267009, 50.0284488 ], [ 19.9394726, 50.0291623 ], [ 19.9539101, 50.0316592 ], [ 19.9639053, 50.0373661 ], [ 19.9722346, 50.044855299999988 ], [ 19.9777875, 50.0498474 ], [ 19.984451, 50.0534129 ], [ 19.997778, 50.054126 ], [ 20.0061073, 50.054126 ], [ 20.0166578, 50.0516302 ], [ 20.0244318, 50.0466382 ], [ 20.0355376, 50.0402192 ], [ 20.0544175, 50.0355828 ], [ 20.072742, 50.033086 ], [ 20.0977301, 50.0316592 ], [ 20.1121676, 50.0323726 ], [ 20.1288263, 50.0288056 ], [ 20.1388215, 50.0270219 ], [ 20.1510378, 50.0277354 ], [ 20.1654754, 50.0302324 ], [ 20.1804682, 50.0313025 ], [ 20.1960163, 50.0337994 ], [ 20.2076774, 50.0387927 ], [ 20.2121197, 50.0437854 ], [ 20.2182279, 50.0484211 ], [ 20.2276678, 50.0498474 ], [ 20.2354418, 50.0534129 ], [ 20.2382183, 50.0576911 ], [ 20.2409947, 50.0626819 ], [ 20.245437, 50.06589 ], [ 20.2537664, 50.0673158 ], [ 20.2637616, 50.0655336 ], [ 20.275978, 50.0637513 ], [ 20.2820862, 50.0644643 ], [ 20.287639, 50.0690979 ], [ 20.2887496, 50.0744439 ], [ 20.2881943, 50.081571 ], [ 20.2898602, 50.0876282 ], [ 20.2948578, 50.0922596 ], [ 20.3031871, 50.0965344 ], [ 20.3115165, 50.0976031 ], [ 20.3215117, 50.0979593 ], [ 20.3303963, 50.0972468 ], [ 20.3415021, 50.0968906 ], [ 20.3498315, 50.0979593 ], [ 20.3564949, 50.1018774 ], [ 20.3581608, 50.1057951 ], [ 20.3581608, 50.1118493 ], [ 20.3576055, 50.1196829 ], [ 20.3581608, 50.1310749 ], [ 20.3631584, 50.1410407 ], [ 20.3703772, 50.1449553 ], [ 20.3837041, 50.1463787 ], [ 20.3964758, 50.1453112 ], [ 20.4042498, 50.1421084 ], [ 20.4125792, 50.1406848 ], [ 20.4220191, 50.1438877 ], [ 20.4392331, 50.1424642 ], [ 20.4503389, 50.1371258 ], [ 20.473661, 50.1357022 ], [ 20.4903197, 50.1399731 ], [ 20.4975385, 50.1445994 ], [ 20.5036466, 50.1520719 ], [ 20.5114207, 50.1595432 ], [ 20.5208606, 50.1623891 ], [ 20.5364087, 50.1609661 ], [ 20.5491804, 50.1566971 ], [ 20.558065, 50.1510045 ], [ 20.5686155, 50.143176 ], [ 20.5775001, 50.1403289 ], [ 20.5880506, 50.1396172 ], [ 20.5969353, 50.1428201 ], [ 20.6013776, 50.1463787 ], [ 20.6035987, 50.1559856 ], [ 20.6080411, 50.1602547 ], [ 20.6191468, 50.1641677 ], [ 20.6308079, 50.1702144 ], [ 20.6374714, 50.1787497 ], [ 20.638582, 50.1872834 ], [ 20.6402478, 50.1929717 ], [ 20.6458007, 50.1972375 ], [ 20.6541301, 50.200792 ], [ 20.6646806, 50.2050571 ], [ 20.6718993, 50.2086111 ], [ 20.6774522, 50.2167842 ], [ 20.680784, 50.2238901 ], [ 20.6802287, 50.2331261 ], [ 20.6796734, 50.242360399999988 ], [ 20.6863369, 50.2498176 ], [ 20.6941109, 50.2523031 ], [ 20.7091037, 50.2523031 ], [ 20.7257624, 50.2501727 ], [ 20.7401999, 50.2512379 ], [ 20.7474187, 50.2551434 ], [ 20.7524163, 50.2615336 ], [ 20.751861, 50.2696977 ], [ 20.7546375, 50.2739566 ], [ 20.7629668, 50.276440799999989 ], [ 20.7718514, 50.2835378 ], [ 20.7762938, 50.2934718 ], [ 20.7807361, 50.3002116 ], [ 20.7912866, 50.3037585 ], [ 20.8018371, 50.3044678 ], [ 20.8146087, 50.3041131 ], [ 20.8257145, 50.3069504 ], [ 20.8434838, 50.3101421 ], [ 20.857366, 50.3104968 ], [ 20.878467, 50.3073051 ], [ 20.8906834, 50.3051771 ], [ 20.9017892, 50.3058864 ], [ 20.9140055, 50.3073051 ], [ 20.9212243, 50.3143975 ], [ 20.9284431, 50.3179433 ], [ 20.9389936, 50.3182978 ], [ 20.9512099, 50.3190069 ], [ 20.962871, 50.3193615 ], [ 20.9767533, 50.3168795 ], [ 20.9861932, 50.3140429 ], [ 20.997299, 50.3154612 ], [ 21.0067389, 50.3207797 ], [ 21.0145129, 50.3239705 ], [ 21.0278399, 50.324325 ], [ 21.0378351, 50.3271611 ], [ 21.0444986, 50.3324783 ], [ 21.0522726, 50.3395669 ], [ 21.0578255, 50.3424021 ], [ 21.068376, 50.3427565 ], [ 21.0783712, 50.3402757 ], [ 21.0939193, 50.3377949 ], [ 21.1039145, 50.3381493 ], [ 21.110578, 50.3388581 ], [ 21.1183521, 50.3395669 ], [ 21.1300131, 50.3381493 ], [ 21.1405636, 50.337086 ], [ 21.15278, 50.3392125 ], [ 21.1605541, 50.3424021 ], [ 21.1727704, 50.3452371 ], [ 21.1877632, 50.3487806 ], [ 21.1966479, 50.3540954 ], [ 21.2005349, 50.3618893 ], [ 21.2044219, 50.3672026 ], [ 21.2138618, 50.3693277 ], [ 21.2216359, 50.3732236 ], [ 21.2288547, 50.379952 ], [ 21.2382946, 50.383847 ], [ 21.2432922, 50.3891579 ], [ 21.2449581, 50.3944681 ], [ 21.2455133, 50.4019014 ], [ 21.2477345, 50.4054407 ], [ 21.2538427, 50.4089797 ], [ 21.2588403, 50.413933899999989 ], [ 21.2605062, 50.421718 ], [ 21.2610615, 50.4277321 ], [ 21.262172, 50.4340991 ], [ 21.2643932, 50.438697 ], [ 21.2705014, 50.4415262 ], [ 21.283273, 50.4429408 ], [ 21.2932682, 50.4429408 ], [ 21.3015976, 50.4401116 ], [ 21.3065952, 50.4362212 ], [ 21.3104822, 50.4309157 ], [ 21.3127034, 50.4256095 ], [ 21.317701, 50.4227793 ], [ 21.3249197, 50.4227793 ], [ 21.3304726, 50.4259633 ], [ 21.3332491, 50.4312694 ], [ 21.3326938, 50.4362212 ], [ 21.3326938, 50.4408189 ], [ 21.3343597, 50.4450625 ], [ 21.3404678, 50.4475378 ], [ 21.3482419, 50.448245 ], [ 21.359903, 50.4457697 ], [ 21.3698982, 50.4432944 ], [ 21.3804487, 50.4447089 ], [ 21.3871122, 50.4475378 ], [ 21.3909992, 50.4549628 ], [ 21.3909992, 50.4655679 ], [ 21.3909992, 50.478291 ], [ 21.3943309, 50.4906573 ], [ 21.402105, 50.5051394 ], [ 21.4093237, 50.5143209 ], [ 21.4170978, 50.5182049 ], [ 21.4293142, 50.5199702 ], [ 21.4431964, 50.5227946 ], [ 21.4581892, 50.5333845 ], [ 21.4676291, 50.5453835 ], [ 21.4820667, 50.5492649 ], [ 21.490396, 50.5503234 ], [ 21.5092758, 50.5506763 ], [ 21.5276004, 50.5499706 ], [ 21.5453696, 50.553146 ], [ 21.5520331, 50.5598489 ], [ 21.5531437, 50.5669036 ], [ 21.5559201, 50.5785415 ], [ 21.5625836, 50.5870036 ], [ 21.5703577, 50.5922916 ], [ 21.5875716, 50.5972266 ], [ 21.595901, 50.6014562 ], [ 21.599788, 50.608857 ], [ 21.6008986, 50.6211892 ], [ 21.6070068, 50.6303481 ], [ 21.6120044, 50.639153 ], [ 21.6120044, 50.6518293 ], [ 21.617002, 50.6616863 ], [ 21.624776, 50.6687257 ], [ 21.6336607, 50.6736526 ], [ 21.6453218, 50.6831532 ], [ 21.6614251, 50.6908929 ], [ 21.6747521, 50.6926518 ], [ 21.6875237, 50.6937071 ], [ 21.7047377, 50.6951141 ], [ 21.7230623, 50.6996865 ], [ 21.7352786, 50.7056653 ], [ 21.7402762, 50.7137529 ], [ 21.7402762, 50.7228938 ], [ 21.7402762, 50.7334387 ], [ 21.7419421, 50.7443327 ], [ 21.747495, 50.7541702 ], [ 21.7536032, 50.7608445 ], [ 21.7624878, 50.7671666 ], [ 21.7719277, 50.7738391 ], [ 21.7769254, 50.7794572 ], [ 21.7785912, 50.7889363 ], [ 21.7824782, 50.8005193 ], [ 21.7902523, 50.8064852 ], [ 21.8024687, 50.8096432 ], [ 21.8124639, 50.8110468 ], [ 21.8213485, 50.8159588 ], [ 21.8252355, 50.8268335 ], [ 21.8252355, 50.8356017 ], [ 21.824125, 50.841563 ], [ 21.8352307, 50.8408617 ], [ 21.8474471, 50.8341989 ], [ 21.8552212, 50.8271843 ], [ 21.8602188, 50.8163096 ], [ 21.8629952, 50.8047306 ], [ 21.8629952, 50.7927976 ], [ 21.8718798, 50.7882342 ], [ 21.8763222, 50.7882342 ], [ 21.8852068, 50.7913936 ], [ 21.8946467, 50.7945527 ], [ 21.9063078, 50.7938507 ], [ 21.9146371, 50.7889363 ], [ 21.92019, 50.778755 ], [ 21.92019, 50.7699762 ], [ 21.9151924, 50.7594395 ], [ 21.908529, 50.748549 ], [ 21.9074184, 50.7380075 ], [ 21.9074184, 50.7260575 ], [ 21.9157477, 50.7098851 ], [ 21.9396252, 50.7039069 ], [ 21.9501757, 50.7035552 ], [ 21.9640579, 50.7046103 ], [ 21.9707214, 50.7032035 ], [ 21.9762743, 50.6968728 ], [ 21.9851589, 50.689134 ], [ 21.9962647, 50.6838568 ], [ 22.0107022, 50.6775234 ], [ 22.0245844, 50.6761159 ], [ 22.039022, 50.6750602 ], [ 22.0490172, 50.6768197 ], [ 22.0579018, 50.6820976 ], [ 22.0628994, 50.6898376 ], [ 22.0695629, 50.6972245 ], [ 22.0778922, 50.7014451 ], [ 22.0867769, 50.7025002 ], [ 22.0967721, 50.7017968 ], [ 22.1106543, 50.7021485 ], [ 22.1195389, 50.7028518 ], [ 22.1267577, 50.7025002 ], [ 22.1378635, 50.7021485 ], [ 22.1539669, 50.7000383 ], [ 22.1634068, 50.6954658 ], [ 22.1711809, 50.687375 ], [ 22.173402, 50.6796347 ], [ 22.1739573, 50.6704854 ], [ 22.1767338, 50.6634462 ], [ 22.1845078, 50.6539417 ], [ 22.1895054, 50.6511252 ], [ 22.1967242, 50.6518293 ], [ 22.20783, 50.6511252 ], [ 22.215604, 50.6490127 ], [ 22.2183805, 50.6451395 ], [ 22.2211569, 50.6409138 ], [ 22.2250439, 50.6380965 ], [ 22.232818, 50.6359834 ], [ 22.2455896, 50.63704 ], [ 22.2516978, 50.6352791 ], [ 22.2566954, 50.6310525 ], [ 22.2622483, 50.6275301 ], [ 22.2672459, 50.6264734 ], [ 22.2755753, 50.6271779 ], [ 22.2800176, 50.6190753 ], [ 22.2850152, 50.6116761 ], [ 22.2877916, 50.6021611 ], [ 22.292234, 50.5944067 ], [ 22.2966763, 50.5852408 ], [ 22.3011186, 50.5817149 ], [ 22.3088926, 50.5810098 ], [ 22.3144455, 50.581714899999987 ], [ 22.3205537, 50.584535599999988 ], [ 22.3283278, 50.5891189 ], [ 22.338323, 50.5933492 ], [ 22.3516499, 50.5951117 ], [ 22.3627557, 50.5944067 ], [ 22.3760827, 50.5912341 ], [ 22.3855226, 50.5838305 ], [ 22.3921861, 50.5774836 ], [ 22.3932966, 50.5704305 ], [ 22.388299, 50.5647873 ], [ 22.3794144, 50.5605544 ], [ 22.3688639, 50.5570268 ], [ 22.3533158, 50.5542044 ], [ 22.3427653, 50.5513819 ], [ 22.3333254, 50.5464421 ], [ 22.3277725, 50.5386786 ], [ 22.3199984, 50.5309137 ], [ 22.3077821, 50.5231476 ], [ 22.2955657, 50.5178518 ], [ 22.2894575, 50.5125554 ], [ 22.2844599, 50.5069052 ], [ 22.2839046, 50.5019608 ], [ 22.2855705, 50.4913638 ], [ 22.2866811, 50.4825312 ], [ 22.2800176, 50.471223 ], [ 22.2672459, 50.4602657 ], [ 22.2522531, 50.4539021 ], [ 22.2361497, 50.4524879 ], [ 22.219491, 50.4514272 ], [ 22.2067194, 50.4489522 ], [ 22.1956136, 50.443648 ], [ 22.1922819, 50.4404653 ], [ 22.1928371, 50.435513899999989 ], [ 22.1972795, 50.430562 ], [ 22.2044982, 50.4280858 ], [ 22.2128276, 50.4245482 ], [ 22.2167146, 50.4181799 ], [ 22.2167146, 50.4096875 ], [ 22.2228228, 50.4050868 ], [ 22.2283757, 50.3973 ], [ 22.2339286, 50.3891579 ], [ 22.2422579, 50.3845552 ], [ 22.2494767, 50.3781815 ], [ 22.2644695, 50.3757026 ], [ 22.2739094, 50.3735777 ], [ 22.2811282, 50.3682651 ], [ 22.2861258, 50.3590553 ], [ 22.2950104, 50.3519695 ], [ 22.3066715, 50.3480719 ], [ 22.3255513, 50.3470089 ], [ 22.3427653, 50.347717599999989 ], [ 22.3522052, 50.3473632 ], [ 22.3616451, 50.3424021 ], [ 22.3712239, 50.3388581 ], [ 22.382052, 50.3399213 ], [ 22.3970448, 50.3393897 ], [ 22.4037083, 50.3356683 ], [ 22.4120377, 50.3319466 ], [ 22.4153694, 50.3218433 ], [ 22.4220329, 50.3143975 ], [ 22.4361928, 50.3128018 ], [ 22.4511856, 50.3133337 ], [ 22.4661784, 50.3149293 ], [ 22.4761736, 50.3175887 ], [ 22.4870017, 50.3245023 ], [ 22.4986628, 50.3351367 ], [ 22.5103239, 50.3425793 ], [ 22.5228179, 50.3494893 ], [ 22.5319802, 50.3558668 ], [ 22.5503047, 50.3622435 ], [ 22.5677964, 50.3638375 ], [ 22.585288, 50.3638375 ], [ 22.6027796, 50.3606494 ], [ 22.6152736, 50.358523899999987 ], [ 22.6269347, 50.3542725 ], [ 22.6402616, 50.3526781 ], [ 22.6535886, 50.3553354 ], [ 22.6635838, 50.3579925 ], [ 22.6760778, 50.3606494 ], [ 22.6877389, 50.3595867 ], [ 22.7002329, 50.3563982 ], [ 22.7093952, 50.3510837 ], [ 22.7127269, 50.3436424 ], [ 22.711061, 50.3372632 ], [ 22.7043976, 50.33301 ], [ 22.6960682, 50.3292881 ], [ 22.6802425, 50.3276929 ], [ 22.660252, 50.3202479 ], [ 22.6427604, 50.3175887 ], [ 22.6286005, 50.3143975 ], [ 22.6052784, 50.3128018 ], [ 22.5944502, 50.3106741 ], [ 22.5911185, 50.3069504 ], [ 22.5986149, 50.3021624 ], [ 22.6144407, 50.2995022 ], [ 22.636097, 50.2995022 ], [ 22.6519227, 50.2989701 ], [ 22.6660826, 50.3005663 ], [ 22.6927365, 50.2989701 ], [ 22.7152257, 50.2968418 ], [ 22.7335503, 50.2957776 ], [ 22.7527077, 50.2952455 ], [ 22.7776958, 50.2989701 ], [ 22.787691, 50.3016304 ], [ 22.8018509, 50.2995022 ], [ 22.8218413, 50.3000342 ], [ 22.8326694, 50.3074824 ], [ 22.8418317, 50.3138656 ], [ 22.8543257, 50.3170568 ], [ 22.8651539, 50.3175887 ], [ 22.8776479, 50.315461199999987 ], [ 22.8943065, 50.3128018 ], [ 22.9309557, 50.3128018 ], [ 22.9509461, 50.3122698 ], [ 22.9742682, 50.3149293 ], [ 22.9942586, 50.3191842 ], [ 23.0050868, 50.3276929 ], [ 23.0142491, 50.3351367 ], [ 23.0242443, 50.3388581 ], [ 23.0325736, 50.3452371 ], [ 23.0367383, 50.3542725 ], [ 23.040903, 50.3633062 ], [ 23.0475664, 50.3707444 ], [ 23.0583946, 50.3739319 ], [ 23.0708886, 50.3749943 ], [ 23.0892131, 50.3787126 ], [ 23.1008742, 50.3840241 ], [ 23.1075377, 50.3935831 ], [ 23.1142012, 50.4057946 ], [ 23.1241964, 50.418003 ], [ 23.1366904, 50.4286164 ], [ 23.1525161, 50.4360444 ], [ 23.1650102, 50.4392275 ], [ 23.191664, 50.439757899999989 ], [ 23.217485, 50.4424103 ], [ 23.2333108, 50.4461234 ], [ 23.2441389, 50.4466538 ], [ 23.2582988, 50.4434712 ], [ 23.2824539, 50.4381665 ], [ 23.3032772, 50.437636 ], [ 23.3232676, 50.4402884 ], [ 23.3382605, 50.4429408 ], [ 23.3524203, 50.4466538 ], [ 23.369912, 50.4477146 ], [ 23.3849048, 50.447184199999988 ], [ 23.4065611, 50.4445321 ], [ 23.4273844, 50.4402884 ], [ 23.4532054, 50.4344528 ], [ 23.4723629, 50.4318 ], [ 23.4915204, 50.4333917 ], [ 23.5106778, 50.4349833 ], [ 23.5265036, 50.4323306 ], [ 23.5431623, 50.4275552 ], [ 23.5614868, 50.4307388 ], [ 23.571482, 50.4286164 ], [ 23.6006347, 50.4243713 ], [ 23.6106299, 50.4264939 ], [ 23.6256228, 50.4318 ], [ 23.6406156, 50.4323306 ], [ 23.6639377, 50.4339222 ], [ 23.6797635, 50.4408189 ], [ 23.6822623, 50.4461234 ], [ 23.6780976, 50.4508969 ], [ 23.6672695, 50.4535486 ], [ 23.6506108, 50.4540789 ], [ 23.6372838, 50.4556699 ], [ 23.6214581, 50.4562002 ], [ 23.6214581, 50.4625634 ], [ 23.6297874, 50.4689257 ], [ 23.6422814, 50.4726367 ], [ 23.6631048, 50.4779376 ], [ 23.6822623, 50.4837679 ], [ 23.6997539, 50.4901274 ], [ 23.7214102, 50.4954263 ], [ 23.7347371, 50.4954263 ], [ 23.761391, 50.4895974 ], [ 23.773885, 50.4895974 ], [ 23.7947084, 50.4927769 ], [ 23.8122, 50.4927769 ], [ 23.8263599, 50.4890675 ], [ 23.8555126, 50.4911872 ], [ 23.8788347, 50.496486 ], [ 23.900491, 50.5076116 ], [ 23.9104862, 50.5144975 ], [ 23.9229803, 50.5197937 ], [ 23.9354743, 50.521912 ], [ 23.9471353, 50.5266778 ], [ 23.9537988, 50.5325021 ], [ 23.964627, 50.5377963 ], [ 23.9797586, 50.5399138 ], [ 23.9941961, 50.539208 ], [ 24.0108548, 50.5399138 ], [ 24.0214053, 50.5434427 ], [ 24.0314005, 50.550147 ], [ 24.0491698, 50.5603781 ], [ 24.063052, 50.5709595 ], [ 24.0708261, 50.579423 ], [ 24.0830424, 50.5857696 ], [ 24.0958141, 50.587885 ], [ 24.1080305, 50.5889426 ], [ 24.122468, 50.5868273 ], [ 24.1430137, 50.5875324 ], [ 24.1741099, 50.5900002 ], [ 24.1918792, 50.5970504 ], [ 24.2040955, 50.6069188 ], [ 24.2118696, 50.6171375 ], [ 24.2157566, 50.625945 ], [ 24.2196436, 50.6305242 ], [ 24.2329706, 50.6375683 ], [ 24.249074, 50.6435549 ], [ 24.2729384, 50.6516698 ], [ 24.2718278, 50.655190399999988 ], [ 24.2651644, 50.6565985 ], [ 24.2590562, 50.6611747 ], [ 24.2518374, 50.6632867 ], [ 24.2462845, 50.6629347 ], [ 24.239621, 50.6618787 ], [ 24.2346234, 50.6604707 ], [ 24.2285153, 50.6587107 ], [ 24.2218518, 50.6558944 ], [ 24.2174095, 50.6555424 ], [ 24.2113013, 50.6573026 ], [ 24.2063037, 50.6594147 ], [ 24.1996402, 50.6601187 ], [ 24.1940873, 50.6597667 ], [ 24.1874238, 50.6597667 ], [ 24.1818709, 50.6608227 ], [ 24.1785392, 50.6632867 ], [ 24.1785392, 50.6671584 ], [ 24.1802051, 50.6706778 ], [ 24.1868686, 50.6752527 ], [ 24.1890897, 50.6794752 ], [ 24.1929767, 50.6836974 ], [ 24.1907556, 50.6872156 ], [ 24.1868686, 50.6875674 ], [ 24.1824262, 50.688271 ], [ 24.1763181, 50.6872156 ], [ 24.1702099, 50.6861602 ], [ 24.1657676, 50.6868638 ], [ 24.1652123, 50.6896782 ], [ 24.1679887, 50.6946029 ], [ 24.1718757, 50.6995272 ], [ 24.1779839, 50.7040992 ], [ 24.1813157, 50.7100774 ], [ 24.1779839, 50.7128904 ], [ 24.1735416, 50.7135936 ], [ 24.1690993, 50.7118355 ], [ 24.1624358, 50.7079675 ], [ 24.1574382, 50.7083192 ], [ 24.1557723, 50.710429 ], [ 24.1585488, 50.7135936 ], [ 24.1652123, 50.7171095 ], [ 24.1707652, 50.7209768 ], [ 24.1757628, 50.7269528 ], [ 24.1735416, 50.7339824 ], [ 24.1663228, 50.7424166 ], [ 24.1591041, 50.7487412 ], [ 24.1518853, 50.7515518 ], [ 24.1463324, 50.7515518 ], [ 24.1402242, 50.7497952 ], [ 24.1335608, 50.7501465 ], [ 24.1291184, 50.7519032 ], [ 24.1280079, 50.7550649 ], [ 24.1296737, 50.7603341 ], [ 24.126342, 50.7659539 ], [ 24.1213444, 50.7712218 ], [ 24.1207891, 50.7754357 ], [ 24.1235656, 50.7800004 ], [ 24.1274526, 50.7838624 ], [ 24.1318949, 50.7884262 ], [ 24.1391137, 50.7898304 ], [ 24.1468877, 50.7894793 ], [ 24.1618805, 50.7908835 ], [ 24.1702099, 50.7936916 ], [ 24.1813157, 50.7964996 ], [ 24.193532, 50.7954466 ], [ 24.206859, 50.8000093 ], [ 24.2162989, 50.8038697 ], [ 24.2268494, 50.8080807 ], [ 24.2296258, 50.8150981 ], [ 24.22796, 50.8203605 ], [ 24.2207412, 50.8235177 ], [ 24.2079696, 50.8273761 ], [ 24.1968638, 50.831585 ], [ 24.1824262, 50.8385989 ], [ 24.1674334, 50.8414041 ], [ 24.1618805, 50.8452611 ], [ 24.1574382, 50.8494683 ], [ 24.1413348, 50.8536752 ], [ 24.1280079, 50.8564796 ], [ 24.1241208, 50.8592838 ], [ 24.1135703, 50.8652421 ], [ 24.1046857, 50.8669944 ], [ 24.0958011, 50.8680458 ], [ 24.0846953, 50.8704989 ], [ 24.0791424, 50.8750542 ], [ 24.0774765, 50.8827623 ], [ 24.066926, 50.8897685 ], [ 24.0619284, 50.8932712 ], [ 24.0580414, 50.8978243 ], [ 24.0502673, 50.9037778 ], [ 24.0369404, 50.90868 ], [ 24.0252793, 50.911130899999989 ], [ 24.01695, 50.9160324 ], [ 24.0113971, 50.9230336 ], [ 24.0108418, 50.9310837 ], [ 24.0063995, 50.9349333 ], [ 23.9991807, 50.9380827 ], [ 23.9964043, 50.9415818 ], [ 23.995849, 50.9457803 ], [ 23.9930725, 50.9506781 ], [ 23.9886302, 50.9541763 ], [ 23.9803009, 50.9580239 ], [ 23.9753033, 50.9601225 ], [ 23.9725268, 50.9643194 ], [ 23.9725268, 50.9713133 ], [ 23.9730821, 50.9783062 ], [ 23.9691951, 50.9856476 ], [ 23.9630869, 50.9926383 ], [ 23.9569787, 50.9954343 ], [ 23.9514258, 50.999628 ], [ 23.9519811, 51.0062672 ], [ 23.9564234, 51.0111587 ], [ 23.9597552, 51.0160496 ], [ 23.9580893, 51.0205907 ], [ 23.9542023, 51.0240836 ], [ 23.9425412, 51.025480699999989 ], [ 23.9297695, 51.0258299 ], [ 23.9219955, 51.0261792 ], [ 23.9142214, 51.0286239 ], [ 23.9120003, 51.0363066 ], [ 23.9008945, 51.0418931 ], [ 23.8914546, 51.0488754 ], [ 23.8870122, 51.0544605 ], [ 23.8853464, 51.0663265 ], [ 23.8859017, 51.0747006 ], [ 23.8831252, 51.0813291 ], [ 23.8714641, 51.0865614 ], [ 23.8586925, 51.089003 ], [ 23.8514737, 51.089003 ], [ 23.8436997, 51.0858638 ], [ 23.8370362, 51.078887099999989 ], [ 23.8303727, 51.076445 ], [ 23.8214881, 51.076445 ], [ 23.8126035, 51.0802826 ], [ 23.8094105, 51.0871718 ], [ 23.8094105, 51.093101 ], [ 23.8099658, 51.1014703 ], [ 23.8083, 51.1056544 ], [ 23.8088553, 51.1126271 ], [ 23.8105211, 51.1178559 ], [ 23.8216269, 51.1220385 ], [ 23.8255139, 51.1269177 ], [ 23.8244034, 51.134584 ], [ 23.8260692, 51.1401587 ], [ 23.819961, 51.1471262 ], [ 23.8149634, 51.1488679 ], [ 23.8055235, 51.1502612 ], [ 23.7938624, 51.1502612 ], [ 23.7883096, 51.1523511 ], [ 23.7860884, 51.1582719 ], [ 23.7860884, 51.1638437 ], [ 23.7810908, 51.1683704 ], [ 23.769985, 51.1697631 ], [ 23.7577686, 51.1715039 ], [ 23.7549922, 51.1742892 ], [ 23.7544369, 51.1788148 ], [ 23.7466628, 51.1850802 ], [ 23.744997, 51.1913449 ], [ 23.7438864, 51.1996964 ], [ 23.7383335, 51.2101337 ], [ 23.727783, 51.214307899999987 ], [ 23.7155666, 51.2167427 ], [ 23.7061267, 51.2202208 ], [ 23.6983527, 51.2264807 ], [ 23.6994632, 51.234825799999989 ], [ 23.7039056, 51.2393455 ], [ 23.7139008, 51.2438647 ], [ 23.7250066, 51.2435171 ], [ 23.7361123, 51.243864699999989 ], [ 23.7416652, 51.243864699999989 ], [ 23.7461076, 51.2487311 ], [ 23.7477734, 51.2518592 ], [ 23.7483287, 51.2574197 ], [ 23.7499946, 51.2643694 ], [ 23.7477734, 51.2692336 ], [ 23.7433311, 51.2723603 ], [ 23.7300042, 51.2765289 ], [ 23.7244513, 51.2786131 ], [ 23.7177878, 51.2831284 ], [ 23.7077926, 51.2855596 ], [ 23.7000185, 51.2845177 ], [ 23.6911339, 51.280349799999989 ], [ 23.6828046, 51.2786131 ], [ 23.6672565, 51.2806972 ], [ 23.6550401, 51.2817392 ], [ 23.6333838, 51.2879906 ], [ 23.6250545, 51.2970191 ], [ 23.6172804, 51.3098642 ], [ 23.6122828, 51.3164589 ], [ 23.6133934, 51.3216646 ], [ 23.6161698, 51.3247877 ], [ 23.6256097, 51.3292985 ], [ 23.6378261, 51.3351966 ], [ 23.6483766, 51.341094 ], [ 23.6533742, 51.3504588 ], [ 23.6500425, 51.3580879 ], [ 23.6505978, 51.3629422 ], [ 23.6555954, 51.3650224 ], [ 23.6611483, 51.3664092 ], [ 23.6700329, 51.3702226 ], [ 23.6766964, 51.3740357 ], [ 23.6927998, 51.3768087 ], [ 23.7016844, 51.3830472 ], [ 23.7033503, 51.3892849 ], [ 23.7011291, 51.3955217 ], [ 23.6950209, 51.4000256 ], [ 23.6878022, 51.4052218 ], [ 23.6800281, 51.4100711 ], [ 23.6711435, 51.4121492 ], [ 23.6589271, 51.4124955 ], [ 23.6461555, 51.4124955 ], [ 23.635605, 51.4138808 ], [ 23.6239439, 51.4159588 ], [ 23.6117275, 51.4197681 ], [ 23.6072852, 51.4266932 ], [ 23.6039535, 51.4318864 ], [ 23.5922924, 51.4377713 ], [ 23.5856289, 51.4443476 ], [ 23.5845183, 51.4529992 ], [ 23.5784101, 51.4609573 ], [ 23.5756337, 51.4692598 ], [ 23.576189, 51.4806734 ], [ 23.5711914, 51.4907012 ], [ 23.5617515, 51.4958871 ], [ 23.558975, 51.502455 ], [ 23.5584197, 51.5117868 ], [ 23.5534221, 51.5200801 ], [ 23.5450928, 51.5242262 ], [ 23.533987, 51.5332081 ], [ 23.5289894, 51.5414975 ], [ 23.5306552, 51.550476 ], [ 23.5367634, 51.5580719 ], [ 23.5456481, 51.5618693 ], [ 23.5517562, 51.5729145 ], [ 23.5561986, 51.5815418 ], [ 23.5573091, 51.5880974 ], [ 23.555088, 51.5929272 ], [ 23.5495351, 51.5956869 ], [ 23.5400952, 51.595342 ], [ 23.5245471, 51.5936172 ], [ 23.5062225, 51.5943071 ], [ 23.4928956, 51.5994812 ], [ 23.4862321, 51.6053445 ], [ 23.4840109, 51.6139656 ], [ 23.4890085, 51.6274112 ], [ 23.4928956, 51.6384405 ], [ 23.4945614, 51.6473999 ], [ 23.4884532, 51.6556685 ], [ 23.4840109, 51.6635912 ], [ 23.4862321, 51.6711681 ], [ 23.4928956, 51.6835639 ], [ 23.4967826, 51.6914817 ], [ 23.5001143, 51.7021513 ], [ 23.5073331, 51.7083454 ], [ 23.5195495, 51.7200431 ], [ 23.5278788, 51.727954499999989 ], [ 23.5389846, 51.7313938 ], [ 23.5673044, 51.7320816 ], [ 23.5828525, 51.7334572 ], [ 23.5895159, 51.7379277 ], [ 23.5911818, 51.7406786 ], [ 23.5889606, 51.7444608 ], [ 23.5872948, 51.7503053 ], [ 23.5906265, 51.7533992 ], [ 23.5906265, 51.7602737 ], [ 23.5872948, 51.7647415 ], [ 23.5784101, 51.7671471 ], [ 23.5700808, 51.768178 ], [ 23.5650832, 51.7747067 ], [ 23.5661938, 51.7802037 ], [ 23.576189, 51.782265 ], [ 23.59729, 51.7860437 ], [ 23.6056193, 51.7918828 ], [ 23.6106169, 51.7977212 ], [ 23.6178357, 51.8032155 ], [ 23.6278309, 51.8059624 ], [ 23.6339391, 51.8111123 ], [ 23.6361602, 51.8172915 ], [ 23.6344944, 51.8210672 ], [ 23.6289415, 51.8241563 ], [ 23.6206121, 51.8255291 ], [ 23.6072852, 51.8248427 ], [ 23.5961794, 51.8255291 ], [ 23.5789654, 51.8234698 ], [ 23.5639726, 51.8244995 ], [ 23.5528668, 51.8303336 ], [ 23.5467586, 51.8399412 ], [ 23.5495351, 51.8516048 ], [ 23.5534221, 51.859836099999988 ], [ 23.5673044, 51.8677231 ], [ 23.5861842, 51.8773227 ], [ 23.593403, 51.8889766 ], [ 23.5950688, 51.8999422 ], [ 23.5922924, 51.9115902 ], [ 23.5967347, 51.9211805 ], [ 23.6067299, 51.9287142 ], [ 23.6200568, 51.9369314 ], [ 23.6256097, 51.9465162 ], [ 23.6367155, 51.9567834 ], [ 23.6494872, 51.9632848 ], [ 23.668367, 51.9643112 ], [ 23.6944656, 51.9673904 ], [ 23.7055714, 51.9721798 ], [ 23.7150113, 51.980731 ], [ 23.7172325, 51.9872289 ], [ 23.7194537, 51.9974868 ], [ 23.7216748, 52.0101349 ], [ 23.7233407, 52.0244879 ], [ 23.7200089, 52.0388363 ], [ 23.7166772, 52.0443011 ], [ 23.7133455, 52.0531801 ], [ 23.7094584, 52.056936 ], [ 23.7033503, 52.0596674 ], [ 23.6889127, 52.0596674 ], [ 23.6750305, 52.059326 ], [ 23.6561507, 52.0565946 ], [ 23.6411578, 52.0559117 ], [ 23.6272756, 52.0579603 ], [ 23.6195016, 52.0627401 ], [ 23.618391, 52.0671779 ], [ 23.6217227, 52.0719567 ], [ 23.6272756, 52.0753697 ], [ 23.6333838, 52.0801476 ], [ 23.6350497, 52.088337 ], [ 23.6328285, 52.0937958 ], [ 23.6289415, 52.0999362 ], [ 23.6283862, 52.1094861 ], [ 23.6294968, 52.119375 ], [ 23.6322732, 52.1313069 ], [ 23.6233886, 52.1435764 ], [ 23.6167251, 52.1493692 ], [ 23.6095063, 52.1527764 ], [ 23.5961794, 52.1544798 ], [ 23.5845183, 52.1544798 ], [ 23.5689702, 52.1527764 ], [ 23.5561986, 52.1514135 ], [ 23.5450928, 52.1534578 ], [ 23.5384293, 52.1572053 ], [ 23.5367634, 52.1633369 ], [ 23.5389846, 52.1725327 ], [ 23.5423163, 52.1820671 ], [ 23.5450928, 52.1881953 ], [ 23.541761, 52.1922803 ], [ 23.5350976, 52.1956842 ], [ 23.5278788, 52.1956842 ], [ 23.5217706, 52.1936419 ], [ 23.5156624, 52.1881953 ], [ 23.5062225, 52.1830885 ], [ 23.4967826, 52.1824076 ], [ 23.4890085, 52.183429 ], [ 23.4806792, 52.187174 ], [ 23.4762369, 52.1919399 ], [ 23.4767922, 52.1994281 ], [ 23.4795686, 52.2082762 ], [ 23.4779027, 52.2133801 ], [ 23.4712393, 52.2164421 ], [ 23.4606888, 52.2171225 ], [ 23.4479171, 52.2188236 ], [ 23.4373666, 52.2171225 ], [ 23.432369, 52.2123593 ], [ 23.4290373, 52.2075956 ], [ 23.4212632, 52.2041927 ], [ 23.4062704, 52.2041927 ], [ 23.3934988, 52.2086165 ], [ 23.3857247, 52.2154215 ], [ 23.382393, 52.221545 ], [ 23.3835035, 52.2290283 ], [ 23.3851694, 52.2365103 ], [ 23.3829483, 52.243991 ], [ 23.3779506, 52.2480708 ], [ 23.3674001, 52.2501106 ], [ 23.3512968, 52.2490907 ], [ 23.344078, 52.2470509 ], [ 23.3368592, 52.2405908 ], [ 23.3279746, 52.2371904 ], [ 23.3179794, 52.2375304 ], [ 23.3079842, 52.2405908 ], [ 23.297156, 52.2423547 ], [ 23.2888267, 52.2406546 ], [ 23.2810526, 52.2389544 ], [ 23.2738339, 52.2379342 ], [ 23.2666151, 52.2403145 ], [ 23.2616175, 52.2433747 ], [ 23.2599516, 52.2460947 ], [ 23.2610622, 52.2491545 ], [ 23.2610622, 52.2539137 ], [ 23.2588411, 52.2576528 ], [ 23.2593964, 52.2617314 ], [ 23.2599516, 52.2664893 ], [ 23.2571752, 52.2702273 ], [ 23.2527329, 52.2715864 ], [ 23.2421824, 52.2702273 ], [ 23.2377401, 52.266829099999988 ], [ 23.2327425, 52.2651299 ], [ 23.2233025, 52.2637705 ], [ 23.2166391, 52.2651299 ], [ 23.208865, 52.2698875 ], [ 23.2077544, 52.2736252 ], [ 23.2071991, 52.2773625 ], [ 23.2116415, 52.281779 ], [ 23.2155285, 52.2868745 ], [ 23.2144179, 52.2933278 ], [ 23.2094203, 52.2987615 ], [ 23.1977592, 52.3031759 ], [ 23.183877, 52.3052131 ], [ 23.1755476, 52.303855 ], [ 23.1699948, 52.2980823 ], [ 23.162776, 52.2919693 ], [ 23.1511149, 52.2889125 ], [ 23.1400091, 52.2892521 ], [ 23.1277928, 52.2909504 ], [ 23.1150211, 52.2960447 ], [ 23.0983624, 52.2994407 ], [ 23.0839249, 52.3048736 ], [ 23.0739297, 52.3106453 ], [ 23.0717085, 52.318453 ], [ 23.0728191, 52.3276167 ], [ 23.0689321, 52.3357607 ], [ 23.057271, 52.3422069 ], [ 23.0494969, 52.3445816 ], [ 23.0411676, 52.3472954 ], [ 23.03617, 52.3530616 ], [ 23.0300618, 52.358488 ], [ 23.0206219, 52.3605227 ], [ 23.0117373, 52.3598444 ], [ 22.9989656, 52.356114 ], [ 22.9850834, 52.3567923 ], [ 22.9745329, 52.3588271 ], [ 22.95954, 52.3598444 ], [ 22.947879, 52.3564532 ], [ 22.9428814, 52.3527224 ], [ 22.9323309, 52.3496698 ], [ 22.9195592, 52.3476346 ], [ 22.9067876, 52.3517049 ], [ 22.8984582, 52.3564532 ], [ 22.8901289, 52.358488 ], [ 22.8801337, 52.3567923 ], [ 22.8734702, 52.3530616 ], [ 22.8668067, 52.3503482 ], [ 22.8590327, 52.3493306 ], [ 22.850148, 52.3503482 ], [ 22.8434846, 52.3534008 ], [ 22.8373764, 52.3578097 ], [ 22.8268259, 52.3588271 ], [ 22.817386, 52.358488 ], [ 22.8018378, 52.3628964 ], [ 22.7907321, 52.3669653 ], [ 22.7796263, 52.3710338 ], [ 22.765744, 52.3717119 ], [ 22.7518618, 52.372729 ], [ 22.740756, 52.3801867 ], [ 22.7340925, 52.3896765 ], [ 22.7313161, 52.3944207 ], [ 22.7213209, 52.3974702 ], [ 22.7085492, 52.3961149 ], [ 22.6974434, 52.3950984 ], [ 22.6874482, 52.3940818 ], [ 22.6785636, 52.3934041 ], [ 22.6680131, 52.393743 ], [ 22.6596837, 52.3964537 ], [ 22.6474674, 52.4005196 ], [ 22.639138, 52.4008584 ], [ 22.6302534, 52.3998419 ], [ 22.6174817, 52.3971314 ], [ 22.6085971, 52.3974702 ], [ 22.5986019, 52.3995031 ], [ 22.593049, 52.4028911 ], [ 22.5908279, 52.4079726 ], [ 22.5908279, 52.4127148 ], [ 22.5947149, 52.4171178 ], [ 22.5997125, 52.4225363 ], [ 22.5991572, 52.4276155 ], [ 22.5947149, 52.4310013 ], [ 22.5863855, 52.432017 ], [ 22.5797221, 52.4326941 ], [ 22.5747245, 52.4360796 ], [ 22.575835, 52.4394647 ], [ 22.5780562, 52.4442035 ], [ 22.5802774, 52.4499571 ], [ 22.5797221, 52.4557099 ], [ 22.5741692, 52.4631536 ], [ 22.571948, 52.4672133 ], [ 22.5752798, 52.4716109 ], [ 22.5819432, 52.476008 ], [ 22.5836091, 52.479390099999989 ], [ 22.575835, 52.484800899999989 ], [ 22.5658398, 52.4868298 ], [ 22.5563999, 52.4885205 ], [ 22.5530682, 52.4915635 ], [ 22.554734, 52.4969728 ], [ 22.5608422, 52.5017055 ], [ 22.5669504, 52.5064376 ], [ 22.5697269, 52.5115071 ], [ 22.568061, 52.5179277 ], [ 22.5580658, 52.5229959 ], [ 22.5464047, 52.5240095 ], [ 22.533633, 52.525023 ], [ 22.5214167, 52.5243473 ], [ 22.5119768, 52.5256987 ], [ 22.504758, 52.529077 ], [ 22.5030921, 52.5365083 ], [ 22.500871, 52.5436007 ], [ 22.4964287, 52.5483283 ], [ 22.4880993, 52.5517048 ], [ 22.4769935, 52.5527177 ], [ 22.4636666, 52.5550811 ], [ 22.4575584, 52.5594699 ], [ 22.4542267, 52.5658834 ], [ 22.4542267, 52.5722961 ], [ 22.458669, 52.5790452 ], [ 22.4669983, 52.5868054 ], [ 22.4708853, 52.5935523 ], [ 22.47033, 52.6016472 ], [ 22.4647772, 52.6094035 ], [ 22.4503396, 52.6161469 ], [ 22.4342362, 52.6198553 ], [ 22.4109141, 52.6228893 ], [ 22.3887025, 52.6232263 ], [ 22.3681568, 52.6255859 ], [ 22.3587169, 52.6299676 ], [ 22.3520534, 52.6404146 ], [ 22.3415029, 52.6454687 ], [ 22.3298418, 52.6505222 ], [ 22.3176254, 52.659617 ], [ 22.3120726, 52.6656792 ], [ 22.297635, 52.6747708 ], [ 22.2809763, 52.6798209 ], [ 22.2654282, 52.6838606 ], [ 22.2498801, 52.684870499999988 ], [ 22.2398849, 52.6841972 ], [ 22.2293344, 52.6781376 ], [ 22.2143416, 52.6670262 ], [ 22.2049017, 52.6623114 ], [ 22.1910195, 52.6609642 ], [ 22.1771372, 52.660290599999989 ], [ 22.1643656, 52.6616378 ], [ 22.1504833, 52.6633217 ], [ 22.1316035, 52.6676997 ], [ 22.0982861, 52.6670262 ], [ 22.0805169, 52.6653424 ], [ 22.0694111, 52.662985 ], [ 22.0566394, 52.6582697 ], [ 22.0422019, 52.6575961 ], [ 22.0277644, 52.6606274 ], [ 22.015548, 52.6666894 ], [ 22.0044422, 52.6697201 ], [ 21.9922258, 52.6683732 ], [ 21.98112, 52.6660159 ], [ 21.9705695, 52.6633217 ], [ 21.9611296, 52.661301 ], [ 21.952245, 52.6619746 ], [ 21.9461368, 52.6636585 ], [ 21.9405839, 52.6693834 ], [ 21.9328099, 52.6764543 ], [ 21.9267017, 52.6801576 ], [ 21.9144853, 52.6808309 ], [ 21.9044901, 52.682850699999989 ], [ 21.8944949, 52.6885731 ], [ 21.8856103, 52.6922754 ], [ 21.8761703, 52.693285 ], [ 21.8628434, 52.6922754 ], [ 21.8461847, 52.6912657 ], [ 21.8356342, 52.6889097 ], [ 21.8267496, 52.6831873 ], [ 21.8195308, 52.6767909 ], [ 21.8156438, 52.6690467 ], [ 21.8100909, 52.6575961 ], [ 21.8028721, 52.649511499999988 ], [ 21.7967639, 52.6454687 ], [ 21.7878793, 52.6420993 ], [ 21.77955, 52.6417624 ], [ 21.7689995, 52.643784 ], [ 21.7617807, 52.6451317 ], [ 21.7501196, 52.6464794 ], [ 21.741235, 52.6454687 ], [ 21.7312398, 52.6417624 ], [ 21.7229104, 52.6363709 ], [ 21.7195787, 52.6316528 ], [ 21.7095835, 52.6239005 ], [ 21.7023647, 52.6201924 ], [ 21.6923695, 52.6174954 ], [ 21.6807085, 52.6171583 ], [ 21.6684921, 52.617495399999989 ], [ 21.6534993, 52.616484 ], [ 21.6446146, 52.6134496 ], [ 21.63573, 52.6063686 ], [ 21.631843, 52.5996236 ], [ 21.627956, 52.592203 ], [ 21.6207372, 52.5874802 ], [ 21.6118526, 52.5851185 ], [ 21.6001915, 52.5844438 ], [ 21.5901963, 52.5864681 ], [ 21.5802011, 52.5915284 ], [ 21.5746482, 52.592203 ], [ 21.5663188, 52.5928777 ], [ 21.5574342, 52.5965881 ], [ 21.5502154, 52.60131 ], [ 21.5396649, 52.6029962 ], [ 21.534112, 52.6033335 ], [ 21.5285591, 52.6050197 ], [ 21.5213404, 52.6067058 ], [ 21.5146769, 52.6067058 ], [ 21.5024605, 52.6050197 ], [ 21.4913547, 52.6050197 ], [ 21.4824701, 52.6073802 ], [ 21.4730302, 52.6073802 ], [ 21.4619244, 52.6046824 ], [ 21.4480422, 52.6002982 ], [ 21.4374917, 52.5986118 ], [ 21.4269412, 52.592877699999988 ], [ 21.4236094, 52.5888296 ], [ 21.4230541, 52.5834316 ], [ 21.4236094, 52.5763457 ], [ 21.4219436, 52.5712836 ], [ 21.4141695, 52.5645333 ], [ 21.4052849, 52.5571067 ], [ 21.399732, 52.5493412 ], [ 21.3908474, 52.5415744 ], [ 21.3714122, 52.5327928 ], [ 21.353643, 52.5287392 ], [ 21.3353184, 52.5263744 ], [ 21.3258785, 52.5253609 ], [ 21.3175492, 52.5229959 ], [ 21.3086645, 52.5196172 ], [ 21.3008905, 52.5155623 ], [ 21.2897847, 52.5125209 ], [ 21.277013, 52.5111692 ], [ 21.2664625, 52.5111692 ], [ 21.2570226, 52.5159002 ], [ 21.2498038, 52.5213066 ], [ 21.2425851, 52.5256987 ], [ 21.234811, 52.5277257 ], [ 21.2253711, 52.5267122 ], [ 21.2159312, 52.5263744 ], [ 21.2070466, 52.5267122 ], [ 21.1998278, 52.5287392 ], [ 21.1931643, 52.535495 ], [ 21.1870561, 52.540899 ], [ 21.1781715, 52.5429253 ], [ 21.1703974, 52.543263 ], [ 21.163734, 52.5422498 ], [ 21.1576258, 52.5405612 ], [ 21.1559599, 52.5357484 ], [ 21.1542941, 52.530006 ], [ 21.150407, 52.5256143 ], [ 21.1431883, 52.5235872 ], [ 21.1320825, 52.5235872 ], [ 21.1248637, 52.5225736 ], [ 21.1226426, 52.5202085 ], [ 21.121532, 52.5161537 ], [ 21.1198661, 52.5117606 ], [ 21.1143132, 52.508381 ], [ 21.1148685, 52.5053391 ], [ 21.1204214, 52.5006069 ], [ 21.1265296, 52.4941837 ], [ 21.1243084, 52.4867453 ], [ 21.1198661, 52.4823492 ], [ 21.1126473, 52.4806583 ], [ 21.1020968, 52.4816729 ], [ 21.0926569, 52.4813347 ], [ 21.0837723, 52.4789674 ], [ 21.0776641, 52.4722028 ], [ 21.0743324, 52.4657756 ], [ 21.0693348, 52.4563021 ], [ 21.0648925, 52.447165 ], [ 21.0615607, 52.4383646 ], [ 21.0615607, 52.4339637 ], [ 21.0643372, 52.4305781 ], [ 21.0704453, 52.4271922 ], [ 21.0809958, 52.4251606 ], [ 21.0909911, 52.424822 ], [ 21.108205, 52.4244834 ], [ 21.1148685, 52.422451599999988 ], [ 21.1170897, 52.4177105 ], [ 21.1143132, 52.4146623 ], [ 21.1076497, 52.4102591 ], [ 21.1070945, 52.4055166 ], [ 21.1132026, 52.4007737 ], [ 21.1220873, 52.3970467 ], [ 21.1281955, 52.3933194 ], [ 21.129306, 52.3892529 ], [ 21.1259743, 52.3828135 ], [ 21.1209767, 52.3784071 ], [ 21.1104262, 52.3767122 ], [ 21.1015416, 52.3767122 ], [ 21.0893252, 52.3784071 ], [ 21.0798853, 52.3814578 ], [ 21.0726665, 52.3824746 ], [ 21.0654477, 52.3807799 ], [ 21.062116, 52.3763732 ], [ 21.0604501, 52.3689149 ], [ 21.0610054, 52.364507 ], [ 21.0654477, 52.3556901 ], [ 21.0704453, 52.3502634 ], [ 21.0776641, 52.3458537 ], [ 21.0921016, 52.3421221 ], [ 21.104318, 52.3380509 ], [ 21.1154238, 52.3305861 ], [ 21.1193108, 52.32312 ], [ 21.1198661, 52.3156526 ], [ 21.1154238, 52.3051282 ], [ 21.1120921, 52.2969786 ], [ 21.1104262, 52.2878086 ], [ 21.1115368, 52.279316 ], [ 21.1126473, 52.2704821 ], [ 21.1159791, 52.2623261 ], [ 21.1220873, 52.2558683 ], [ 21.1331931, 52.2504293 ], [ 21.1476306, 52.2419296 ], [ 21.1587364, 52.2371691 ], [ 21.1737292, 52.2310477 ], [ 21.1815032, 52.226286 ], [ 21.1870561, 52.2215238 ], [ 21.1903879, 52.2143795 ], [ 21.1898326, 52.209616 ], [ 21.188722, 52.2034908 ], [ 21.1903879, 52.1960033 ], [ 21.1942749, 52.1908974 ], [ 21.2009384, 52.1868123 ], [ 21.209823, 52.1854505 ], [ 21.2231499, 52.1834077 ], [ 21.2292581, 52.1820458 ], [ 21.2320346, 52.1789814 ], [ 21.2320346, 52.1714898 ], [ 21.2275923, 52.1667217 ], [ 21.2187076, 52.1636562 ], [ 21.2037148, 52.1616124 ], [ 21.192609, 52.1599092 ], [ 21.1820585, 52.1554806 ], [ 21.1876114, 52.147985 ], [ 21.188722, 52.1398065 ], [ 21.1898326, 52.1346942 ], [ 21.1953855, 52.1265132 ], [ 21.1959408, 52.1193537 ], [ 21.1909432, 52.113557 ], [ 21.188722, 52.1057133 ], [ 21.1892773, 52.0995737 ], [ 21.1859456, 52.0954802 ], [ 21.1770609, 52.0883157 ], [ 21.1731739, 52.0804675 ], [ 21.1731739, 52.0739832 ], [ 21.1742845, 52.0664739 ], [ 21.1803927, 52.0593047 ], [ 21.1920537, 52.0521343 ], [ 21.2042701, 52.0429136 ], [ 21.21371, 52.0367655 ], [ 21.2303687, 52.0306164 ], [ 21.2392533, 52.0251499 ], [ 21.2425851, 52.0131896 ], [ 21.2392533, 52.0063537 ], [ 21.2403639, 51.9991748 ], [ 21.2442509, 51.9937045 ], [ 21.2459168, 51.9858396 ], [ 21.2448062, 51.9786575 ], [ 21.2492486, 51.970448 ], [ 21.2609096, 51.9612104 ], [ 21.2659072, 51.9536821 ], [ 21.2647967, 51.9461526 ], [ 21.2603543, 51.9417027 ], [ 21.255912, 51.9393064 ], [ 21.2470274, 51.9351982 ], [ 21.2431404, 51.9300625 ], [ 21.2431404, 51.9249261 ], [ 21.2448062, 51.9173917 ], [ 21.2498038, 51.9088284 ], [ 21.2575779, 51.9047174 ], [ 21.2681284, 51.9009487 ], [ 21.2742366, 51.8978649 ], [ 21.2775683, 51.8927249 ], [ 21.2764577, 51.8872415 ], [ 21.269239, 51.882443 ], [ 21.2631308, 51.8797008 ], [ 21.2514697, 51.8783296 ], [ 21.2431404, 51.8755872 ], [ 21.2375875, 51.8725017 ], [ 21.2370322, 51.8649585 ], [ 21.2403639, 51.8581 ], [ 21.2442509, 51.8522694 ], [ 21.252025, 51.8481532 ], [ 21.2592438, 51.8478102 ], [ 21.2703495, 51.8474672 ], [ 21.2764577, 51.8433506 ], [ 21.2786789, 51.8385474 ], [ 21.2781236, 51.8340869 ], [ 21.2703495, 51.82791 ], [ 21.2664625, 51.824478 ], [ 21.2625755, 51.8203593 ], [ 21.2570226, 51.8152104 ], [ 21.2470274, 51.8128074 ], [ 21.2403639, 51.8114342 ], [ 21.2325899, 51.8059409 ], [ 21.2231499, 51.8038808 ], [ 21.2092677, 51.8035374 ], [ 21.1992725, 51.8018205 ], [ 21.1931643, 51.7970129 ], [ 21.1865008, 51.790831 ], [ 21.1781715, 51.7867092 ], [ 21.1642893, 51.7853352 ], [ 21.1554046, 51.7849917 ], [ 21.1448541, 51.7843046 ], [ 21.138746, 51.7798387 ], [ 21.1365248, 51.7746852 ], [ 21.1370801, 51.7678129 ], [ 21.1331931, 51.7609396 ], [ 21.1265296, 51.7564713 ], [ 21.1165344, 51.7530339 ], [ 21.1054286, 51.751658899999988 ], [ 21.0943228, 51.7520027 ], [ 21.0854382, 51.7530339 ], [ 21.075443, 51.7530339 ], [ 21.0654477, 51.7506276 ], [ 21.0587843, 51.7489087 ], [ 21.0504549, 51.7451269 ], [ 21.0465679, 51.7396256 ], [ 21.0443467, 51.7348113 ], [ 21.0326857, 51.7289648 ], [ 21.0271328, 51.7238055 ], [ 21.0232457, 51.7186455 ], [ 21.0143611, 51.712452799999987 ], [ 21.0076976, 51.7097003 ], [ 20.9954813, 51.7093562 ], [ 20.9882625, 51.7100443 ], [ 20.981599, 51.7100443 ], [ 20.9782673, 51.708668 ], [ 20.9760461, 51.7059152 ], [ 20.9766014, 51.7004091 ], [ 20.9760461, 51.6959348 ], [ 20.969938, 51.6924928 ], [ 20.9627192, 51.691460199999987 ], [ 20.9532793, 51.689739 ], [ 20.9482817, 51.6852638 ], [ 20.9432841, 51.6794108 ], [ 20.9366206, 51.6773449 ], [ 20.9294018, 51.6752789 ], [ 20.9210725, 51.6711465 ], [ 20.9171855, 51.6656362 ], [ 20.9077455, 51.6639141 ], [ 20.8960845, 51.6649473 ], [ 20.8866445, 51.6673582 ], [ 20.8766493, 51.6677026 ], [ 20.8699859, 51.6639141 ], [ 20.8638777, 51.6618474 ], [ 20.8561036, 51.6618474 ], [ 20.8449978, 51.6635696 ], [ 20.8361132, 51.6628808 ], [ 20.8322262, 51.6601252 ], [ 20.8288944, 51.655647 ], [ 20.8272286, 51.6494456 ], [ 20.8211204, 51.6456555 ], [ 20.812791, 51.6446218 ], [ 20.8061276, 51.6442772 ], [ 20.8000194, 51.6439327 ], [ 20.7961324, 51.6422097 ], [ 20.7933559, 51.6401421 ], [ 20.79169, 51.6342833 ], [ 20.787803, 51.6280791 ], [ 20.7805843, 51.623253 ], [ 20.7694785, 51.6201502 ], [ 20.7600385, 51.6191159 ], [ 20.7528198, 51.6208397 ], [ 20.7428246, 51.6249766 ], [ 20.7344952, 51.6284238 ], [ 20.7217236, 51.6311813 ], [ 20.7156154, 51.6304919 ], [ 20.707286, 51.6287685 ], [ 20.7011779, 51.6298025 ], [ 20.6934038, 51.6304919 ], [ 20.6856298, 51.6291132 ], [ 20.6800769, 51.6253214 ], [ 20.6789663, 51.6198054 ], [ 20.6756346, 51.6115303 ], [ 20.6678605, 51.6042883 ], [ 20.6528677, 51.6011842 ], [ 20.6417619, 51.6001495 ], [ 20.6323538, 51.6019225 ], [ 20.6264307, 51.6056013 ], [ 20.6197672, 51.6079004 ], [ 20.6123634, 51.6081303 ], [ 20.6064403, 51.6072107 ], [ 20.6016278, 51.6046817 ], [ 20.598296, 51.5998531 ], [ 20.5960749, 51.594564 ], [ 20.5908922, 51.5892744 ], [ 20.5849691, 51.5869743 ], [ 20.5783056, 51.5858242 ], [ 20.5697912, 51.5865143 ], [ 20.559796, 51.5876643 ], [ 20.5520219, 51.5858242 ], [ 20.5457286, 51.5837541 ], [ 20.5364738, 51.583294 ], [ 20.5279594, 51.5855942 ], [ 20.5231469, 51.5862843 ], [ 20.5194449, 51.5855942 ], [ 20.513892, 51.5821438 ], [ 20.5068584, 51.5805336 ], [ 20.5001949, 51.5805336 ], [ 20.4913103, 51.5814537 ], [ 20.4857574, 51.5816838 ], [ 20.4809449, 51.5796134 ], [ 20.475392, 51.577773 ], [ 20.4676179, 51.5766227 ], [ 20.4587333, 51.5770828 ], [ 20.4502188, 51.577773 ], [ 20.4454063, 51.5800735 ], [ 20.4424448, 51.583524 ], [ 20.4394833, 51.5872043 ], [ 20.4354111, 51.590424299999988 ], [ 20.4305986, 51.5931842 ], [ 20.4261563, 51.5938741 ], [ 20.421714, 51.5929542 ], [ 20.4191226, 51.5911143 ], [ 20.4146803, 51.5885844 ], [ 20.4072765, 51.5876643 ], [ 20.3991322, 51.5862843 ], [ 20.3913582, 51.5855942 ], [ 20.3839543, 51.5851342 ], [ 20.3750697, 51.5867443 ], [ 20.3658149, 51.590424299999988 ], [ 20.3591514, 51.5929542 ], [ 20.3521177, 51.5934141 ], [ 20.3491562, 51.5911143 ], [ 20.3484158, 51.5853642 ], [ 20.3458244, 51.5823739 ], [ 20.3428629, 51.5807636 ], [ 20.33731, 51.5809936 ], [ 20.3317571, 51.5823739 ], [ 20.3265744, 51.5839841 ], [ 20.3210215, 51.5839841 ], [ 20.3176898, 51.5823739 ], [ 20.3154686, 51.577773 ], [ 20.3125071, 51.5736317 ], [ 20.3073244, 51.5713309 ], [ 20.3017715, 51.5671891 ], [ 20.2999205, 51.5625867 ], [ 20.2999205, 51.5545313 ], [ 20.2995503, 51.5471651 ], [ 20.296959, 51.5409489 ], [ 20.2899253, 51.5365741 ], [ 20.2825214, 51.5340411 ], [ 20.2743772, 51.531508 ], [ 20.2691945, 51.5298959 ], [ 20.2673435, 51.5266716 ], [ 20.2647522, 51.5229864 ], [ 20.2580887, 51.519531199999989 ], [ 20.252906, 51.5181491 ], [ 20.2443916, 51.5176884 ], [ 20.2373579, 51.5179188 ], [ 20.2306944, 51.5202223 ], [ 20.2247713, 51.522065 ], [ 20.2177377, 51.5216044 ], [ 20.212555, 51.5186098 ], [ 20.208853, 51.5133113 ], [ 20.2066319, 51.508473 ], [ 20.2014492, 51.5066297 ], [ 20.1951559, 51.5059385 ], [ 20.1907136, 51.5063993 ], [ 20.1862713, 51.507321 ], [ 20.1807184, 51.5070906 ], [ 20.1710934, 51.5059385 ], [ 20.1622087, 51.5063993 ], [ 20.1555452, 51.5082426 ], [ 20.1496222, 51.5112378 ], [ 20.1440693, 51.5116986 ], [ 20.1348144, 51.5123898 ], [ 20.1300019, 51.5137721 ], [ 20.1263, 51.5165366 ], [ 20.1255596, 51.5199919 ], [ 20.1251894, 51.526211 ], [ 20.1225981, 51.5305868 ], [ 20.1170452, 51.5319685 ], [ 20.1118625, 51.5317383 ], [ 20.10705, 51.5275928 ], [ 20.1014971, 51.5243684 ], [ 20.0933528, 51.5227561 ], [ 20.0833576, 51.5239077 ], [ 20.076324, 51.5259806 ], [ 20.0707711, 51.5294353 ], [ 20.0689201, 51.5349622 ], [ 20.064848, 51.5404884 ], [ 20.0589249, 51.5421001 ], [ 20.0544826, 51.5425606 ], [ 20.0485595, 51.5418699 ], [ 20.0441172, 51.5404884 ], [ 20.0385643, 51.5363438 ], [ 20.0337518, 51.5324291 ], [ 20.0274585, 51.5298959 ], [ 20.0196844, 51.5282838 ], [ 20.0059873, 51.5275928 ], [ 19.9967325, 51.526211 ], [ 19.9904392, 51.522065 ], [ 19.9874776, 51.5183795 ], [ 19.9863671, 51.5128506 ], [ 19.9834055, 51.5075514 ], [ 19.9774824, 51.5022516 ], [ 19.9722997, 51.4990253 ], [ 19.9704488, 51.4957988 ], [ 19.9678574, 51.4911892 ], [ 19.9626747, 51.4884231 ], [ 19.9515689, 51.486579 ], [ 19.9415737, 51.4849654 ], [ 19.93454, 51.4810463 ], [ 19.9300977, 51.4762045 ], [ 19.9300977, 51.4702093 ], [ 19.9326891, 51.4635214 ], [ 19.9326891, 51.456140399999988 ], [ 19.928617, 51.448989 ], [ 19.9282468, 51.4429902 ], [ 19.9278766, 51.4369906 ], [ 19.924915, 51.4314518 ], [ 19.9182516, 51.4279898 ], [ 19.9112179, 51.4259124 ], [ 19.9067756, 51.4231424 ], [ 19.9052948, 51.4196797 ], [ 19.9019631, 51.4146006 ], [ 19.8982611, 51.4122917 ], [ 19.8915977, 51.4104445 ], [ 19.8882659, 51.4085972 ], [ 19.8875255, 51.4053643 ], [ 19.8886361, 51.4016693 ], [ 19.8853044, 51.397974 ], [ 19.8808621, 51.3919685 ], [ 19.8816025, 51.3868863 ], [ 19.8890063, 51.3827277 ], [ 19.8923381, 51.3781066 ], [ 19.8919679, 51.3718674 ], [ 19.8978909, 51.3656273 ], [ 19.9030736, 51.3603111 ], [ 19.9019631, 51.354763 ], [ 19.8971506, 51.3510639 ], [ 19.894189, 51.346902 ], [ 19.8978909, 51.3436648 ], [ 19.9049246, 51.3401961 ], [ 19.9089967, 51.3362645 ], [ 19.9108477, 51.329557 ], [ 19.9182516, 51.3233111 ], [ 19.9223237, 51.3161389 ], [ 19.9260256, 51.3087342 ], [ 19.9278766, 51.3041057 ], [ 19.9260256, 51.2992452 ], [ 19.9230641, 51.2950786 ], [ 19.9186218, 51.2918377 ], [ 19.9145496, 51.2892911 ], [ 19.9093669, 51.287439 ], [ 19.9030736, 51.2860498 ], [ 19.8952996, 51.2837344 ], [ 19.8923381, 51.2804927 ], [ 19.8923381, 51.2767876 ], [ 19.8919679, 51.2733139 ], [ 19.8893765, 51.2693766 ], [ 19.8867852, 51.2652073 ], [ 19.8853044, 51.2596477 ], [ 19.886415, 51.2552459 ], [ 19.8908573, 51.2485265 ], [ 19.8923381, 51.2429649 ], [ 19.8923381, 51.2380979 ], [ 19.8952996, 51.2329987 ], [ 19.9034438, 51.2285943 ], [ 19.9089967, 51.2214073 ], [ 19.9108477, 51.2137554 ], [ 19.9123285, 51.2093492 ], [ 19.9104775, 51.2054064 ], [ 19.9089967, 51.203087 ], [ 19.9049246, 51.2012314 ], [ 19.8986313, 51.1986797 ], [ 19.8949294, 51.196128 ], [ 19.8945592, 51.1924161 ], [ 19.8971506, 51.1882399 ], [ 19.8997419, 51.1842953 ], [ 19.8990015, 51.1810466 ], [ 19.8964102, 51.175941 ], [ 19.8964102, 51.1717632 ], [ 19.9004823, 51.1666566 ], [ 19.907516, 51.1622459 ], [ 19.9097371, 51.1578348 ], [ 19.9089967, 51.1536554 ], [ 19.9067756, 51.1492434 ], [ 19.903814, 51.1464567 ], [ 19.8967804, 51.1434376 ], [ 19.8908573, 51.1415795 ], [ 19.882713, 51.1397214 ], [ 19.8771601, 51.137631 ], [ 19.8727178, 51.1353081 ], [ 19.8704967, 51.1315913 ], [ 19.8697563, 51.1276419 ], [ 19.8671649, 51.1225304 ], [ 19.8623524, 51.1183479 ], [ 19.8560591, 51.1157917 ], [ 19.8501361, 51.1139325 ], [ 19.8464341, 51.110214 ], [ 19.8438428, 51.1060303 ], [ 19.8438428, 51.1018463 ], [ 19.8456937, 51.095337 ], [ 19.8453235, 51.0909194 ], [ 19.8427322, 51.0858039 ], [ 19.8371793, 51.0820831 ], [ 19.8323668, 51.078362 ], [ 19.8301456, 51.0748732 ], [ 19.8294052, 51.0718494 ], [ 19.8312562, 51.0685928 ], [ 19.8345879, 51.064638 ], [ 19.8349581, 51.0609155 ], [ 19.832737, 51.0569601 ], [ 19.8286649, 51.0537024 ], [ 19.8257033, 51.049979 ], [ 19.8242225, 51.0453244 ], [ 19.8260735, 51.0406693 ], [ 19.8301456, 51.0355482 ], [ 19.830886, 51.0325218 ], [ 19.8297754, 51.0285639 ], [ 19.8249629, 51.0253042 ], [ 19.8208908, 51.0201814 ], [ 19.8164485, 51.0159896 ], [ 19.8138571, 51.010167 ], [ 19.8112658, 51.005508399999989 ], [ 19.8134869, 51.0015482 ], [ 19.8142273, 50.9985196 ], [ 19.8149677, 50.9973547 ], [ 19.8179293, 50.9943258 ], [ 19.8220014, 50.9908307 ], [ 19.8220014, 50.9905977 ], [ 19.8242225, 50.9859371 ], [ 19.8238524, 50.9822083 ], [ 19.8220014, 50.9784792 ], [ 19.8216312, 50.9742836 ], [ 19.8242225, 50.9710201 ], [ 19.830886, 50.967057 ], [ 19.8419918, 50.9621609 ], [ 19.8475447, 50.9574974 ], [ 19.8482851, 50.9528335 ], [ 19.8486553, 50.9477027 ], [ 19.8512466, 50.9421048 ], [ 19.8542082, 50.9358063 ], [ 19.8530976, 50.930906899999989 ], [ 19.8501361, 50.9269404 ], [ 19.8449534, 50.9236735 ], [ 19.8360687, 50.9227401 ], [ 19.8264437, 50.9208732 ], [ 19.8208908, 50.9197064 ], [ 19.8108956, 50.9183061 ], [ 19.8027514, 50.9185395 ], [ 19.7949773, 50.92134 ], [ 19.7890542, 50.9232068 ], [ 19.7801696, 50.9225068 ], [ 19.7764677, 50.9206399 ], [ 19.7735061, 50.9180727 ], [ 19.771285, 50.9138717 ], [ 19.7653619, 50.9106039 ], [ 19.7594388, 50.9078028 ], [ 19.7531455, 50.9054684 ], [ 19.7498138, 50.9017332 ], [ 19.7479628, 50.8963632 ], [ 19.7453714, 50.8926272 ], [ 19.7372272, 50.8891245 ], [ 19.7327849, 50.8839866 ], [ 19.7301935, 50.8769795 ], [ 19.7342657, 50.8706722 ], [ 19.7338955, 50.8634295 ], [ 19.7316743, 50.8585225 ], [ 19.7298233, 50.8531475 ], [ 19.7313041, 50.8466033 ], [ 19.7313041, 50.8414607 ], [ 19.7279724, 50.8374866 ], [ 19.7216791, 50.8339797 ], [ 19.715756, 50.8314078 ], [ 19.7076118, 50.8290695 ], [ 19.7002079, 50.8279004 ], [ 19.6942848, 50.8271989 ], [ 19.6902127, 50.8253282 ], [ 19.6865108, 50.8211187 ], [ 19.6828088, 50.8152717 ], [ 19.6846598, 50.80919 ], [ 19.6865108, 50.8047452 ], [ 19.6879915, 50.799364 ], [ 19.6865108, 50.7953863 ], [ 19.6839194, 50.7902381 ], [ 19.6828088, 50.7860255 ], [ 19.6846598, 50.7825147 ], [ 19.6898425, 50.7778333 ], [ 19.6924338, 50.7726832 ], [ 19.692804, 50.7642545 ], [ 19.6924338, 50.7572294 ], [ 19.6942848, 50.7506717 ], [ 19.6972464, 50.7464556 ], [ 19.7027993, 50.7396621 ], [ 19.7065012, 50.7316961 ], [ 19.7072416, 50.7263065 ], [ 19.7113137, 50.72326 ], [ 19.7190877, 50.720682 ], [ 19.7298233, 50.718807 ], [ 19.7424099, 50.7152912 ], [ 19.7527753, 50.7098997 ], [ 19.7609195, 50.7035699 ], [ 19.7672128, 50.700052899999989 ], [ 19.7738763, 50.6963012 ], [ 19.7801696, 50.690907599999989 ], [ 19.7827609, 50.6848097 ], [ 19.7835013, 50.6773035 ], [ 19.7816504, 50.6719077 ], [ 19.7786888, 50.6665113 ], [ 19.7757273, 50.6615836 ], [ 19.7749869, 50.6582982 ], [ 19.7768378, 50.6545431 ], [ 19.7827609, 50.6482058 ], [ 19.7846119, 50.6432761 ], [ 19.7842417, 50.6357633 ], [ 19.7842417, 50.6298931 ], [ 19.7909052, 50.6230827 ], [ 19.7975687, 50.6181505 ], [ 19.8075639, 50.6129828 ], [ 19.8145975, 50.6078145 ], [ 19.81941, 50.6010009 ], [ 19.821261, 50.5951264 ], [ 19.8208908, 50.5869008 ], [ 19.8205206, 50.5798491 ], [ 19.8220014, 50.5727964 ], [ 19.8223716, 50.5652723 ], [ 19.8220014, 50.5584525 ], [ 19.8234822, 50.5525727 ], [ 19.8276468, 50.547633 ], [ 19.8339401, 50.5426928 ], [ 19.8361613, 50.538458 ], [ 19.8354209, 50.5332816 ], [ 19.8346805, 50.5276339 ], [ 19.8302382, 50.522927 ], [ 19.8246853, 50.5172781 ], [ 19.8198728, 50.5130409 ], [ 19.8124689, 50.5090388 ], [ 19.8095074, 50.5052719 ], [ 19.8083968, 50.5007982 ], [ 19.8046949, 50.4953821 ], [ 19.7987718, 50.4930271 ], [ 19.7913679, 50.491143 ], [ 19.7869256, 50.491143 ], [ 19.7824833, 50.4937336 ], [ 19.7758198, 50.4963241 ], [ 19.768416, 50.4975015 ], [ 19.7658246, 50.4967951 ], [ 19.7576804, 50.4953821 ], [ 19.7510169, 50.4960886 ], [ 19.7413919, 50.497266 ], [ 19.7354688, 50.4963241 ], [ 19.7313967, 50.4949111 ], [ 19.7284351, 50.4916141 ], [ 19.7276947, 50.4850192 ], [ 19.732137, 50.4800725 ], [ 19.735839, 50.4730048 ], [ 19.7350986, 50.4678212 ], [ 19.7295457, 50.4635796 ], [ 19.7221418, 50.460516 ], [ 19.7125168, 50.459809 ], [ 19.7010408, 50.4607517 ], [ 19.6940072, 50.4614587 ], [ 19.6877139, 50.46193 ], [ 19.682161, 50.4602804 ], [ 19.6799398, 50.458395 ], [ 19.6780889, 50.454624 ], [ 19.6762379, 50.4499098 ], [ 19.6740167, 50.4468453 ], [ 19.670685, 50.4447236 ], [ 19.6655023, 50.4440164 ], [ 19.6595792, 50.4440164 ], [ 19.651435, 50.4449594 ], [ 19.6436609, 50.4454309 ], [ 19.638108, 50.4435449 ], [ 19.6310744, 50.4402442 ], [ 19.6273724, 50.4355286 ], [ 19.6258917, 50.4291618 ], [ 19.6277426, 50.424445 ], [ 19.6314446, 50.421143 ], [ 19.6366273, 50.4166614 ], [ 19.6366273, 50.4112357 ], [ 19.6329253, 50.4058094 ], [ 19.628483, 50.4022701 ], [ 19.6184878, 50.399438499999988 ], [ 19.6062714, 50.4006184 ], [ 19.599608, 50.4022701 ], [ 19.5947955, 50.4062812 ], [ 19.5866512, 50.4088765 ], [ 19.5759156, 50.4091124 ], [ 19.5674012, 50.4079328 ], [ 19.553704, 50.4041577 ], [ 19.5411175, 50.4020341 ], [ 19.5307521, 50.3999105 ], [ 19.5200165, 50.3968428 ], [ 19.5163145, 50.3949548 ], [ 19.5159444, 50.3921228 ], [ 19.5181655, 50.3881105 ], [ 19.5218674, 50.385278 ], [ 19.5218674, 50.3819733 ], [ 19.5203867, 50.3796127 ], [ 19.5170549, 50.3765436 ], [ 19.515204, 50.3732383 ], [ 19.5163145, 50.3689883 ], [ 19.5163145, 50.3652101 ], [ 19.513353, 50.3628486 ], [ 19.511502, 50.359542399999988 ], [ 19.5120111, 50.3557635 ], [ 19.512844, 50.3525748 ], [ 19.5145099, 50.3483229 ], [ 19.5111781, 50.3424759 ], [ 19.5078464, 50.3371599 ], [ 19.5053476, 50.3339699 ], [ 19.4978512, 50.3323749 ], [ 19.4903548, 50.3281212 ], [ 19.487023, 50.3212081 ], [ 19.4778608, 50.3180171 ], [ 19.4670326, 50.3153578 ], [ 19.4562045, 50.3153578 ], [ 19.4452649, 50.3137769 ] ] ] } }
]
}
